{"0000":{"zip_code":"0200000","prefecture":"岩手県","prefecture_kana":"イワテケン","city":"盛岡市","city_kana":"モリオカシ","town":"","town_kana":"","prefecture_code":3},"0133":{"zip_code":"0200133","prefecture":"岩手県","prefecture_kana":"イワテケン","city":"盛岡市","city_kana":"モリオカシ","town":"青山","town_kana":"アオヤマ","prefecture_code":3},"0801":{"zip_code":"0200801","prefecture":"岩手県","prefecture_kana":"イワテケン","city":"盛岡市","city_kana":"モリオカシ","town":"浅岸","town_kana":"アサギシ","prefecture_code":3},"0014":{"zip_code":"0200014","prefecture":"岩手県","prefecture_kana":"イワテケン","city":"盛岡市","city_kana":"モリオカシ","town":"愛宕下","town_kana":"アタゴシタ","prefecture_code":3},"0013":{"zip_code":"0200013","prefecture":"岩手県","prefecture_kana":"イワテケン","city":"盛岡市","city_kana":"モリオカシ","town":"愛宕町","town_kana":"アタゴチョウ","prefecture_code":3},"0126":{"zip_code":"0200126","prefecture":"岩手県","prefecture_kana":"イワテケン","city":"盛岡市","city_kana":"モリオカシ","town":"安倍館町","town_kana":"アベタテチョウ","prefecture_code":3},"0852":{"zip_code":"0200852","prefecture":"岩手県","prefecture_kana":"イワテケン","city":"盛岡市","city_kana":"モリオカシ","town":"飯岡新田","town_kana":"イイオカシンデン","prefecture_code":3},"0312":{"zip_code":"0200312","prefecture":"岩手県","prefecture_kana":"イワテケン","city":"盛岡市","city_kana":"モリオカシ","town":"砂子沢","town_kana":"イサゴザワ","prefecture_code":3},"0054":{"zip_code":"0200054","prefecture":"岩手県","prefecture_kana":"イワテケン","city":"盛岡市","city_kana":"モリオカシ","town":"猪去","town_kana":"イサリ","prefecture_code":3},"0142":{"zip_code":"0200142","prefecture":"岩手県","prefecture_kana":"イワテケン","city":"盛岡市","city_kana":"モリオカシ","town":"稲荷町","town_kana":"イナリチョウ","prefecture_code":3},"0012":{"zip_code":"0200012","prefecture":"岩手県","prefecture_kana":"イワテケン","city":"盛岡市","city_kana":"モリオカシ","town":"岩清水","town_kana":"イワシミズ","prefecture_code":3},"0101":{"zip_code":"0200101","prefecture":"岩手県","prefecture_kana":"イワテケン","city":"盛岡市","city_kana":"モリオカシ","town":"岩脇町","town_kana":"イワワキチョウ","prefecture_code":3},"0066":{"zip_code":"0200066","prefecture":"岩手県","prefecture_kana":"イワテケン","city":"盛岡市","city_kana":"モリオカシ","town":"上田","town_kana":"ウエダ","prefecture_code":3},"0102":{"zip_code":"0200102","prefecture":"岩手県","prefecture_kana":"イワテケン","city":"盛岡市","city_kana":"モリオカシ","town":"上田","town_kana":"ウエダ","prefecture_code":3},"0113":{"zip_code":"0200113","prefecture":"岩手県","prefecture_kana":"イワテケン","city":"盛岡市","city_kana":"モリオカシ","town":"上田堤","town_kana":"ウエダツツミ","prefecture_code":3},"0023":{"zip_code":"0200023","prefecture":"岩手県","prefecture_kana":"イワテケン","city":"盛岡市","city_kana":"モリオカシ","town":"内丸","town_kana":"ウチマル","prefecture_code":3},"0404":{"zip_code":"0200404","prefecture":"岩手県","prefecture_kana":"イワテケン","city":"盛岡市","city_kana":"モリオカシ","town":"大ケ生","town_kana":"オオガユウ","prefecture_code":3},"0025":{"zip_code":"0200025","prefecture":"岩手県","prefecture_kana":"イワテケン","city":"盛岡市","city_kana":"モリオカシ","town":"大沢川原","town_kana":"オオサワカワラ","prefecture_code":3},"0147":{"zip_code":"0200147","prefecture":"岩手県","prefecture_kana":"イワテケン","city":"盛岡市","city_kana":"モリオカシ","town":"大館町","town_kana":"オオダテチョウ","prefecture_code":3},"0022":{"zip_code":"0200022","prefecture":"岩手県","prefecture_kana":"イワテケン","city":"盛岡市","city_kana":"モリオカシ","town":"大通","town_kana":"オオドオリ","prefecture_code":3},"0403":{"zip_code":"0200403","prefecture":"岩手県","prefecture_kana":"イワテケン","city":"盛岡市","city_kana":"モリオカシ","town":"乙部","town_kana":"オトベ","prefecture_code":3},"0026":{"zip_code":"0200026","prefecture":"岩手県","prefecture_kana":"イワテケン","city":"盛岡市","city_kana":"モリオカシ","town":"開運橋通","town_kana":"カイウンバシドオリ","prefecture_code":3},"0807":{"zip_code":"0200807","prefecture":"岩手県","prefecture_kana":"イワテケン","city":"盛岡市","city_kana":"モリオカシ","town":"加賀野","town_kana":"カガノ","prefecture_code":3},"0823":{"zip_code":"0200823","prefecture":"岩手県","prefecture_kana":"イワテケン","city":"盛岡市","city_kana":"モリオカシ","town":"門","town_kana":"カド","prefecture_code":3},"0854":{"zip_code":"0200854","prefecture":"岩手県","prefecture_kana":"イワテケン","city":"盛岡市","city_kana":"モリオカシ","town":"上飯岡","town_kana":"カミイイオカ","prefecture_code":3},"0053":{"zip_code":"0200053","prefecture":"岩手県","prefecture_kana":"イワテケン","city":"盛岡市","city_kana":"モリオカシ","town":"上太田","town_kana":"カミオオタ","prefecture_code":3},"0855":{"zip_code":"0200855","prefecture":"岩手県","prefecture_kana":"イワテケン","city":"盛岡市","city_kana":"モリオカシ","town":"上鹿妻","town_kana":"カミカヅマ","prefecture_code":3},"0143":{"zip_code":"0200143","prefecture":"岩手県","prefecture_kana":"イワテケン","city":"盛岡市","city_kana":"モリオカシ","town":"上厨川","town_kana":"カミクリヤガワ","prefecture_code":3},"0125":{"zip_code":"0200125","prefecture":"岩手県","prefecture_kana":"イワテケン","city":"盛岡市","city_kana":"モリオカシ","town":"上堂","town_kana":"カミドウ","prefecture_code":3},"0887":{"zip_code":"0200887","prefecture":"岩手県","prefecture_kana":"イワテケン","city":"盛岡市","city_kana":"モリオカシ","town":"上ノ橋町","town_kana":"カミノハシチョウ","prefecture_code":3},"0001":{"zip_code":"0200001","prefecture":"岩手県","prefecture_kana":"イワテケン","city":"盛岡市","city_kana":"モリオカシ","town":"上米内","town_kana":"カミヨナイ","prefecture_code":3},"0812":{"zip_code":"0200812","prefecture":"岩手県","prefecture_kana":"イワテケン","city":"盛岡市","city_kana":"モリオカシ","town":"川目","town_kana":"カワメ","prefecture_code":3},"0811":{"zip_code":"0200811","prefecture":"岩手県","prefecture_kana":"イワテケン","city":"盛岡市","city_kana":"モリオカシ","town":"川目町","town_kana":"カワメチョウ","prefecture_code":3},"0857":{"zip_code":"0200857","prefecture":"岩手県","prefecture_kana":"イワテケン","city":"盛岡市","city_kana":"モリオカシ","town":"北飯岡","town_kana":"キタイイオカ","prefecture_code":3},"0136":{"zip_code":"0200136","prefecture":"岩手県","prefecture_kana":"イワテケン","city":"盛岡市","city_kana":"モリオカシ","town":"北天昌寺町","town_kana":"キタテンショウジチョウ","prefecture_code":3},"0105":{"zip_code":"0200105","prefecture":"岩手県","prefecture_kana":"イワテケン","city":"盛岡市","city_kana":"モリオカシ","town":"北松園","town_kana":"キタマツゾノ","prefecture_code":3},"0061":{"zip_code":"0200061","prefecture":"岩手県","prefecture_kana":"イワテケン","city":"盛岡市","city_kana":"モリオカシ","town":"北山","town_kana":"キタヤマ","prefecture_code":3},"0031":{"zip_code":"0200031","prefecture":"岩手県","prefecture_kana":"イワテケン","city":"盛岡市","city_kana":"モリオカシ","town":"北夕顔瀬町","town_kana":"キタユウガオセチョウ","prefecture_code":3},"0124":{"zip_code":"0200124","prefecture":"岩手県","prefecture_kana":"イワテケン","city":"盛岡市","city_kana":"モリオカシ","town":"厨川","town_kana":"クリヤガワ","prefecture_code":3},"0111":{"zip_code":"0200111","prefecture":"岩手県","prefecture_kana":"イワテケン","city":"盛岡市","city_kana":"モリオカシ","town":"黒石野","town_kana":"クロイシノ","prefecture_code":3},"0402":{"zip_code":"0200402","prefecture":"岩手県","prefecture_kana":"イワテケン","city":"盛岡市","city_kana":"モリオカシ","town":"黒川","town_kana":"クロカワ","prefecture_code":3},"0815":{"zip_code":"0200815","prefecture":"岩手県","prefecture_kana":"イワテケン","city":"盛岡市","city_kana":"モリオカシ","town":"小杉山","town_kana":"コスギヤマ","prefecture_code":3},"0104":{"zip_code":"0200104","prefecture":"岩手県","prefecture_kana":"イワテケン","city":"盛岡市","city_kana":"モリオカシ","town":"小鳥沢","town_kana":"コトリザワ","prefecture_code":3},"0885":{"zip_code":"0200885","prefecture":"岩手県","prefecture_kana":"イワテケン","city":"盛岡市","city_kana":"モリオカシ","town":"紺屋町","town_kana":"コンヤチョウ","prefecture_code":3},"0024":{"zip_code":"0200024","prefecture":"岩手県","prefecture_kana":"イワテケン","city":"盛岡市","city_kana":"モリオカシ","town":"菜園","town_kana":"サイエン","prefecture_code":3},"0063":{"zip_code":"0200063","prefecture":"岩手県","prefecture_kana":"イワテケン","city":"盛岡市","city_kana":"モリオカシ","town":"材木町","town_kana":"ザイモクチョウ","prefecture_code":3},"0041":{"zip_code":"0200041","prefecture":"岩手県","prefecture_kana":"イワテケン","city":"盛岡市","city_kana":"モリオカシ","town":"境田町","town_kana":"サカイダチョウ","prefecture_code":3},"0878":{"zip_code":"0200878","prefecture":"岩手県","prefecture_kana":"イワテケン","city":"盛岡市","city_kana":"モリオカシ","town":"肴町","town_kana":"サカナチョウ","prefecture_code":3},"0002":{"zip_code":"0200002","prefecture":"岩手県","prefecture_kana":"イワテケン","city":"盛岡市","city_kana":"モリオカシ","town":"桜台","town_kana":"サクラダイ","prefecture_code":3},"0821":{"zip_code":"0200821","prefecture":"岩手県","prefecture_kana":"イワテケン","city":"盛岡市","city_kana":"モリオカシ","town":"山王町","town_kana":"サンノウチョウ","prefecture_code":3},"0831":{"zip_code":"0200831","prefecture":"岩手県","prefecture_kana":"イワテケン","city":"盛岡市","city_kana":"モリオカシ","town":"三本柳","town_kana":"サンボンヤナギ","prefecture_code":3},"0883":{"zip_code":"0200883","prefecture":"岩手県","prefecture_kana":"イワテケン","city":"盛岡市","city_kana":"モリオカシ","town":"志家町","town_kana":"シケチョウ","prefecture_code":3},"0875":{"zip_code":"0200875","prefecture":"岩手県","prefecture_kana":"イワテケン","city":"盛岡市","city_kana":"モリオカシ","town":"清水町","town_kana":"シミズチョウ","prefecture_code":3},"0877":{"zip_code":"0200877","prefecture":"岩手県","prefecture_kana":"イワテケン","city":"盛岡市","city_kana":"モリオカシ","town":"下ノ橋町","town_kana":"シモノハシチョウ","prefecture_code":3},"0853":{"zip_code":"0200853","prefecture":"岩手県","prefecture_kana":"イワテケン","city":"盛岡市","city_kana":"モリオカシ","town":"下飯岡","town_kana":"シモイイオカ","prefecture_code":3},"0051":{"zip_code":"0200051","prefecture":"岩手県","prefecture_kana":"イワテケン","city":"盛岡市","city_kana":"モリオカシ","town":"下太田","town_kana":"シモオオタ","prefecture_code":3},"0856":{"zip_code":"0200856","prefecture":"岩手県","prefecture_kana":"イワテケン","city":"盛岡市","city_kana":"モリオカシ","town":"下鹿妻","town_kana":"シモカヅマ","prefecture_code":3},"0123":{"zip_code":"0200123","prefecture":"岩手県","prefecture_kana":"イワテケン","city":"盛岡市","city_kana":"モリオカシ","town":"下厨川","town_kana":"シモクリヤガワ","prefecture_code":3},"0003":{"zip_code":"0200003","prefecture":"岩手県","prefecture_kana":"イワテケン","city":"盛岡市","city_kana":"モリオカシ","town":"下米内","town_kana":"シモヨナイ","prefecture_code":3},"0044":{"zip_code":"0200044","prefecture":"岩手県","prefecture_kana":"イワテケン","city":"盛岡市","city_kana":"モリオカシ","town":"城西町","town_kana":"ジョウセイチョウ","prefecture_code":3},"0803":{"zip_code":"0200803","prefecture":"岩手県","prefecture_kana":"イワテケン","city":"盛岡市","city_kana":"モリオカシ","town":"新庄","town_kana":"シンジョウ","prefecture_code":3},"0806":{"zip_code":"0200806","prefecture":"岩手県","prefecture_kana":"イワテケン","city":"盛岡市","city_kana":"モリオカシ","town":"新庄町","town_kana":"シンジョウチョウ","prefecture_code":3},"0042":{"zip_code":"0200042","prefecture":"岩手県","prefecture_kana":"イワテケン","city":"盛岡市","city_kana":"モリオカシ","town":"新田町","town_kana":"シンデンチョウ","prefecture_code":3},"0884":{"zip_code":"0200884","prefecture":"岩手県","prefecture_kana":"イワテケン","city":"盛岡市","city_kana":"モリオカシ","town":"神明町","town_kana":"シンメイチョウ","prefecture_code":3},"0882":{"zip_code":"0200882","prefecture":"岩手県","prefecture_kana":"イワテケン","city":"盛岡市","city_kana":"モリオカシ","town":"住吉町","town_kana":"スミヨシチョウ","prefecture_code":3},"0127":{"zip_code":"0200127","prefecture":"岩手県","prefecture_kana":"イワテケン","city":"盛岡市","city_kana":"モリオカシ","town":"前九年","town_kana":"ゼンクネン","prefecture_code":3},"0861":{"zip_code":"0200861","prefecture":"岩手県","prefecture_kana":"イワテケン","city":"盛岡市","city_kana":"モリオカシ","town":"仙北","town_kana":"センボク","prefecture_code":3},"0865":{"zip_code":"0200865","prefecture":"岩手県","prefecture_kana":"イワテケン","city":"盛岡市","city_kana":"モリオカシ","town":"仙北町","town_kana":"センボクチョウ","prefecture_code":3},"0828":{"zip_code":"0200828","prefecture":"岩手県","prefecture_kana":"イワテケン","city":"盛岡市","city_kana":"モリオカシ","town":"大慈寺町","town_kana":"ダイジジチョウ","prefecture_code":3},"0135":{"zip_code":"0200135","prefecture":"岩手県","prefecture_kana":"イワテケン","city":"盛岡市","city_kana":"モリオカシ","town":"大新町","town_kana":"ダイシンチョウ","prefecture_code":3},"0825":{"zip_code":"0200825","prefecture":"岩手県","prefecture_kana":"イワテケン","city":"盛岡市","city_kana":"モリオカシ","town":"高崩","town_kana":"タカクズレ","prefecture_code":3},"0114":{"zip_code":"0200114","prefecture":"岩手県","prefecture_kana":"イワテケン","city":"盛岡市","city_kana":"モリオカシ","town":"高松","town_kana":"タカマツ","prefecture_code":3},"0115":{"zip_code":"0200115","prefecture":"岩手県","prefecture_kana":"イワテケン","city":"盛岡市","city_kana":"モリオカシ","town":"館向町","town_kana":"タテムカイチョウ","prefecture_code":3},"0204":{"zip_code":"0200204","prefecture":"岩手県","prefecture_kana":"イワテケン","city":"盛岡市","city_kana":"モリオカシ","town":"玉山区上田","town_kana":"タマヤマクウエダ","prefecture_code":3},"0203":{"zip_code":"0200203","prefecture":"岩手県","prefecture_kana":"イワテケン","city":"盛岡市","city_kana":"モリオカシ","town":"玉山区川又","town_kana":"タマヤマクカワマタ","prefecture_code":3},"0202":{"zip_code":"0200202","prefecture":"岩手県","prefecture_kana":"イワテケン","city":"盛岡市","city_kana":"モリオカシ","town":"玉山区玉山","town_kana":"タマヤマクタマヤマ","prefecture_code":3},"0201":{"zip_code":"0200201","prefecture":"岩手県","prefecture_kana":"イワテケン","city":"盛岡市","city_kana":"モリオカシ","town":"玉山区日戸","town_kana":"タマヤマクヒノト","prefecture_code":3},"0822":{"zip_code":"0200822","prefecture":"岩手県","prefecture_kana":"イワテケン","city":"盛岡市","city_kana":"モリオカシ","town":"茶畑","town_kana":"チャバタケ","prefecture_code":3},"0021":{"zip_code":"0200021","prefecture":"岩手県","prefecture_kana":"イワテケン","city":"盛岡市","city_kana":"モリオカシ","town":"中央通","town_kana":"チュウオウドオリ","prefecture_code":3},"0121":{"zip_code":"0200121","prefecture":"岩手県","prefecture_kana":"イワテケン","city":"盛岡市","city_kana":"モリオカシ","town":"月が丘","town_kana":"ツキガオカ","prefecture_code":3},"0835":{"zip_code":"0200835","prefecture":"岩手県","prefecture_kana":"イワテケン","city":"盛岡市","city_kana":"モリオカシ","town":"津志田","town_kana":"ツシダ","prefecture_code":3},"0838":{"zip_code":"0200838","prefecture":"岩手県","prefecture_kana":"イワテケン","city":"盛岡市","city_kana":"モリオカシ","town":"津志田中央","town_kana":"ツシダチュウオウ","prefecture_code":3},"0836":{"zip_code":"0200836","prefecture":"岩手県","prefecture_kana":"イワテケン","city":"盛岡市","city_kana":"モリオカシ","town":"津志田西","town_kana":"ツシダニシ","prefecture_code":3},"0837":{"zip_code":"0200837","prefecture":"岩手県","prefecture_kana":"イワテケン","city":"盛岡市","city_kana":"モリオカシ","town":"津志田町","town_kana":"ツシダチョウ","prefecture_code":3},"0839":{"zip_code":"0200839","prefecture":"岩手県","prefecture_kana":"イワテケン","city":"盛岡市","city_kana":"モリオカシ","town":"津志田南","town_kana":"ツシダミナミ","prefecture_code":3},"0144":{"zip_code":"0200144","prefecture":"岩手県","prefecture_kana":"イワテケン","city":"盛岡市","city_kana":"モリオカシ","town":"土淵","town_kana":"ツチブチ","prefecture_code":3},"0802":{"zip_code":"0200802","prefecture":"岩手県","prefecture_kana":"イワテケン","city":"盛岡市","city_kana":"モリオカシ","town":"つつじが丘","town_kana":"ツツジガオカ","prefecture_code":3},"0055":{"zip_code":"0200055","prefecture":"岩手県","prefecture_kana":"イワテケン","city":"盛岡市","city_kana":"モリオカシ","town":"繋","town_kana":"ツナギ","prefecture_code":3},"0401":{"zip_code":"0200401","prefecture":"岩手県","prefecture_kana":"イワテケン","city":"盛岡市","city_kana":"モリオカシ","town":"手代森","town_kana":"テシロモリ","prefecture_code":3},"0137":{"zip_code":"0200137","prefecture":"岩手県","prefecture_kana":"イワテケン","city":"盛岡市","city_kana":"モリオカシ","town":"天昌寺町","town_kana":"テンショウジチョウ","prefecture_code":3},"0881":{"zip_code":"0200881","prefecture":"岩手県","prefecture_kana":"イワテケン","city":"盛岡市","city_kana":"モリオカシ","town":"天神町","town_kana":"テンジンチョウ","prefecture_code":3},"0052":{"zip_code":"0200052","prefecture":"岩手県","prefecture_kana":"イワテケン","city":"盛岡市","city_kana":"モリオカシ","town":"中太田","town_kana":"ナカオオタ","prefecture_code":3},"0043":{"zip_code":"0200043","prefecture":"岩手県","prefecture_kana":"イワテケン","city":"盛岡市","city_kana":"モリオカシ","town":"中川町","town_kana":"ナカガワチョウ","prefecture_code":3},"0131":{"zip_code":"0200131","prefecture":"岩手県","prefecture_kana":"イワテケン","city":"盛岡市","city_kana":"モリオカシ","town":"中堤町","town_kana":"ナカツツミチョウ","prefecture_code":3},"0816":{"zip_code":"0200816","prefecture":"岩手県","prefecture_kana":"イワテケン","city":"盛岡市","city_kana":"モリオカシ","town":"中野","town_kana":"ナカノ","prefecture_code":3},"0871":{"zip_code":"0200871","prefecture":"岩手県","prefecture_kana":"イワテケン","city":"盛岡市","city_kana":"モリオカシ","town":"中ノ橋通","town_kana":"ナカノハシドオリ","prefecture_code":3},"0141":{"zip_code":"0200141","prefecture":"岩手県","prefecture_kana":"イワテケン","city":"盛岡市","city_kana":"モリオカシ","town":"中屋敷町","town_kana":"ナカヤシキチョウ","prefecture_code":3},"0834":{"zip_code":"0200834","prefecture":"岩手県","prefecture_kana":"イワテケン","city":"盛岡市","city_kana":"モリオカシ","town":"永井","town_kana":"ナガイ","prefecture_code":3},"0062":{"zip_code":"0200062","prefecture":"岩手県","prefecture_kana":"イワテケン","city":"盛岡市","city_kana":"モリオカシ","town":"長田町","town_kana":"ナガタチョウ","prefecture_code":3},"0146":{"zip_code":"0200146","prefecture":"岩手県","prefecture_kana":"イワテケン","city":"盛岡市","city_kana":"モリオカシ","town":"長橋町","town_kana":"ナガハシチョウ","prefecture_code":3},"0064":{"zip_code":"0200064","prefecture":"岩手県","prefecture_kana":"イワテケン","city":"盛岡市","city_kana":"モリオカシ","town":"梨木町","town_kana":"ナシノキチョウ","prefecture_code":3},"0016":{"zip_code":"0200016","prefecture":"岩手県","prefecture_kana":"イワテケン","city":"盛岡市","city_kana":"モリオカシ","town":"名須川町","town_kana":"ナスカワチョウ","prefecture_code":3},"0827":{"zip_code":"0200827","prefecture":"岩手県","prefecture_kana":"イワテケン","city":"盛岡市","city_kana":"モリオカシ","town":"鉈屋町","town_kana":"ナタヤチョウ","prefecture_code":3},"0132":{"zip_code":"0200132","prefecture":"岩手県","prefecture_kana":"イワテケン","city":"盛岡市","city_kana":"モリオカシ","town":"西青山","town_kana":"ニシアオヤマ","prefecture_code":3},"0065":{"zip_code":"0200065","prefecture":"岩手県","prefecture_kana":"イワテケン","city":"盛岡市","city_kana":"モリオカシ","town":"西下台町","town_kana":"ニシシタダイチョウ","prefecture_code":3},"0864":{"zip_code":"0200864","prefecture":"岩手県","prefecture_kana":"イワテケン","city":"盛岡市","city_kana":"モリオカシ","town":"西仙北","town_kana":"ニシセンボク","prefecture_code":3},"0103":{"zip_code":"0200103","prefecture":"岩手県","prefecture_kana":"イワテケン","city":"盛岡市","city_kana":"モリオカシ","town":"西松園","town_kana":"ニシマツゾノ","prefecture_code":3},"0833":{"zip_code":"0200833","prefecture":"岩手県","prefecture_kana":"イワテケン","city":"盛岡市","city_kana":"モリオカシ","town":"西見前","town_kana":"ニシミルマエ","prefecture_code":3},"0313":{"zip_code":"0200313","prefecture":"岩手県","prefecture_kana":"イワテケン","city":"盛岡市","city_kana":"モリオカシ","town":"根田茂","town_kana":"ネダモ","prefecture_code":3},"0116":{"zip_code":"0200116","prefecture":"岩手県","prefecture_kana":"イワテケン","city":"盛岡市","city_kana":"モリオカシ","town":"箱清水","town_kana":"ハコシミズ","prefecture_code":3},"0872":{"zip_code":"0200872","prefecture":"岩手県","prefecture_kana":"イワテケン","city":"盛岡市","city_kana":"モリオカシ","town":"八幡町","town_kana":"ハチマンチョウ","prefecture_code":3},"0841":{"zip_code":"0200841","prefecture":"岩手県","prefecture_kana":"イワテケン","city":"盛岡市","city_kana":"モリオカシ","town":"羽場","town_kana":"ハバ","prefecture_code":3},"0876":{"zip_code":"0200876","prefecture":"岩手県","prefecture_kana":"イワテケン","city":"盛岡市","city_kana":"モリオカシ","town":"馬場町","town_kana":"ババチョウ","prefecture_code":3},"0824":{"zip_code":"0200824","prefecture":"岩手県","prefecture_kana":"イワテケン","city":"盛岡市","city_kana":"モリオカシ","town":"東安庭","town_kana":"ヒガシアニワ","prefecture_code":3},"0108":{"zip_code":"0200108","prefecture":"岩手県","prefecture_kana":"イワテケン","city":"盛岡市","city_kana":"モリオカシ","town":"東黒石野","town_kana":"ヒガシクロイシノ","prefecture_code":3},"0804":{"zip_code":"0200804","prefecture":"岩手県","prefecture_kana":"イワテケン","city":"盛岡市","city_kana":"モリオカシ","town":"東桜山","town_kana":"ヒガシサクラヤマ","prefecture_code":3},"0805":{"zip_code":"0200805","prefecture":"岩手県","prefecture_kana":"イワテケン","city":"盛岡市","city_kana":"モリオカシ","town":"東新庄","town_kana":"ヒガシシンジョウ","prefecture_code":3},"0862":{"zip_code":"0200862","prefecture":"岩手県","prefecture_kana":"イワテケン","city":"盛岡市","city_kana":"モリオカシ","town":"東仙北","town_kana":"ヒガシセンボク","prefecture_code":3},"0817":{"zip_code":"0200817","prefecture":"岩手県","prefecture_kana":"イワテケン","city":"盛岡市","city_kana":"モリオカシ","town":"東中野","town_kana":"ヒガシナカノ","prefecture_code":3},"0814":{"zip_code":"0200814","prefecture":"岩手県","prefecture_kana":"イワテケン","city":"盛岡市","city_kana":"モリオカシ","town":"東中野町","town_kana":"ヒガシナカノチョウ","prefecture_code":3},"0106":{"zip_code":"0200106","prefecture":"岩手県","prefecture_kana":"イワテケン","city":"盛岡市","city_kana":"モリオカシ","town":"東松園","town_kana":"ヒガシマツゾノ","prefecture_code":3},"0112":{"zip_code":"0200112","prefecture":"岩手県","prefecture_kana":"イワテケン","city":"盛岡市","city_kana":"モリオカシ","town":"東緑が丘","town_kana":"ヒガシミドリガオカ","prefecture_code":3},"0832":{"zip_code":"0200832","prefecture":"岩手県","prefecture_kana":"イワテケン","city":"盛岡市","city_kana":"モリオカシ","town":"東見前","town_kana":"ヒガシミルマエ","prefecture_code":3},"0813":{"zip_code":"0200813","prefecture":"岩手県","prefecture_kana":"イワテケン","city":"盛岡市","city_kana":"モリオカシ","town":"東山","town_kana":"ヒガシヤマ","prefecture_code":3},"0145":{"zip_code":"0200145","prefecture":"岩手県","prefecture_kana":"イワテケン","city":"盛岡市","city_kana":"モリオカシ","town":"平賀新田","town_kana":"ヒラカシンデン","prefecture_code":3},"0015":{"zip_code":"0200015","prefecture":"岩手県","prefecture_kana":"イワテケン","city":"盛岡市","city_kana":"モリオカシ","town":"本町通","town_kana":"ホンチョウドオリ","prefecture_code":3},"0148":{"zip_code":"0200148","prefecture":"岩手県","prefecture_kana":"イワテケン","city":"盛岡市","city_kana":"モリオカシ","town":"前潟","town_kana":"マエガタ","prefecture_code":3},"0873":{"zip_code":"0200873","prefecture":"岩手県","prefecture_kana":"イワテケン","city":"盛岡市","city_kana":"モリオカシ","town":"松尾町","town_kana":"マツオチョウ","prefecture_code":3},"0107":{"zip_code":"0200107","prefecture":"岩手県","prefecture_kana":"イワテケン","city":"盛岡市","city_kana":"モリオカシ","town":"松園","town_kana":"マツゾノ","prefecture_code":3},"0826":{"zip_code":"0200826","prefecture":"岩手県","prefecture_kana":"イワテケン","city":"盛岡市","city_kana":"モリオカシ","town":"神子田町","town_kana":"ミコダチョウ","prefecture_code":3},"0122":{"zip_code":"0200122","prefecture":"岩手県","prefecture_kana":"イワテケン","city":"盛岡市","city_kana":"モリオカシ","town":"みたけ","town_kana":"ミタケ","prefecture_code":3},"0011":{"zip_code":"0200011","prefecture":"岩手県","prefecture_kana":"イワテケン","city":"盛岡市","city_kana":"モリオカシ","town":"三ツ割","town_kana":"ミツワリ","prefecture_code":3},"0117":{"zip_code":"0200117","prefecture":"岩手県","prefecture_kana":"イワテケン","city":"盛岡市","city_kana":"モリオカシ","town":"緑が丘","town_kana":"ミドリガオカ","prefecture_code":3},"0134":{"zip_code":"0200134","prefecture":"岩手県","prefecture_kana":"イワテケン","city":"盛岡市","city_kana":"モリオカシ","town":"南青山町","town_kana":"ミナミアオヤマチョウ","prefecture_code":3},"0874":{"zip_code":"0200874","prefecture":"岩手県","prefecture_kana":"イワテケン","city":"盛岡市","city_kana":"モリオカシ","town":"南大通","town_kana":"ミナミオオドオリ","prefecture_code":3},"0863":{"zip_code":"0200863","prefecture":"岩手県","prefecture_kana":"イワテケン","city":"盛岡市","city_kana":"モリオカシ","town":"南仙北","town_kana":"ミナミセンボク","prefecture_code":3},"0851":{"zip_code":"0200851","prefecture":"岩手県","prefecture_kana":"イワテケン","city":"盛岡市","city_kana":"モリオカシ","town":"向中野","town_kana":"ムカイナカノ","prefecture_code":3},"0866":{"zip_code":"0200866","prefecture":"岩手県","prefecture_kana":"イワテケン","city":"盛岡市","city_kana":"モリオカシ","town":"本宮","town_kana":"モトミヤ","prefecture_code":3},"0005":{"zip_code":"0200005","prefecture":"岩手県","prefecture_kana":"イワテケン","city":"盛岡市","city_kana":"モリオカシ","town":"紅葉が丘","town_kana":"モミジガオカ","prefecture_code":3},"0045":{"zip_code":"0200045","prefecture":"岩手県","prefecture_kana":"イワテケン","city":"盛岡市","city_kana":"モリオカシ","town":"盛岡駅西通","town_kana":"モリオカエキニシトオリ","prefecture_code":3},"0033":{"zip_code":"0200033","prefecture":"岩手県","prefecture_kana":"イワテケン","city":"盛岡市","city_kana":"モリオカシ","town":"盛岡駅前北通","town_kana":"モリオカエキマエキタドオリ","prefecture_code":3},"0034":{"zip_code":"0200034","prefecture":"岩手県","prefecture_kana":"イワテケン","city":"盛岡市","city_kana":"モリオカシ","town":"盛岡駅前通","town_kana":"モリオカエキマエドオリ","prefecture_code":3},"0311":{"zip_code":"0200311","prefecture":"岩手県","prefecture_kana":"イワテケン","city":"盛岡市","city_kana":"モリオカシ","town":"簗川","town_kana":"ヤナガワ","prefecture_code":3},"0004":{"zip_code":"0200004","prefecture":"岩手県","prefecture_kana":"イワテケン","city":"盛岡市","city_kana":"モリオカシ","town":"山岸","town_kana":"ヤマギシ","prefecture_code":3},"0032":{"zip_code":"0200032","prefecture":"岩手県","prefecture_kana":"イワテケン","city":"盛岡市","city_kana":"モリオカシ","town":"夕顔瀬町","town_kana":"ユウガオセチョウ","prefecture_code":3},"0842":{"zip_code":"0200842","prefecture":"岩手県","prefecture_kana":"イワテケン","city":"盛岡市","city_kana":"モリオカシ","town":"湯沢","town_kana":"ユザワ","prefecture_code":3},"0844":{"zip_code":"0200844","prefecture":"岩手県","prefecture_kana":"イワテケン","city":"盛岡市","city_kana":"モリオカシ","town":"湯沢東","town_kana":"ユザワヒガシ","prefecture_code":3},"0843":{"zip_code":"0200843","prefecture":"岩手県","prefecture_kana":"イワテケン","city":"盛岡市","city_kana":"モリオカシ","town":"湯沢西","town_kana":"ユザワニシ","prefecture_code":3},"0845":{"zip_code":"0200845","prefecture":"岩手県","prefecture_kana":"イワテケン","city":"盛岡市","city_kana":"モリオカシ","town":"湯沢南","town_kana":"ユザワミナミ","prefecture_code":3},"0846":{"zip_code":"0200846","prefecture":"岩手県","prefecture_kana":"イワテケン","city":"盛岡市","city_kana":"モリオカシ","town":"流通センター北","town_kana":"リュウツウセンターキタ","prefecture_code":3},"0886":{"zip_code":"0200886","prefecture":"岩手県","prefecture_kana":"イワテケン","city":"盛岡市","city_kana":"モリオカシ","town":"若園町","town_kana":"ワカソノチョウ","prefecture_code":3},"0500":{"zip_code":"0200500","prefecture":"岩手県","prefecture_kana":"イワテケン","city":"岩手郡雫石町","city_kana":"イワテグンシズクイシチョウ","town":"","town_kana":"","prefecture_code":3},"0502":{"zip_code":"0200502","prefecture":"岩手県","prefecture_kana":"イワテケン","city":"岩手郡雫石町","city_kana":"イワテグンシズクイシチョウ","town":"板橋","town_kana":"イタバシ","prefecture_code":3},"0546":{"zip_code":"0200546","prefecture":"岩手県","prefecture_kana":"イワテケン","city":"岩手郡雫石町","city_kana":"イワテグンシズクイシチョウ","town":"稲荷下","town_kana":"イナリシタ","prefecture_code":3},"0583":{"zip_code":"0200583","prefecture":"岩手県","prefecture_kana":"イワテケン","city":"岩手郡雫石町","city_kana":"イワテグンシズクイシチョウ","town":"上野","town_kana":"ウワノ","prefecture_code":3},"0574":{"zip_code":"0200574","prefecture":"岩手県","prefecture_kana":"イワテケン","city":"岩手郡雫石町","city_kana":"イワテグンシズクイシチョウ","town":"鴬宿","town_kana":"オウシュク","prefecture_code":3},"0581":{"zip_code":"0200581","prefecture":"岩手県","prefecture_kana":"イワテケン","city":"岩手郡雫石町","city_kana":"イワテグンシズクイシチョウ","town":"御明神","town_kana":"オミョウジン","prefecture_code":3},"0544":{"zip_code":"0200544","prefecture":"岩手県","prefecture_kana":"イワテケン","city":"岩手郡雫石町","city_kana":"イワテグンシズクイシチョウ","town":"柿木","town_kana":"カキキ","prefecture_code":3},"0559":{"zip_code":"0200559","prefecture":"岩手県","prefecture_kana":"イワテケン","city":"岩手郡雫石町","city_kana":"イワテグンシズクイシチョウ","town":"上笹森","town_kana":"カミササモリ","prefecture_code":3},"0555":{"zip_code":"0200555","prefecture":"岩手県","prefecture_kana":"イワテケン","city":"岩手郡雫石町","city_kana":"イワテグンシズクイシチョウ","town":"上曽根田","town_kana":"カミソネダ","prefecture_code":3},"0557":{"zip_code":"0200557","prefecture":"岩手県","prefecture_kana":"イワテケン","city":"岩手郡雫石町","city_kana":"イワテグンシズクイシチョウ","town":"上平","town_kana":"カミダイラ","prefecture_code":3},"0538":{"zip_code":"0200538","prefecture":"岩手県","prefecture_kana":"イワテケン","city":"岩手郡雫石町","city_kana":"イワテグンシズクイシチョウ","town":"上町北","town_kana":"カミマチキタ","prefecture_code":3},"0537":{"zip_code":"0200537","prefecture":"岩手県","prefecture_kana":"イワテケン","city":"岩手郡雫石町","city_kana":"イワテグンシズクイシチョウ","town":"上町西","town_kana":"カミマチニシ","prefecture_code":3},"0539":{"zip_code":"0200539","prefecture":"岩手県","prefecture_kana":"イワテケン","city":"岩手郡雫石町","city_kana":"イワテグンシズクイシチョウ","town":"上町東","town_kana":"カミマチヒガシ","prefecture_code":3},"0530":{"zip_code":"0200530","prefecture":"岩手県","prefecture_kana":"イワテケン","city":"岩手郡雫石町","city_kana":"イワテグンシズクイシチョウ","town":"上町南","town_kana":"カミマチミナミ","prefecture_code":3},"0534":{"zip_code":"0200534","prefecture":"岩手県","prefecture_kana":"イワテケン","city":"岩手郡雫石町","city_kana":"イワテグンシズクイシチョウ","town":"川原","town_kana":"カワハラ","prefecture_code":3},"0517":{"zip_code":"0200517","prefecture":"岩手県","prefecture_kana":"イワテケン","city":"岩手郡雫石町","city_kana":"イワテグンシズクイシチョウ","town":"黒沢川","town_kana":"クロサワガワ","prefecture_code":3},"0525":{"zip_code":"0200525","prefecture":"岩手県","prefecture_kana":"イワテケン","city":"岩手郡雫石町","city_kana":"イワテグンシズクイシチョウ","town":"源大堂","town_kana":"ゲンダイドウ","prefecture_code":3},"0535":{"zip_code":"0200535","prefecture":"岩手県","prefecture_kana":"イワテケン","city":"岩手郡雫石町","city_kana":"イワテグンシズクイシチョウ","town":"小日谷地","town_kana":"コビヤチ","prefecture_code":3},"0551":{"zip_code":"0200551","prefecture":"岩手県","prefecture_kana":"イワテケン","city":"岩手郡雫石町","city_kana":"イワテグンシズクイシチョウ","town":"笹森","town_kana":"ササモリ","prefecture_code":3},"0512":{"zip_code":"0200512","prefecture":"岩手県","prefecture_kana":"イワテケン","city":"岩手郡雫石町","city_kana":"イワテグンシズクイシチョウ","town":"塩ケ森","town_kana":"シオガモリ","prefecture_code":3},"0513":{"zip_code":"0200513","prefecture":"岩手県","prefecture_kana":"イワテケン","city":"岩手郡雫石町","city_kana":"イワテグンシズクイシチョウ","town":"下兎野","town_kana":"シモウサギノ","prefecture_code":3},"0522":{"zip_code":"0200522","prefecture":"岩手県","prefecture_kana":"イワテケン","city":"岩手郡雫石町","city_kana":"イワテグンシズクイシチョウ","town":"下久保","town_kana":"シモクボ","prefecture_code":3},"0558":{"zip_code":"0200558","prefecture":"岩手県","prefecture_kana":"イワテケン","city":"岩手郡雫石町","city_kana":"イワテグンシズクイシチョウ","town":"下笹森","town_kana":"シモササモリ","prefecture_code":3},"0553":{"zip_code":"0200553","prefecture":"岩手県","prefecture_kana":"イワテケン","city":"岩手郡雫石町","city_kana":"イワテグンシズクイシチョウ","town":"下曽根田","town_kana":"シモソネダ","prefecture_code":3},"0552":{"zip_code":"0200552","prefecture":"岩手県","prefecture_kana":"イワテケン","city":"岩手郡雫石町","city_kana":"イワテグンシズクイシチョウ","town":"下平","town_kana":"シモダイラ","prefecture_code":3},"0515":{"zip_code":"0200515","prefecture":"岩手県","prefecture_kana":"イワテケン","city":"岩手郡雫石町","city_kana":"イワテグンシズクイシチョウ","town":"下長根","town_kana":"シモナガネ","prefecture_code":3},"0528":{"zip_code":"0200528","prefecture":"岩手県","prefecture_kana":"イワテケン","city":"岩手郡雫石町","city_kana":"イワテグンシズクイシチョウ","town":"下町","town_kana":"シモマチ","prefecture_code":3},"0529":{"zip_code":"0200529","prefecture":"岩手県","prefecture_kana":"イワテケン","city":"岩手郡雫石町","city_kana":"イワテグンシズクイシチョウ","town":"下町西","town_kana":"シモマチニシ","prefecture_code":3},"0520":{"zip_code":"0200520","prefecture":"岩手県","prefecture_kana":"イワテケン","city":"岩手郡雫石町","city_kana":"イワテグンシズクイシチョウ","town":"下町東","town_kana":"シモマチヒガシ","prefecture_code":3},"0541":{"zip_code":"0200541","prefecture":"岩手県","prefecture_kana":"イワテケン","city":"岩手郡雫石町","city_kana":"イワテグンシズクイシチョウ","town":"千刈田","town_kana":"センガリダ","prefecture_code":3},"0521":{"zip_code":"0200521","prefecture":"岩手県","prefecture_kana":"イワテケン","city":"岩手郡雫石町","city_kana":"イワテグンシズクイシチョウ","town":"麁津田","town_kana":"ソツダ","prefecture_code":3},"0543":{"zip_code":"0200543","prefecture":"岩手県","prefecture_kana":"イワテケン","city":"岩手郡雫石町","city_kana":"イワテグンシズクイシチョウ","town":"高前田","town_kana":"タカマエダ","prefecture_code":3},"0571":{"zip_code":"0200571","prefecture":"岩手県","prefecture_kana":"イワテケン","city":"岩手郡雫石町","city_kana":"イワテグンシズクイシチョウ","town":"繋","town_kana":"ツナギ","prefecture_code":3},"0524":{"zip_code":"0200524","prefecture":"岩手県","prefecture_kana":"イワテケン","city":"岩手郡雫石町","city_kana":"イワテグンシズクイシチョウ","town":"寺の下","town_kana":"テラノシタ","prefecture_code":3},"0505":{"zip_code":"0200505","prefecture":"岩手県","prefecture_kana":"イワテケン","city":"岩手郡雫石町","city_kana":"イワテグンシズクイシチョウ","town":"中黒沢川","town_kana":"ナカクロサワガワ","prefecture_code":3},"0504":{"zip_code":"0200504","prefecture":"岩手県","prefecture_kana":"イワテケン","city":"岩手郡雫石町","city_kana":"イワテグンシズクイシチョウ","town":"中沼","town_kana":"ナカヌマ","prefecture_code":3},"0527":{"zip_code":"0200527","prefecture":"岩手県","prefecture_kana":"イワテケン","city":"岩手郡雫石町","city_kana":"イワテグンシズクイシチョウ","town":"中町","town_kana":"ナカマチ","prefecture_code":3},"0511":{"zip_code":"0200511","prefecture":"岩手県","prefecture_kana":"イワテケン","city":"岩手郡雫石町","city_kana":"イワテグンシズクイシチョウ","town":"長畑","town_kana":"ナガハタ","prefecture_code":3},"0585":{"zip_code":"0200585","prefecture":"岩手県","prefecture_kana":"イワテケン","city":"岩手郡雫石町","city_kana":"イワテグンシズクイシチョウ","town":"長山","town_kana":"ナガヤマ","prefecture_code":3},"0556":{"zip_code":"0200556","prefecture":"岩手県","prefecture_kana":"イワテケン","city":"岩手郡雫石町","city_kana":"イワテグンシズクイシチョウ","town":"名子","town_kana":"ナゴ","prefecture_code":3},"0503":{"zip_code":"0200503","prefecture":"岩手県","prefecture_kana":"イワテケン","city":"岩手郡雫石町","city_kana":"イワテグンシズクイシチョウ","town":"七ツ森","town_kana":"ナナツモリ","prefecture_code":3},"0501":{"zip_code":"0200501","prefecture":"岩手県","prefecture_kana":"イワテケン","city":"岩手郡雫石町","city_kana":"イワテグンシズクイシチョウ","town":"仁佐瀬","town_kana":"ニサセ","prefecture_code":3},"0572":{"zip_code":"0200572","prefecture":"岩手県","prefecture_kana":"イワテケン","city":"岩手郡雫石町","city_kana":"イワテグンシズクイシチョウ","town":"西安庭","town_kana":"ニシアニワ","prefecture_code":3},"0584":{"zip_code":"0200584","prefecture":"岩手県","prefecture_kana":"イワテケン","city":"岩手郡雫石町","city_kana":"イワテグンシズクイシチョウ","town":"西根","town_kana":"ニシネ","prefecture_code":3},"0506":{"zip_code":"0200506","prefecture":"岩手県","prefecture_kana":"イワテケン","city":"岩手郡雫石町","city_kana":"イワテグンシズクイシチョウ","town":"沼返","town_kana":"ヌマガエシ","prefecture_code":3},"0523":{"zip_code":"0200523","prefecture":"岩手県","prefecture_kana":"イワテケン","city":"岩手郡雫石町","city_kana":"イワテグンシズクイシチョウ","town":"根堀","town_kana":"ネホリ","prefecture_code":3},"0514":{"zip_code":"0200514","prefecture":"岩手県","prefecture_kana":"イワテケン","city":"岩手郡雫石町","city_kana":"イワテグンシズクイシチョウ","town":"野中","town_kana":"ノナカ","prefecture_code":3},"0582":{"zip_code":"0200582","prefecture":"岩手県","prefecture_kana":"イワテケン","city":"岩手郡雫石町","city_kana":"イワテグンシズクイシチョウ","town":"橋場","town_kana":"ハシバ","prefecture_code":3},"0536":{"zip_code":"0200536","prefecture":"岩手県","prefecture_kana":"イワテケン","city":"岩手郡雫石町","city_kana":"イワテグンシズクイシチョウ","town":"八卦","town_kana":"ハツケ","prefecture_code":3},"0533":{"zip_code":"0200533","prefecture":"岩手県","prefecture_kana":"イワテケン","city":"岩手郡雫石町","city_kana":"イワテグンシズクイシチョウ","town":"林","town_kana":"ハヤシ","prefecture_code":3},"0532":{"zip_code":"0200532","prefecture":"岩手県","prefecture_kana":"イワテケン","city":"岩手郡雫石町","city_kana":"イワテグンシズクイシチョウ","town":"払川","town_kana":"ハライガワ","prefecture_code":3},"0547":{"zip_code":"0200547","prefecture":"岩手県","prefecture_kana":"イワテケン","city":"岩手郡雫石町","city_kana":"イワテグンシズクイシチョウ","town":"晴山","town_kana":"ハレヤマ","prefecture_code":3},"0554":{"zip_code":"0200554","prefecture":"岩手県","prefecture_kana":"イワテケン","city":"岩手郡雫石町","city_kana":"イワテグンシズクイシチョウ","town":"町裏","town_kana":"マチウラ","prefecture_code":3},"0531":{"zip_code":"0200531","prefecture":"岩手県","prefecture_kana":"イワテケン","city":"岩手郡雫石町","city_kana":"イワテグンシズクイシチョウ","town":"麻見田","town_kana":"マミダ","prefecture_code":3},"0507":{"zip_code":"0200507","prefecture":"岩手県","prefecture_kana":"イワテケン","city":"岩手郡雫石町","city_kana":"イワテグンシズクイシチョウ","town":"丸谷地","town_kana":"マルヤチ","prefecture_code":3},"0542":{"zip_code":"0200542","prefecture":"岩手県","prefecture_kana":"イワテケン","city":"岩手郡雫石町","city_kana":"イワテグンシズクイシチョウ","town":"万田渡","town_kana":"マンダワタリ","prefecture_code":3},"0573":{"zip_code":"0200573","prefecture":"岩手県","prefecture_kana":"イワテケン","city":"岩手郡雫石町","city_kana":"イワテグンシズクイシチョウ","town":"南畑","town_kana":"ミナミハタ","prefecture_code":3},"0545":{"zip_code":"0200545","prefecture":"岩手県","prefecture_kana":"イワテケン","city":"岩手郡雫石町","city_kana":"イワテグンシズクイシチョウ","town":"谷地","town_kana":"ヤチ","prefecture_code":3},"0100":{"zip_code":"0200100","prefecture":"岩手県","prefecture_kana":"イワテケン","city":"岩手郡滝沢村","city_kana":"イワテグンタキザワムラ","town":"","town_kana":"","prefecture_code":3},"0172":{"zip_code":"0200172","prefecture":"岩手県","prefecture_kana":"イワテケン","city":"岩手郡滝沢村","city_kana":"イワテグンタキザワムラ","town":"鵜飼","town_kana":"ウカイ","prefecture_code":3},"0151":{"zip_code":"0200151","prefecture":"岩手県","prefecture_kana":"イワテケン","city":"岩手郡滝沢村","city_kana":"イワテグンタキザワムラ","town":"大釜","town_kana":"オオガマ","prefecture_code":3},"0171":{"zip_code":"0200171","prefecture":"岩手県","prefecture_kana":"イワテケン","city":"岩手郡滝沢村","city_kana":"イワテグンタキザワムラ","town":"大沢","town_kana":"オオサワ","prefecture_code":3},"0161":{"zip_code":"0200161","prefecture":"岩手県","prefecture_kana":"イワテケン","city":"岩手郡滝沢村","city_kana":"イワテグンタキザワムラ","town":"篠木","town_kana":"シノギ","prefecture_code":3},"0173":{"zip_code":"0200173","prefecture":"岩手県","prefecture_kana":"イワテケン","city":"岩手郡滝沢村","city_kana":"イワテグンタキザワムラ","town":"滝沢","town_kana":"タキザワ","prefecture_code":3},"0891":{"zip_code":"0200891","prefecture":"岩手県","prefecture_kana":"イワテケン","city":"紫波郡矢巾町","city_kana":"シワグンヤハバチョウ","town":"流通センター南","town_kana":"リュウツウセンターミナミ","prefecture_code":3}}