{"0044":{"zip_code":"1040044","prefecture":"東京都","prefecture_kana":"トウキョウト","city":"中央区","city_kana":"チュウオウク","town":"明石町","town_kana":"アカシチョウ","prefecture_code":13},"0042":{"zip_code":"1040042","prefecture":"東京都","prefecture_kana":"トウキョウト","city":"中央区","city_kana":"チュウオウク","town":"入船","town_kana":"イリフネ","prefecture_code":13},"0054":{"zip_code":"1040054","prefecture":"東京都","prefecture_kana":"トウキョウト","city":"中央区","city_kana":"チュウオウク","town":"勝どき","town_kana":"カチドキ","prefecture_code":13},"0031":{"zip_code":"1040031","prefecture":"東京都","prefecture_kana":"トウキョウト","city":"中央区","city_kana":"チュウオウク","town":"京橋","town_kana":"キョウバシ","prefecture_code":13},"0061":{"zip_code":"1040061","prefecture":"東京都","prefecture_kana":"トウキョウト","city":"中央区","city_kana":"チュウオウク","town":"銀座","town_kana":"ギンザ","prefecture_code":13},"0033":{"zip_code":"1040033","prefecture":"東京都","prefecture_kana":"トウキョウト","city":"中央区","city_kana":"チュウオウク","town":"新川","town_kana":"シンカワ","prefecture_code":13},"0041":{"zip_code":"1040041","prefecture":"東京都","prefecture_kana":"トウキョウト","city":"中央区","city_kana":"チュウオウク","town":"新富","town_kana":"シントミ","prefecture_code":13},"0052":{"zip_code":"1040052","prefecture":"東京都","prefecture_kana":"トウキョウト","city":"中央区","city_kana":"チュウオウク","town":"月島","town_kana":"ツキシマ","prefecture_code":13},"0045":{"zip_code":"1040045","prefecture":"東京都","prefecture_kana":"トウキョウト","city":"中央区","city_kana":"チュウオウク","town":"築地","town_kana":"ツキジ","prefecture_code":13},"0051":{"zip_code":"1040051","prefecture":"東京都","prefecture_kana":"トウキョウト","city":"中央区","city_kana":"チュウオウク","town":"佃","town_kana":"ツクダ","prefecture_code":13},"0055":{"zip_code":"1040055","prefecture":"東京都","prefecture_kana":"トウキョウト","city":"中央区","city_kana":"チュウオウク","town":"豊海町","town_kana":"トヨミチョウ","prefecture_code":13},"0032":{"zip_code":"1040032","prefecture":"東京都","prefecture_kana":"トウキョウト","city":"中央区","city_kana":"チュウオウク","town":"八丁堀","town_kana":"ハッチョウボリ","prefecture_code":13},"0046":{"zip_code":"1040046","prefecture":"東京都","prefecture_kana":"トウキョウト","city":"中央区","city_kana":"チュウオウク","town":"浜離宮庭園","town_kana":"ハマリキュウテイエン","prefecture_code":13},"0053":{"zip_code":"1040053","prefecture":"東京都","prefecture_kana":"トウキョウト","city":"中央区","city_kana":"チュウオウク","town":"晴海","town_kana":"ハルミ","prefecture_code":13},"6090":{"zip_code":"1046090","prefecture":"東京都","prefecture_kana":"トウキョウト","city":"中央区","city_kana":"チュウオウク","town":"晴海オフィスタワーＸ","town_kana":"ハルミオフィスタワーX","prefecture_code":13},"6001":{"zip_code":"1046001","prefecture":"東京都","prefecture_kana":"トウキョウト","city":"中央区","city_kana":"チュウオウク","town":"晴海オフィスタワーＸ","town_kana":"ハルミオフィスタワーX","prefecture_code":13},"6002":{"zip_code":"1046002","prefecture":"東京都","prefecture_kana":"トウキョウト","city":"中央区","city_kana":"チュウオウク","town":"晴海オフィスタワーＸ","town_kana":"ハルミオフィスタワーX","prefecture_code":13},"6003":{"zip_code":"1046003","prefecture":"東京都","prefecture_kana":"トウキョウト","city":"中央区","city_kana":"チュウオウク","town":"晴海オフィスタワーＸ","town_kana":"ハルミオフィスタワーX","prefecture_code":13},"6004":{"zip_code":"1046004","prefecture":"東京都","prefecture_kana":"トウキョウト","city":"中央区","city_kana":"チュウオウク","town":"晴海オフィスタワーＸ","town_kana":"ハルミオフィスタワーX","prefecture_code":13},"6005":{"zip_code":"1046005","prefecture":"東京都","prefecture_kana":"トウキョウト","city":"中央区","city_kana":"チュウオウク","town":"晴海オフィスタワーＸ","town_kana":"ハルミオフィスタワーX","prefecture_code":13},"6006":{"zip_code":"1046006","prefecture":"東京都","prefecture_kana":"トウキョウト","city":"中央区","city_kana":"チュウオウク","town":"晴海オフィスタワーＸ","town_kana":"ハルミオフィスタワーX","prefecture_code":13},"6007":{"zip_code":"1046007","prefecture":"東京都","prefecture_kana":"トウキョウト","city":"中央区","city_kana":"チュウオウク","town":"晴海オフィスタワーＸ","town_kana":"ハルミオフィスタワーX","prefecture_code":13},"6008":{"zip_code":"1046008","prefecture":"東京都","prefecture_kana":"トウキョウト","city":"中央区","city_kana":"チュウオウク","town":"晴海オフィスタワーＸ","town_kana":"ハルミオフィスタワーX","prefecture_code":13},"6009":{"zip_code":"1046009","prefecture":"東京都","prefecture_kana":"トウキョウト","city":"中央区","city_kana":"チュウオウク","town":"晴海オフィスタワーＸ","town_kana":"ハルミオフィスタワーX","prefecture_code":13},"6010":{"zip_code":"1046010","prefecture":"東京都","prefecture_kana":"トウキョウト","city":"中央区","city_kana":"チュウオウク","town":"晴海オフィスタワーＸ","town_kana":"ハルミオフィスタワーX","prefecture_code":13},"6011":{"zip_code":"1046011","prefecture":"東京都","prefecture_kana":"トウキョウト","city":"中央区","city_kana":"チュウオウク","town":"晴海オフィスタワーＸ","town_kana":"ハルミオフィスタワーX","prefecture_code":13},"6012":{"zip_code":"1046012","prefecture":"東京都","prefecture_kana":"トウキョウト","city":"中央区","city_kana":"チュウオウク","town":"晴海オフィスタワーＸ","town_kana":"ハルミオフィスタワーX","prefecture_code":13},"6013":{"zip_code":"1046013","prefecture":"東京都","prefecture_kana":"トウキョウト","city":"中央区","city_kana":"チュウオウク","town":"晴海オフィスタワーＸ","town_kana":"ハルミオフィスタワーX","prefecture_code":13},"6014":{"zip_code":"1046014","prefecture":"東京都","prefecture_kana":"トウキョウト","city":"中央区","city_kana":"チュウオウク","town":"晴海オフィスタワーＸ","town_kana":"ハルミオフィスタワーX","prefecture_code":13},"6015":{"zip_code":"1046015","prefecture":"東京都","prefecture_kana":"トウキョウト","city":"中央区","city_kana":"チュウオウク","town":"晴海オフィスタワーＸ","town_kana":"ハルミオフィスタワーX","prefecture_code":13},"6016":{"zip_code":"1046016","prefecture":"東京都","prefecture_kana":"トウキョウト","city":"中央区","city_kana":"チュウオウク","town":"晴海オフィスタワーＸ","town_kana":"ハルミオフィスタワーX","prefecture_code":13},"6017":{"zip_code":"1046017","prefecture":"東京都","prefecture_kana":"トウキョウト","city":"中央区","city_kana":"チュウオウク","town":"晴海オフィスタワーＸ","town_kana":"ハルミオフィスタワーX","prefecture_code":13},"6018":{"zip_code":"1046018","prefecture":"東京都","prefecture_kana":"トウキョウト","city":"中央区","city_kana":"チュウオウク","town":"晴海オフィスタワーＸ","town_kana":"ハルミオフィスタワーX","prefecture_code":13},"6019":{"zip_code":"1046019","prefecture":"東京都","prefecture_kana":"トウキョウト","city":"中央区","city_kana":"チュウオウク","town":"晴海オフィスタワーＸ","town_kana":"ハルミオフィスタワーX","prefecture_code":13},"6020":{"zip_code":"1046020","prefecture":"東京都","prefecture_kana":"トウキョウト","city":"中央区","city_kana":"チュウオウク","town":"晴海オフィスタワーＸ","town_kana":"ハルミオフィスタワーX","prefecture_code":13},"6021":{"zip_code":"1046021","prefecture":"東京都","prefecture_kana":"トウキョウト","city":"中央区","city_kana":"チュウオウク","town":"晴海オフィスタワーＸ","town_kana":"ハルミオフィスタワーX","prefecture_code":13},"6022":{"zip_code":"1046022","prefecture":"東京都","prefecture_kana":"トウキョウト","city":"中央区","city_kana":"チュウオウク","town":"晴海オフィスタワーＸ","town_kana":"ハルミオフィスタワーX","prefecture_code":13},"6023":{"zip_code":"1046023","prefecture":"東京都","prefecture_kana":"トウキョウト","city":"中央区","city_kana":"チュウオウク","town":"晴海オフィスタワーＸ","town_kana":"ハルミオフィスタワーX","prefecture_code":13},"6024":{"zip_code":"1046024","prefecture":"東京都","prefecture_kana":"トウキョウト","city":"中央区","city_kana":"チュウオウク","town":"晴海オフィスタワーＸ","town_kana":"ハルミオフィスタワーX","prefecture_code":13},"6025":{"zip_code":"1046025","prefecture":"東京都","prefecture_kana":"トウキョウト","city":"中央区","city_kana":"チュウオウク","town":"晴海オフィスタワーＸ","town_kana":"ハルミオフィスタワーX","prefecture_code":13},"6026":{"zip_code":"1046026","prefecture":"東京都","prefecture_kana":"トウキョウト","city":"中央区","city_kana":"チュウオウク","town":"晴海オフィスタワーＸ","town_kana":"ハルミオフィスタワーX","prefecture_code":13},"6027":{"zip_code":"1046027","prefecture":"東京都","prefecture_kana":"トウキョウト","city":"中央区","city_kana":"チュウオウク","town":"晴海オフィスタワーＸ","town_kana":"ハルミオフィスタワーX","prefecture_code":13},"6028":{"zip_code":"1046028","prefecture":"東京都","prefecture_kana":"トウキョウト","city":"中央区","city_kana":"チュウオウク","town":"晴海オフィスタワーＸ","town_kana":"ハルミオフィスタワーX","prefecture_code":13},"6029":{"zip_code":"1046029","prefecture":"東京都","prefecture_kana":"トウキョウト","city":"中央区","city_kana":"チュウオウク","town":"晴海オフィスタワーＸ","town_kana":"ハルミオフィスタワーX","prefecture_code":13},"6030":{"zip_code":"1046030","prefecture":"東京都","prefecture_kana":"トウキョウト","city":"中央区","city_kana":"チュウオウク","town":"晴海オフィスタワーＸ","town_kana":"ハルミオフィスタワーX","prefecture_code":13},"6031":{"zip_code":"1046031","prefecture":"東京都","prefecture_kana":"トウキョウト","city":"中央区","city_kana":"チュウオウク","town":"晴海オフィスタワーＸ","town_kana":"ハルミオフィスタワーX","prefecture_code":13},"6032":{"zip_code":"1046032","prefecture":"東京都","prefecture_kana":"トウキョウト","city":"中央区","city_kana":"チュウオウク","town":"晴海オフィスタワーＸ","town_kana":"ハルミオフィスタワーX","prefecture_code":13},"6033":{"zip_code":"1046033","prefecture":"東京都","prefecture_kana":"トウキョウト","city":"中央区","city_kana":"チュウオウク","town":"晴海オフィスタワーＸ","town_kana":"ハルミオフィスタワーX","prefecture_code":13},"6034":{"zip_code":"1046034","prefecture":"東京都","prefecture_kana":"トウキョウト","city":"中央区","city_kana":"チュウオウク","town":"晴海オフィスタワーＸ","town_kana":"ハルミオフィスタワーX","prefecture_code":13},"6035":{"zip_code":"1046035","prefecture":"東京都","prefecture_kana":"トウキョウト","city":"中央区","city_kana":"チュウオウク","town":"晴海オフィスタワーＸ","town_kana":"ハルミオフィスタワーX","prefecture_code":13},"6036":{"zip_code":"1046036","prefecture":"東京都","prefecture_kana":"トウキョウト","city":"中央区","city_kana":"チュウオウク","town":"晴海オフィスタワーＸ","town_kana":"ハルミオフィスタワーX","prefecture_code":13},"6037":{"zip_code":"1046037","prefecture":"東京都","prefecture_kana":"トウキョウト","city":"中央区","city_kana":"チュウオウク","town":"晴海オフィスタワーＸ","town_kana":"ハルミオフィスタワーX","prefecture_code":13},"6038":{"zip_code":"1046038","prefecture":"東京都","prefecture_kana":"トウキョウト","city":"中央区","city_kana":"チュウオウク","town":"晴海オフィスタワーＸ","town_kana":"ハルミオフィスタワーX","prefecture_code":13},"6039":{"zip_code":"1046039","prefecture":"東京都","prefecture_kana":"トウキョウト","city":"中央区","city_kana":"チュウオウク","town":"晴海オフィスタワーＸ","town_kana":"ハルミオフィスタワーX","prefecture_code":13},"6040":{"zip_code":"1046040","prefecture":"東京都","prefecture_kana":"トウキョウト","city":"中央区","city_kana":"チュウオウク","town":"晴海オフィスタワーＸ","town_kana":"ハルミオフィスタワーX","prefecture_code":13},"6041":{"zip_code":"1046041","prefecture":"東京都","prefecture_kana":"トウキョウト","city":"中央区","city_kana":"チュウオウク","town":"晴海オフィスタワーＸ","town_kana":"ハルミオフィスタワーX","prefecture_code":13},"6042":{"zip_code":"1046042","prefecture":"東京都","prefecture_kana":"トウキョウト","city":"中央区","city_kana":"チュウオウク","town":"晴海オフィスタワーＸ","town_kana":"ハルミオフィスタワーX","prefecture_code":13},"6043":{"zip_code":"1046043","prefecture":"東京都","prefecture_kana":"トウキョウト","city":"中央区","city_kana":"チュウオウク","town":"晴海オフィスタワーＸ","town_kana":"ハルミオフィスタワーX","prefecture_code":13},"6044":{"zip_code":"1046044","prefecture":"東京都","prefecture_kana":"トウキョウト","city":"中央区","city_kana":"チュウオウク","town":"晴海オフィスタワーＸ","town_kana":"ハルミオフィスタワーX","prefecture_code":13},"6190":{"zip_code":"1046190","prefecture":"東京都","prefecture_kana":"トウキョウト","city":"中央区","city_kana":"チュウオウク","town":"晴海オフィスタワーＹ","town_kana":"ハルミオフィスタワーY","prefecture_code":13},"6101":{"zip_code":"1046101","prefecture":"東京都","prefecture_kana":"トウキョウト","city":"中央区","city_kana":"チュウオウク","town":"晴海オフィスタワーＹ","town_kana":"ハルミオフィスタワーY","prefecture_code":13},"6102":{"zip_code":"1046102","prefecture":"東京都","prefecture_kana":"トウキョウト","city":"中央区","city_kana":"チュウオウク","town":"晴海オフィスタワーＹ","town_kana":"ハルミオフィスタワーY","prefecture_code":13},"6103":{"zip_code":"1046103","prefecture":"東京都","prefecture_kana":"トウキョウト","city":"中央区","city_kana":"チュウオウク","town":"晴海オフィスタワーＹ","town_kana":"ハルミオフィスタワーY","prefecture_code":13},"6104":{"zip_code":"1046104","prefecture":"東京都","prefecture_kana":"トウキョウト","city":"中央区","city_kana":"チュウオウク","town":"晴海オフィスタワーＹ","town_kana":"ハルミオフィスタワーY","prefecture_code":13},"6105":{"zip_code":"1046105","prefecture":"東京都","prefecture_kana":"トウキョウト","city":"中央区","city_kana":"チュウオウク","town":"晴海オフィスタワーＹ","town_kana":"ハルミオフィスタワーY","prefecture_code":13},"6106":{"zip_code":"1046106","prefecture":"東京都","prefecture_kana":"トウキョウト","city":"中央区","city_kana":"チュウオウク","town":"晴海オフィスタワーＹ","town_kana":"ハルミオフィスタワーY","prefecture_code":13},"6107":{"zip_code":"1046107","prefecture":"東京都","prefecture_kana":"トウキョウト","city":"中央区","city_kana":"チュウオウク","town":"晴海オフィスタワーＹ","town_kana":"ハルミオフィスタワーY","prefecture_code":13},"6108":{"zip_code":"1046108","prefecture":"東京都","prefecture_kana":"トウキョウト","city":"中央区","city_kana":"チュウオウク","town":"晴海オフィスタワーＹ","town_kana":"ハルミオフィスタワーY","prefecture_code":13},"6109":{"zip_code":"1046109","prefecture":"東京都","prefecture_kana":"トウキョウト","city":"中央区","city_kana":"チュウオウク","town":"晴海オフィスタワーＹ","town_kana":"ハルミオフィスタワーY","prefecture_code":13},"6110":{"zip_code":"1046110","prefecture":"東京都","prefecture_kana":"トウキョウト","city":"中央区","city_kana":"チュウオウク","town":"晴海オフィスタワーＹ","town_kana":"ハルミオフィスタワーY","prefecture_code":13},"6111":{"zip_code":"1046111","prefecture":"東京都","prefecture_kana":"トウキョウト","city":"中央区","city_kana":"チュウオウク","town":"晴海オフィスタワーＹ","town_kana":"ハルミオフィスタワーY","prefecture_code":13},"6112":{"zip_code":"1046112","prefecture":"東京都","prefecture_kana":"トウキョウト","city":"中央区","city_kana":"チュウオウク","town":"晴海オフィスタワーＹ","town_kana":"ハルミオフィスタワーY","prefecture_code":13},"6113":{"zip_code":"1046113","prefecture":"東京都","prefecture_kana":"トウキョウト","city":"中央区","city_kana":"チュウオウク","town":"晴海オフィスタワーＹ","town_kana":"ハルミオフィスタワーY","prefecture_code":13},"6114":{"zip_code":"1046114","prefecture":"東京都","prefecture_kana":"トウキョウト","city":"中央区","city_kana":"チュウオウク","town":"晴海オフィスタワーＹ","town_kana":"ハルミオフィスタワーY","prefecture_code":13},"6115":{"zip_code":"1046115","prefecture":"東京都","prefecture_kana":"トウキョウト","city":"中央区","city_kana":"チュウオウク","town":"晴海オフィスタワーＹ","town_kana":"ハルミオフィスタワーY","prefecture_code":13},"6116":{"zip_code":"1046116","prefecture":"東京都","prefecture_kana":"トウキョウト","city":"中央区","city_kana":"チュウオウク","town":"晴海オフィスタワーＹ","town_kana":"ハルミオフィスタワーY","prefecture_code":13},"6117":{"zip_code":"1046117","prefecture":"東京都","prefecture_kana":"トウキョウト","city":"中央区","city_kana":"チュウオウク","town":"晴海オフィスタワーＹ","town_kana":"ハルミオフィスタワーY","prefecture_code":13},"6118":{"zip_code":"1046118","prefecture":"東京都","prefecture_kana":"トウキョウト","city":"中央区","city_kana":"チュウオウク","town":"晴海オフィスタワーＹ","town_kana":"ハルミオフィスタワーY","prefecture_code":13},"6119":{"zip_code":"1046119","prefecture":"東京都","prefecture_kana":"トウキョウト","city":"中央区","city_kana":"チュウオウク","town":"晴海オフィスタワーＹ","town_kana":"ハルミオフィスタワーY","prefecture_code":13},"6120":{"zip_code":"1046120","prefecture":"東京都","prefecture_kana":"トウキョウト","city":"中央区","city_kana":"チュウオウク","town":"晴海オフィスタワーＹ","town_kana":"ハルミオフィスタワーY","prefecture_code":13},"6121":{"zip_code":"1046121","prefecture":"東京都","prefecture_kana":"トウキョウト","city":"中央区","city_kana":"チュウオウク","town":"晴海オフィスタワーＹ","town_kana":"ハルミオフィスタワーY","prefecture_code":13},"6122":{"zip_code":"1046122","prefecture":"東京都","prefecture_kana":"トウキョウト","city":"中央区","city_kana":"チュウオウク","town":"晴海オフィスタワーＹ","town_kana":"ハルミオフィスタワーY","prefecture_code":13},"6123":{"zip_code":"1046123","prefecture":"東京都","prefecture_kana":"トウキョウト","city":"中央区","city_kana":"チュウオウク","town":"晴海オフィスタワーＹ","town_kana":"ハルミオフィスタワーY","prefecture_code":13},"6124":{"zip_code":"1046124","prefecture":"東京都","prefecture_kana":"トウキョウト","city":"中央区","city_kana":"チュウオウク","town":"晴海オフィスタワーＹ","town_kana":"ハルミオフィスタワーY","prefecture_code":13},"6125":{"zip_code":"1046125","prefecture":"東京都","prefecture_kana":"トウキョウト","city":"中央区","city_kana":"チュウオウク","town":"晴海オフィスタワーＹ","town_kana":"ハルミオフィスタワーY","prefecture_code":13},"6126":{"zip_code":"1046126","prefecture":"東京都","prefecture_kana":"トウキョウト","city":"中央区","city_kana":"チュウオウク","town":"晴海オフィスタワーＹ","town_kana":"ハルミオフィスタワーY","prefecture_code":13},"6127":{"zip_code":"1046127","prefecture":"東京都","prefecture_kana":"トウキョウト","city":"中央区","city_kana":"チュウオウク","town":"晴海オフィスタワーＹ","town_kana":"ハルミオフィスタワーY","prefecture_code":13},"6128":{"zip_code":"1046128","prefecture":"東京都","prefecture_kana":"トウキョウト","city":"中央区","city_kana":"チュウオウク","town":"晴海オフィスタワーＹ","town_kana":"ハルミオフィスタワーY","prefecture_code":13},"6129":{"zip_code":"1046129","prefecture":"東京都","prefecture_kana":"トウキョウト","city":"中央区","city_kana":"チュウオウク","town":"晴海オフィスタワーＹ","town_kana":"ハルミオフィスタワーY","prefecture_code":13},"6130":{"zip_code":"1046130","prefecture":"東京都","prefecture_kana":"トウキョウト","city":"中央区","city_kana":"チュウオウク","town":"晴海オフィスタワーＹ","town_kana":"ハルミオフィスタワーY","prefecture_code":13},"6131":{"zip_code":"1046131","prefecture":"東京都","prefecture_kana":"トウキョウト","city":"中央区","city_kana":"チュウオウク","town":"晴海オフィスタワーＹ","town_kana":"ハルミオフィスタワーY","prefecture_code":13},"6132":{"zip_code":"1046132","prefecture":"東京都","prefecture_kana":"トウキョウト","city":"中央区","city_kana":"チュウオウク","town":"晴海オフィスタワーＹ","town_kana":"ハルミオフィスタワーY","prefecture_code":13},"6133":{"zip_code":"1046133","prefecture":"東京都","prefecture_kana":"トウキョウト","city":"中央区","city_kana":"チュウオウク","town":"晴海オフィスタワーＹ","town_kana":"ハルミオフィスタワーY","prefecture_code":13},"6134":{"zip_code":"1046134","prefecture":"東京都","prefecture_kana":"トウキョウト","city":"中央区","city_kana":"チュウオウク","town":"晴海オフィスタワーＹ","town_kana":"ハルミオフィスタワーY","prefecture_code":13},"6135":{"zip_code":"1046135","prefecture":"東京都","prefecture_kana":"トウキョウト","city":"中央区","city_kana":"チュウオウク","town":"晴海オフィスタワーＹ","town_kana":"ハルミオフィスタワーY","prefecture_code":13},"6136":{"zip_code":"1046136","prefecture":"東京都","prefecture_kana":"トウキョウト","city":"中央区","city_kana":"チュウオウク","town":"晴海オフィスタワーＹ","town_kana":"ハルミオフィスタワーY","prefecture_code":13},"6137":{"zip_code":"1046137","prefecture":"東京都","prefecture_kana":"トウキョウト","city":"中央区","city_kana":"チュウオウク","town":"晴海オフィスタワーＹ","town_kana":"ハルミオフィスタワーY","prefecture_code":13},"6138":{"zip_code":"1046138","prefecture":"東京都","prefecture_kana":"トウキョウト","city":"中央区","city_kana":"チュウオウク","town":"晴海オフィスタワーＹ","town_kana":"ハルミオフィスタワーY","prefecture_code":13},"6139":{"zip_code":"1046139","prefecture":"東京都","prefecture_kana":"トウキョウト","city":"中央区","city_kana":"チュウオウク","town":"晴海オフィスタワーＹ","town_kana":"ハルミオフィスタワーY","prefecture_code":13},"6290":{"zip_code":"1046290","prefecture":"東京都","prefecture_kana":"トウキョウト","city":"中央区","city_kana":"チュウオウク","town":"晴海オフィスタワーＺ","town_kana":"ハルミオフィスタワーZ","prefecture_code":13},"6201":{"zip_code":"1046201","prefecture":"東京都","prefecture_kana":"トウキョウト","city":"中央区","city_kana":"チュウオウク","town":"晴海オフィスタワーＺ","town_kana":"ハルミオフィスタワーZ","prefecture_code":13},"6202":{"zip_code":"1046202","prefecture":"東京都","prefecture_kana":"トウキョウト","city":"中央区","city_kana":"チュウオウク","town":"晴海オフィスタワーＺ","town_kana":"ハルミオフィスタワーZ","prefecture_code":13},"6203":{"zip_code":"1046203","prefecture":"東京都","prefecture_kana":"トウキョウト","city":"中央区","city_kana":"チュウオウク","town":"晴海オフィスタワーＺ","town_kana":"ハルミオフィスタワーZ","prefecture_code":13},"6204":{"zip_code":"1046204","prefecture":"東京都","prefecture_kana":"トウキョウト","city":"中央区","city_kana":"チュウオウク","town":"晴海オフィスタワーＺ","town_kana":"ハルミオフィスタワーZ","prefecture_code":13},"6205":{"zip_code":"1046205","prefecture":"東京都","prefecture_kana":"トウキョウト","city":"中央区","city_kana":"チュウオウク","town":"晴海オフィスタワーＺ","town_kana":"ハルミオフィスタワーZ","prefecture_code":13},"6206":{"zip_code":"1046206","prefecture":"東京都","prefecture_kana":"トウキョウト","city":"中央区","city_kana":"チュウオウク","town":"晴海オフィスタワーＺ","town_kana":"ハルミオフィスタワーZ","prefecture_code":13},"6207":{"zip_code":"1046207","prefecture":"東京都","prefecture_kana":"トウキョウト","city":"中央区","city_kana":"チュウオウク","town":"晴海オフィスタワーＺ","town_kana":"ハルミオフィスタワーZ","prefecture_code":13},"6208":{"zip_code":"1046208","prefecture":"東京都","prefecture_kana":"トウキョウト","city":"中央区","city_kana":"チュウオウク","town":"晴海オフィスタワーＺ","town_kana":"ハルミオフィスタワーZ","prefecture_code":13},"6209":{"zip_code":"1046209","prefecture":"東京都","prefecture_kana":"トウキョウト","city":"中央区","city_kana":"チュウオウク","town":"晴海オフィスタワーＺ","town_kana":"ハルミオフィスタワーZ","prefecture_code":13},"6210":{"zip_code":"1046210","prefecture":"東京都","prefecture_kana":"トウキョウト","city":"中央区","city_kana":"チュウオウク","town":"晴海オフィスタワーＺ","town_kana":"ハルミオフィスタワーZ","prefecture_code":13},"6211":{"zip_code":"1046211","prefecture":"東京都","prefecture_kana":"トウキョウト","city":"中央区","city_kana":"チュウオウク","town":"晴海オフィスタワーＺ","town_kana":"ハルミオフィスタワーZ","prefecture_code":13},"6212":{"zip_code":"1046212","prefecture":"東京都","prefecture_kana":"トウキョウト","city":"中央区","city_kana":"チュウオウク","town":"晴海オフィスタワーＺ","town_kana":"ハルミオフィスタワーZ","prefecture_code":13},"6213":{"zip_code":"1046213","prefecture":"東京都","prefecture_kana":"トウキョウト","city":"中央区","city_kana":"チュウオウク","town":"晴海オフィスタワーＺ","town_kana":"ハルミオフィスタワーZ","prefecture_code":13},"6214":{"zip_code":"1046214","prefecture":"東京都","prefecture_kana":"トウキョウト","city":"中央区","city_kana":"チュウオウク","town":"晴海オフィスタワーＺ","town_kana":"ハルミオフィスタワーZ","prefecture_code":13},"6215":{"zip_code":"1046215","prefecture":"東京都","prefecture_kana":"トウキョウト","city":"中央区","city_kana":"チュウオウク","town":"晴海オフィスタワーＺ","town_kana":"ハルミオフィスタワーZ","prefecture_code":13},"6216":{"zip_code":"1046216","prefecture":"東京都","prefecture_kana":"トウキョウト","city":"中央区","city_kana":"チュウオウク","town":"晴海オフィスタワーＺ","town_kana":"ハルミオフィスタワーZ","prefecture_code":13},"6217":{"zip_code":"1046217","prefecture":"東京都","prefecture_kana":"トウキョウト","city":"中央区","city_kana":"チュウオウク","town":"晴海オフィスタワーＺ","town_kana":"ハルミオフィスタワーZ","prefecture_code":13},"6218":{"zip_code":"1046218","prefecture":"東京都","prefecture_kana":"トウキョウト","city":"中央区","city_kana":"チュウオウク","town":"晴海オフィスタワーＺ","town_kana":"ハルミオフィスタワーZ","prefecture_code":13},"6219":{"zip_code":"1046219","prefecture":"東京都","prefecture_kana":"トウキョウト","city":"中央区","city_kana":"チュウオウク","town":"晴海オフィスタワーＺ","town_kana":"ハルミオフィスタワーZ","prefecture_code":13},"6220":{"zip_code":"1046220","prefecture":"東京都","prefecture_kana":"トウキョウト","city":"中央区","city_kana":"チュウオウク","town":"晴海オフィスタワーＺ","town_kana":"ハルミオフィスタワーZ","prefecture_code":13},"6221":{"zip_code":"1046221","prefecture":"東京都","prefecture_kana":"トウキョウト","city":"中央区","city_kana":"チュウオウク","town":"晴海オフィスタワーＺ","town_kana":"ハルミオフィスタワーZ","prefecture_code":13},"6222":{"zip_code":"1046222","prefecture":"東京都","prefecture_kana":"トウキョウト","city":"中央区","city_kana":"チュウオウク","town":"晴海オフィスタワーＺ","town_kana":"ハルミオフィスタワーZ","prefecture_code":13},"6223":{"zip_code":"1046223","prefecture":"東京都","prefecture_kana":"トウキョウト","city":"中央区","city_kana":"チュウオウク","town":"晴海オフィスタワーＺ","town_kana":"ハルミオフィスタワーZ","prefecture_code":13},"6224":{"zip_code":"1046224","prefecture":"東京都","prefecture_kana":"トウキョウト","city":"中央区","city_kana":"チュウオウク","town":"晴海オフィスタワーＺ","town_kana":"ハルミオフィスタワーZ","prefecture_code":13},"6225":{"zip_code":"1046225","prefecture":"東京都","prefecture_kana":"トウキョウト","city":"中央区","city_kana":"チュウオウク","town":"晴海オフィスタワーＺ","town_kana":"ハルミオフィスタワーZ","prefecture_code":13},"6226":{"zip_code":"1046226","prefecture":"東京都","prefecture_kana":"トウキョウト","city":"中央区","city_kana":"チュウオウク","town":"晴海オフィスタワーＺ","town_kana":"ハルミオフィスタワーZ","prefecture_code":13},"6227":{"zip_code":"1046227","prefecture":"東京都","prefecture_kana":"トウキョウト","city":"中央区","city_kana":"チュウオウク","town":"晴海オフィスタワーＺ","town_kana":"ハルミオフィスタワーZ","prefecture_code":13},"6228":{"zip_code":"1046228","prefecture":"東京都","prefecture_kana":"トウキョウト","city":"中央区","city_kana":"チュウオウク","town":"晴海オフィスタワーＺ","town_kana":"ハルミオフィスタワーZ","prefecture_code":13},"6229":{"zip_code":"1046229","prefecture":"東京都","prefecture_kana":"トウキョウト","city":"中央区","city_kana":"チュウオウク","town":"晴海オフィスタワーＺ","town_kana":"ハルミオフィスタワーZ","prefecture_code":13},"6230":{"zip_code":"1046230","prefecture":"東京都","prefecture_kana":"トウキョウト","city":"中央区","city_kana":"チュウオウク","town":"晴海オフィスタワーＺ","town_kana":"ハルミオフィスタワーZ","prefecture_code":13},"6231":{"zip_code":"1046231","prefecture":"東京都","prefecture_kana":"トウキョウト","city":"中央区","city_kana":"チュウオウク","town":"晴海オフィスタワーＺ","town_kana":"ハルミオフィスタワーZ","prefecture_code":13},"6232":{"zip_code":"1046232","prefecture":"東京都","prefecture_kana":"トウキョウト","city":"中央区","city_kana":"チュウオウク","town":"晴海オフィスタワーＺ","town_kana":"ハルミオフィスタワーZ","prefecture_code":13},"6233":{"zip_code":"1046233","prefecture":"東京都","prefecture_kana":"トウキョウト","city":"中央区","city_kana":"チュウオウク","town":"晴海オフィスタワーＺ","town_kana":"ハルミオフィスタワーZ","prefecture_code":13},"0043":{"zip_code":"1040043","prefecture":"東京都","prefecture_kana":"トウキョウト","city":"中央区","city_kana":"チュウオウク","town":"湊","town_kana":"ミナト","prefecture_code":13},"0028":{"zip_code":"1040028","prefecture":"東京都","prefecture_kana":"トウキョウト","city":"中央区","city_kana":"チュウオウク","town":"八重洲","town_kana":"ヤエス","prefecture_code":13}}