{"0000":{"zip_code":"1050000","prefecture":"東京都","prefecture_kana":"トウキョウト","city":"港区","city_kana":"ミナトク","town":"","town_kana":"","prefecture_code":13},"0002":{"zip_code":"1050002","prefecture":"東京都","prefecture_kana":"トウキョウト","city":"港区","city_kana":"ミナトク","town":"愛宕","town_kana":"アタゴ","prefecture_code":13},"6290":{"zip_code":"1056290","prefecture":"東京都","prefecture_kana":"トウキョウト","city":"港区","city_kana":"ミナトク","town":"愛宕愛宕グリーンヒルズＭＯＲＩタワー","town_kana":"アタゴアタゴグリーンヒルズモリタワー","prefecture_code":13},"6201":{"zip_code":"1056201","prefecture":"東京都","prefecture_kana":"トウキョウト","city":"港区","city_kana":"ミナトク","town":"愛宕愛宕グリーンヒルズＭＯＲＩタワー","town_kana":"アタゴアタゴグリーンヒルズモリタワー","prefecture_code":13},"6202":{"zip_code":"1056202","prefecture":"東京都","prefecture_kana":"トウキョウト","city":"港区","city_kana":"ミナトク","town":"愛宕愛宕グリーンヒルズＭＯＲＩタワー","town_kana":"アタゴアタゴグリーンヒルズモリタワー","prefecture_code":13},"6203":{"zip_code":"1056203","prefecture":"東京都","prefecture_kana":"トウキョウト","city":"港区","city_kana":"ミナトク","town":"愛宕愛宕グリーンヒルズＭＯＲＩタワー","town_kana":"アタゴアタゴグリーンヒルズモリタワー","prefecture_code":13},"6204":{"zip_code":"1056204","prefecture":"東京都","prefecture_kana":"トウキョウト","city":"港区","city_kana":"ミナトク","town":"愛宕愛宕グリーンヒルズＭＯＲＩタワー","town_kana":"アタゴアタゴグリーンヒルズモリタワー","prefecture_code":13},"6205":{"zip_code":"1056205","prefecture":"東京都","prefecture_kana":"トウキョウト","city":"港区","city_kana":"ミナトク","town":"愛宕愛宕グリーンヒルズＭＯＲＩタワー","town_kana":"アタゴアタゴグリーンヒルズモリタワー","prefecture_code":13},"6206":{"zip_code":"1056206","prefecture":"東京都","prefecture_kana":"トウキョウト","city":"港区","city_kana":"ミナトク","town":"愛宕愛宕グリーンヒルズＭＯＲＩタワー","town_kana":"アタゴアタゴグリーンヒルズモリタワー","prefecture_code":13},"6207":{"zip_code":"1056207","prefecture":"東京都","prefecture_kana":"トウキョウト","city":"港区","city_kana":"ミナトク","town":"愛宕愛宕グリーンヒルズＭＯＲＩタワー","town_kana":"アタゴアタゴグリーンヒルズモリタワー","prefecture_code":13},"6208":{"zip_code":"1056208","prefecture":"東京都","prefecture_kana":"トウキョウト","city":"港区","city_kana":"ミナトク","town":"愛宕愛宕グリーンヒルズＭＯＲＩタワー","town_kana":"アタゴアタゴグリーンヒルズモリタワー","prefecture_code":13},"6209":{"zip_code":"1056209","prefecture":"東京都","prefecture_kana":"トウキョウト","city":"港区","city_kana":"ミナトク","town":"愛宕愛宕グリーンヒルズＭＯＲＩタワー","town_kana":"アタゴアタゴグリーンヒルズモリタワー","prefecture_code":13},"6210":{"zip_code":"1056210","prefecture":"東京都","prefecture_kana":"トウキョウト","city":"港区","city_kana":"ミナトク","town":"愛宕愛宕グリーンヒルズＭＯＲＩタワー","town_kana":"アタゴアタゴグリーンヒルズモリタワー","prefecture_code":13},"6211":{"zip_code":"1056211","prefecture":"東京都","prefecture_kana":"トウキョウト","city":"港区","city_kana":"ミナトク","town":"愛宕愛宕グリーンヒルズＭＯＲＩタワー","town_kana":"アタゴアタゴグリーンヒルズモリタワー","prefecture_code":13},"6212":{"zip_code":"1056212","prefecture":"東京都","prefecture_kana":"トウキョウト","city":"港区","city_kana":"ミナトク","town":"愛宕愛宕グリーンヒルズＭＯＲＩタワー","town_kana":"アタゴアタゴグリーンヒルズモリタワー","prefecture_code":13},"6213":{"zip_code":"1056213","prefecture":"東京都","prefecture_kana":"トウキョウト","city":"港区","city_kana":"ミナトク","town":"愛宕愛宕グリーンヒルズＭＯＲＩタワー","town_kana":"アタゴアタゴグリーンヒルズモリタワー","prefecture_code":13},"6214":{"zip_code":"1056214","prefecture":"東京都","prefecture_kana":"トウキョウト","city":"港区","city_kana":"ミナトク","town":"愛宕愛宕グリーンヒルズＭＯＲＩタワー","town_kana":"アタゴアタゴグリーンヒルズモリタワー","prefecture_code":13},"6215":{"zip_code":"1056215","prefecture":"東京都","prefecture_kana":"トウキョウト","city":"港区","city_kana":"ミナトク","town":"愛宕愛宕グリーンヒルズＭＯＲＩタワー","town_kana":"アタゴアタゴグリーンヒルズモリタワー","prefecture_code":13},"6216":{"zip_code":"1056216","prefecture":"東京都","prefecture_kana":"トウキョウト","city":"港区","city_kana":"ミナトク","town":"愛宕愛宕グリーンヒルズＭＯＲＩタワー","town_kana":"アタゴアタゴグリーンヒルズモリタワー","prefecture_code":13},"6217":{"zip_code":"1056217","prefecture":"東京都","prefecture_kana":"トウキョウト","city":"港区","city_kana":"ミナトク","town":"愛宕愛宕グリーンヒルズＭＯＲＩタワー","town_kana":"アタゴアタゴグリーンヒルズモリタワー","prefecture_code":13},"6218":{"zip_code":"1056218","prefecture":"東京都","prefecture_kana":"トウキョウト","city":"港区","city_kana":"ミナトク","town":"愛宕愛宕グリーンヒルズＭＯＲＩタワー","town_kana":"アタゴアタゴグリーンヒルズモリタワー","prefecture_code":13},"6219":{"zip_code":"1056219","prefecture":"東京都","prefecture_kana":"トウキョウト","city":"港区","city_kana":"ミナトク","town":"愛宕愛宕グリーンヒルズＭＯＲＩタワー","town_kana":"アタゴアタゴグリーンヒルズモリタワー","prefecture_code":13},"6220":{"zip_code":"1056220","prefecture":"東京都","prefecture_kana":"トウキョウト","city":"港区","city_kana":"ミナトク","town":"愛宕愛宕グリーンヒルズＭＯＲＩタワー","town_kana":"アタゴアタゴグリーンヒルズモリタワー","prefecture_code":13},"6221":{"zip_code":"1056221","prefecture":"東京都","prefecture_kana":"トウキョウト","city":"港区","city_kana":"ミナトク","town":"愛宕愛宕グリーンヒルズＭＯＲＩタワー","town_kana":"アタゴアタゴグリーンヒルズモリタワー","prefecture_code":13},"6222":{"zip_code":"1056222","prefecture":"東京都","prefecture_kana":"トウキョウト","city":"港区","city_kana":"ミナトク","town":"愛宕愛宕グリーンヒルズＭＯＲＩタワー","town_kana":"アタゴアタゴグリーンヒルズモリタワー","prefecture_code":13},"6223":{"zip_code":"1056223","prefecture":"東京都","prefecture_kana":"トウキョウト","city":"港区","city_kana":"ミナトク","town":"愛宕愛宕グリーンヒルズＭＯＲＩタワー","town_kana":"アタゴアタゴグリーンヒルズモリタワー","prefecture_code":13},"6224":{"zip_code":"1056224","prefecture":"東京都","prefecture_kana":"トウキョウト","city":"港区","city_kana":"ミナトク","town":"愛宕愛宕グリーンヒルズＭＯＲＩタワー","town_kana":"アタゴアタゴグリーンヒルズモリタワー","prefecture_code":13},"6225":{"zip_code":"1056225","prefecture":"東京都","prefecture_kana":"トウキョウト","city":"港区","city_kana":"ミナトク","town":"愛宕愛宕グリーンヒルズＭＯＲＩタワー","town_kana":"アタゴアタゴグリーンヒルズモリタワー","prefecture_code":13},"6226":{"zip_code":"1056226","prefecture":"東京都","prefecture_kana":"トウキョウト","city":"港区","city_kana":"ミナトク","town":"愛宕愛宕グリーンヒルズＭＯＲＩタワー","town_kana":"アタゴアタゴグリーンヒルズモリタワー","prefecture_code":13},"6227":{"zip_code":"1056227","prefecture":"東京都","prefecture_kana":"トウキョウト","city":"港区","city_kana":"ミナトク","town":"愛宕愛宕グリーンヒルズＭＯＲＩタワー","town_kana":"アタゴアタゴグリーンヒルズモリタワー","prefecture_code":13},"6228":{"zip_code":"1056228","prefecture":"東京都","prefecture_kana":"トウキョウト","city":"港区","city_kana":"ミナトク","town":"愛宕愛宕グリーンヒルズＭＯＲＩタワー","town_kana":"アタゴアタゴグリーンヒルズモリタワー","prefecture_code":13},"6229":{"zip_code":"1056229","prefecture":"東京都","prefecture_kana":"トウキョウト","city":"港区","city_kana":"ミナトク","town":"愛宕愛宕グリーンヒルズＭＯＲＩタワー","town_kana":"アタゴアタゴグリーンヒルズモリタワー","prefecture_code":13},"6230":{"zip_code":"1056230","prefecture":"東京都","prefecture_kana":"トウキョウト","city":"港区","city_kana":"ミナトク","town":"愛宕愛宕グリーンヒルズＭＯＲＩタワー","town_kana":"アタゴアタゴグリーンヒルズモリタワー","prefecture_code":13},"6231":{"zip_code":"1056231","prefecture":"東京都","prefecture_kana":"トウキョウト","city":"港区","city_kana":"ミナトク","town":"愛宕愛宕グリーンヒルズＭＯＲＩタワー","town_kana":"アタゴアタゴグリーンヒルズモリタワー","prefecture_code":13},"6232":{"zip_code":"1056232","prefecture":"東京都","prefecture_kana":"トウキョウト","city":"港区","city_kana":"ミナトク","town":"愛宕愛宕グリーンヒルズＭＯＲＩタワー","town_kana":"アタゴアタゴグリーンヒルズモリタワー","prefecture_code":13},"6233":{"zip_code":"1056233","prefecture":"東京都","prefecture_kana":"トウキョウト","city":"港区","city_kana":"ミナトク","town":"愛宕愛宕グリーンヒルズＭＯＲＩタワー","town_kana":"アタゴアタゴグリーンヒルズモリタワー","prefecture_code":13},"6234":{"zip_code":"1056234","prefecture":"東京都","prefecture_kana":"トウキョウト","city":"港区","city_kana":"ミナトク","town":"愛宕愛宕グリーンヒルズＭＯＲＩタワー","town_kana":"アタゴアタゴグリーンヒルズモリタワー","prefecture_code":13},"6235":{"zip_code":"1056235","prefecture":"東京都","prefecture_kana":"トウキョウト","city":"港区","city_kana":"ミナトク","town":"愛宕愛宕グリーンヒルズＭＯＲＩタワー","town_kana":"アタゴアタゴグリーンヒルズモリタワー","prefecture_code":13},"6236":{"zip_code":"1056236","prefecture":"東京都","prefecture_kana":"トウキョウト","city":"港区","city_kana":"ミナトク","town":"愛宕愛宕グリーンヒルズＭＯＲＩタワー","town_kana":"アタゴアタゴグリーンヒルズモリタワー","prefecture_code":13},"6237":{"zip_code":"1056237","prefecture":"東京都","prefecture_kana":"トウキョウト","city":"港区","city_kana":"ミナトク","town":"愛宕愛宕グリーンヒルズＭＯＲＩタワー","town_kana":"アタゴアタゴグリーンヒルズモリタワー","prefecture_code":13},"6238":{"zip_code":"1056238","prefecture":"東京都","prefecture_kana":"トウキョウト","city":"港区","city_kana":"ミナトク","town":"愛宕愛宕グリーンヒルズＭＯＲＩタワー","town_kana":"アタゴアタゴグリーンヒルズモリタワー","prefecture_code":13},"6239":{"zip_code":"1056239","prefecture":"東京都","prefecture_kana":"トウキョウト","city":"港区","city_kana":"ミナトク","town":"愛宕愛宕グリーンヒルズＭＯＲＩタワー","town_kana":"アタゴアタゴグリーンヒルズモリタワー","prefecture_code":13},"6240":{"zip_code":"1056240","prefecture":"東京都","prefecture_kana":"トウキョウト","city":"港区","city_kana":"ミナトク","town":"愛宕愛宕グリーンヒルズＭＯＲＩタワー","town_kana":"アタゴアタゴグリーンヒルズモリタワー","prefecture_code":13},"6241":{"zip_code":"1056241","prefecture":"東京都","prefecture_kana":"トウキョウト","city":"港区","city_kana":"ミナトク","town":"愛宕愛宕グリーンヒルズＭＯＲＩタワー","town_kana":"アタゴアタゴグリーンヒルズモリタワー","prefecture_code":13},"6242":{"zip_code":"1056242","prefecture":"東京都","prefecture_kana":"トウキョウト","city":"港区","city_kana":"ミナトク","town":"愛宕愛宕グリーンヒルズＭＯＲＩタワー","town_kana":"アタゴアタゴグリーンヒルズモリタワー","prefecture_code":13},"0022":{"zip_code":"1050022","prefecture":"東京都","prefecture_kana":"トウキョウト","city":"港区","city_kana":"ミナトク","town":"海岸","town_kana":"カイガン","prefecture_code":13},"0014":{"zip_code":"1050014","prefecture":"東京都","prefecture_kana":"トウキョウト","city":"港区","city_kana":"ミナトク","town":"芝","town_kana":"シバ","prefecture_code":13},"0023":{"zip_code":"1050023","prefecture":"東京都","prefecture_kana":"トウキョウト","city":"港区","city_kana":"ミナトク","town":"芝浦","town_kana":"シバウラ","prefecture_code":13},"0011":{"zip_code":"1050011","prefecture":"東京都","prefecture_kana":"トウキョウト","city":"港区","city_kana":"ミナトク","town":"芝公園","town_kana":"シバコウエン","prefecture_code":13},"0012":{"zip_code":"1050012","prefecture":"東京都","prefecture_kana":"トウキョウト","city":"港区","city_kana":"ミナトク","town":"芝大門","town_kana":"シバダイモン","prefecture_code":13},"0004":{"zip_code":"1050004","prefecture":"東京都","prefecture_kana":"トウキョウト","city":"港区","city_kana":"ミナトク","town":"新橋","town_kana":"シンバシ","prefecture_code":13},"0001":{"zip_code":"1050001","prefecture":"東京都","prefecture_kana":"トウキョウト","city":"港区","city_kana":"ミナトク","town":"虎ノ門","town_kana":"トラノモン","prefecture_code":13},"6090":{"zip_code":"1056090","prefecture":"東京都","prefecture_kana":"トウキョウト","city":"港区","city_kana":"ミナトク","town":"虎ノ門城山トラストタワー","town_kana":"トラノモンシロヤマトラストタワー","prefecture_code":13},"6001":{"zip_code":"1056001","prefecture":"東京都","prefecture_kana":"トウキョウト","city":"港区","city_kana":"ミナトク","town":"虎ノ門城山トラストタワー","town_kana":"トラノモンシロヤマトラストタワー","prefecture_code":13},"6002":{"zip_code":"1056002","prefecture":"東京都","prefecture_kana":"トウキョウト","city":"港区","city_kana":"ミナトク","town":"虎ノ門城山トラストタワー","town_kana":"トラノモンシロヤマトラストタワー","prefecture_code":13},"6003":{"zip_code":"1056003","prefecture":"東京都","prefecture_kana":"トウキョウト","city":"港区","city_kana":"ミナトク","town":"虎ノ門城山トラストタワー","town_kana":"トラノモンシロヤマトラストタワー","prefecture_code":13},"6004":{"zip_code":"1056004","prefecture":"東京都","prefecture_kana":"トウキョウト","city":"港区","city_kana":"ミナトク","town":"虎ノ門城山トラストタワー","town_kana":"トラノモンシロヤマトラストタワー","prefecture_code":13},"6005":{"zip_code":"1056005","prefecture":"東京都","prefecture_kana":"トウキョウト","city":"港区","city_kana":"ミナトク","town":"虎ノ門城山トラストタワー","town_kana":"トラノモンシロヤマトラストタワー","prefecture_code":13},"6006":{"zip_code":"1056006","prefecture":"東京都","prefecture_kana":"トウキョウト","city":"港区","city_kana":"ミナトク","town":"虎ノ門城山トラストタワー","town_kana":"トラノモンシロヤマトラストタワー","prefecture_code":13},"6007":{"zip_code":"1056007","prefecture":"東京都","prefecture_kana":"トウキョウト","city":"港区","city_kana":"ミナトク","town":"虎ノ門城山トラストタワー","town_kana":"トラノモンシロヤマトラストタワー","prefecture_code":13},"6008":{"zip_code":"1056008","prefecture":"東京都","prefecture_kana":"トウキョウト","city":"港区","city_kana":"ミナトク","town":"虎ノ門城山トラストタワー","town_kana":"トラノモンシロヤマトラストタワー","prefecture_code":13},"6009":{"zip_code":"1056009","prefecture":"東京都","prefecture_kana":"トウキョウト","city":"港区","city_kana":"ミナトク","town":"虎ノ門城山トラストタワー","town_kana":"トラノモンシロヤマトラストタワー","prefecture_code":13},"6010":{"zip_code":"1056010","prefecture":"東京都","prefecture_kana":"トウキョウト","city":"港区","city_kana":"ミナトク","town":"虎ノ門城山トラストタワー","town_kana":"トラノモンシロヤマトラストタワー","prefecture_code":13},"6011":{"zip_code":"1056011","prefecture":"東京都","prefecture_kana":"トウキョウト","city":"港区","city_kana":"ミナトク","town":"虎ノ門城山トラストタワー","town_kana":"トラノモンシロヤマトラストタワー","prefecture_code":13},"6012":{"zip_code":"1056012","prefecture":"東京都","prefecture_kana":"トウキョウト","city":"港区","city_kana":"ミナトク","town":"虎ノ門城山トラストタワー","town_kana":"トラノモンシロヤマトラストタワー","prefecture_code":13},"6013":{"zip_code":"1056013","prefecture":"東京都","prefecture_kana":"トウキョウト","city":"港区","city_kana":"ミナトク","town":"虎ノ門城山トラストタワー","town_kana":"トラノモンシロヤマトラストタワー","prefecture_code":13},"6014":{"zip_code":"1056014","prefecture":"東京都","prefecture_kana":"トウキョウト","city":"港区","city_kana":"ミナトク","town":"虎ノ門城山トラストタワー","town_kana":"トラノモンシロヤマトラストタワー","prefecture_code":13},"6015":{"zip_code":"1056015","prefecture":"東京都","prefecture_kana":"トウキョウト","city":"港区","city_kana":"ミナトク","town":"虎ノ門城山トラストタワー","town_kana":"トラノモンシロヤマトラストタワー","prefecture_code":13},"6016":{"zip_code":"1056016","prefecture":"東京都","prefecture_kana":"トウキョウト","city":"港区","city_kana":"ミナトク","town":"虎ノ門城山トラストタワー","town_kana":"トラノモンシロヤマトラストタワー","prefecture_code":13},"6017":{"zip_code":"1056017","prefecture":"東京都","prefecture_kana":"トウキョウト","city":"港区","city_kana":"ミナトク","town":"虎ノ門城山トラストタワー","town_kana":"トラノモンシロヤマトラストタワー","prefecture_code":13},"6018":{"zip_code":"1056018","prefecture":"東京都","prefecture_kana":"トウキョウト","city":"港区","city_kana":"ミナトク","town":"虎ノ門城山トラストタワー","town_kana":"トラノモンシロヤマトラストタワー","prefecture_code":13},"6019":{"zip_code":"1056019","prefecture":"東京都","prefecture_kana":"トウキョウト","city":"港区","city_kana":"ミナトク","town":"虎ノ門城山トラストタワー","town_kana":"トラノモンシロヤマトラストタワー","prefecture_code":13},"6020":{"zip_code":"1056020","prefecture":"東京都","prefecture_kana":"トウキョウト","city":"港区","city_kana":"ミナトク","town":"虎ノ門城山トラストタワー","town_kana":"トラノモンシロヤマトラストタワー","prefecture_code":13},"6021":{"zip_code":"1056021","prefecture":"東京都","prefecture_kana":"トウキョウト","city":"港区","city_kana":"ミナトク","town":"虎ノ門城山トラストタワー","town_kana":"トラノモンシロヤマトラストタワー","prefecture_code":13},"6022":{"zip_code":"1056022","prefecture":"東京都","prefecture_kana":"トウキョウト","city":"港区","city_kana":"ミナトク","town":"虎ノ門城山トラストタワー","town_kana":"トラノモンシロヤマトラストタワー","prefecture_code":13},"6023":{"zip_code":"1056023","prefecture":"東京都","prefecture_kana":"トウキョウト","city":"港区","city_kana":"ミナトク","town":"虎ノ門城山トラストタワー","town_kana":"トラノモンシロヤマトラストタワー","prefecture_code":13},"6024":{"zip_code":"1056024","prefecture":"東京都","prefecture_kana":"トウキョウト","city":"港区","city_kana":"ミナトク","town":"虎ノ門城山トラストタワー","town_kana":"トラノモンシロヤマトラストタワー","prefecture_code":13},"6025":{"zip_code":"1056025","prefecture":"東京都","prefecture_kana":"トウキョウト","city":"港区","city_kana":"ミナトク","town":"虎ノ門城山トラストタワー","town_kana":"トラノモンシロヤマトラストタワー","prefecture_code":13},"6026":{"zip_code":"1056026","prefecture":"東京都","prefecture_kana":"トウキョウト","city":"港区","city_kana":"ミナトク","town":"虎ノ門城山トラストタワー","town_kana":"トラノモンシロヤマトラストタワー","prefecture_code":13},"6027":{"zip_code":"1056027","prefecture":"東京都","prefecture_kana":"トウキョウト","city":"港区","city_kana":"ミナトク","town":"虎ノ門城山トラストタワー","town_kana":"トラノモンシロヤマトラストタワー","prefecture_code":13},"6028":{"zip_code":"1056028","prefecture":"東京都","prefecture_kana":"トウキョウト","city":"港区","city_kana":"ミナトク","town":"虎ノ門城山トラストタワー","town_kana":"トラノモンシロヤマトラストタワー","prefecture_code":13},"6029":{"zip_code":"1056029","prefecture":"東京都","prefecture_kana":"トウキョウト","city":"港区","city_kana":"ミナトク","town":"虎ノ門城山トラストタワー","town_kana":"トラノモンシロヤマトラストタワー","prefecture_code":13},"6030":{"zip_code":"1056030","prefecture":"東京都","prefecture_kana":"トウキョウト","city":"港区","city_kana":"ミナトク","town":"虎ノ門城山トラストタワー","town_kana":"トラノモンシロヤマトラストタワー","prefecture_code":13},"6031":{"zip_code":"1056031","prefecture":"東京都","prefecture_kana":"トウキョウト","city":"港区","city_kana":"ミナトク","town":"虎ノ門城山トラストタワー","town_kana":"トラノモンシロヤマトラストタワー","prefecture_code":13},"6032":{"zip_code":"1056032","prefecture":"東京都","prefecture_kana":"トウキョウト","city":"港区","city_kana":"ミナトク","town":"虎ノ門城山トラストタワー","town_kana":"トラノモンシロヤマトラストタワー","prefecture_code":13},"6033":{"zip_code":"1056033","prefecture":"東京都","prefecture_kana":"トウキョウト","city":"港区","city_kana":"ミナトク","town":"虎ノ門城山トラストタワー","town_kana":"トラノモンシロヤマトラストタワー","prefecture_code":13},"6034":{"zip_code":"1056034","prefecture":"東京都","prefecture_kana":"トウキョウト","city":"港区","city_kana":"ミナトク","town":"虎ノ門城山トラストタワー","town_kana":"トラノモンシロヤマトラストタワー","prefecture_code":13},"6035":{"zip_code":"1056035","prefecture":"東京都","prefecture_kana":"トウキョウト","city":"港区","city_kana":"ミナトク","town":"虎ノ門城山トラストタワー","town_kana":"トラノモンシロヤマトラストタワー","prefecture_code":13},"6036":{"zip_code":"1056036","prefecture":"東京都","prefecture_kana":"トウキョウト","city":"港区","city_kana":"ミナトク","town":"虎ノ門城山トラストタワー","town_kana":"トラノモンシロヤマトラストタワー","prefecture_code":13},"6037":{"zip_code":"1056037","prefecture":"東京都","prefecture_kana":"トウキョウト","city":"港区","city_kana":"ミナトク","town":"虎ノ門城山トラストタワー","town_kana":"トラノモンシロヤマトラストタワー","prefecture_code":13},"0003":{"zip_code":"1050003","prefecture":"東京都","prefecture_kana":"トウキョウト","city":"港区","city_kana":"ミナトク","town":"西新橋","town_kana":"ニシシンバシ","prefecture_code":13},"0013":{"zip_code":"1050013","prefecture":"東京都","prefecture_kana":"トウキョウト","city":"港区","city_kana":"ミナトク","town":"浜松町","town_kana":"ハママツチョウ","prefecture_code":13},"6190":{"zip_code":"1056190","prefecture":"東京都","prefecture_kana":"トウキョウト","city":"港区","city_kana":"ミナトク","town":"浜松町世界貿易センタービル","town_kana":"ハママツチョウセカイボウエキセンタービル","prefecture_code":13},"6101":{"zip_code":"1056101","prefecture":"東京都","prefecture_kana":"トウキョウト","city":"港区","city_kana":"ミナトク","town":"浜松町世界貿易センタービル","town_kana":"ハママツチョウセカイボウエキセンタービル","prefecture_code":13},"6102":{"zip_code":"1056102","prefecture":"東京都","prefecture_kana":"トウキョウト","city":"港区","city_kana":"ミナトク","town":"浜松町世界貿易センタービル","town_kana":"ハママツチョウセカイボウエキセンタービル","prefecture_code":13},"6103":{"zip_code":"1056103","prefecture":"東京都","prefecture_kana":"トウキョウト","city":"港区","city_kana":"ミナトク","town":"浜松町世界貿易センタービル","town_kana":"ハママツチョウセカイボウエキセンタービル","prefecture_code":13},"6104":{"zip_code":"1056104","prefecture":"東京都","prefecture_kana":"トウキョウト","city":"港区","city_kana":"ミナトク","town":"浜松町世界貿易センタービル","town_kana":"ハママツチョウセカイボウエキセンタービル","prefecture_code":13},"6105":{"zip_code":"1056105","prefecture":"東京都","prefecture_kana":"トウキョウト","city":"港区","city_kana":"ミナトク","town":"浜松町世界貿易センタービル","town_kana":"ハママツチョウセカイボウエキセンタービル","prefecture_code":13},"6106":{"zip_code":"1056106","prefecture":"東京都","prefecture_kana":"トウキョウト","city":"港区","city_kana":"ミナトク","town":"浜松町世界貿易センタービル","town_kana":"ハママツチョウセカイボウエキセンタービル","prefecture_code":13},"6107":{"zip_code":"1056107","prefecture":"東京都","prefecture_kana":"トウキョウト","city":"港区","city_kana":"ミナトク","town":"浜松町世界貿易センタービル","town_kana":"ハママツチョウセカイボウエキセンタービル","prefecture_code":13},"6108":{"zip_code":"1056108","prefecture":"東京都","prefecture_kana":"トウキョウト","city":"港区","city_kana":"ミナトク","town":"浜松町世界貿易センタービル","town_kana":"ハママツチョウセカイボウエキセンタービル","prefecture_code":13},"6109":{"zip_code":"1056109","prefecture":"東京都","prefecture_kana":"トウキョウト","city":"港区","city_kana":"ミナトク","town":"浜松町世界貿易センタービル","town_kana":"ハママツチョウセカイボウエキセンタービル","prefecture_code":13},"6110":{"zip_code":"1056110","prefecture":"東京都","prefecture_kana":"トウキョウト","city":"港区","city_kana":"ミナトク","town":"浜松町世界貿易センタービル","town_kana":"ハママツチョウセカイボウエキセンタービル","prefecture_code":13},"6111":{"zip_code":"1056111","prefecture":"東京都","prefecture_kana":"トウキョウト","city":"港区","city_kana":"ミナトク","town":"浜松町世界貿易センタービル","town_kana":"ハママツチョウセカイボウエキセンタービル","prefecture_code":13},"6112":{"zip_code":"1056112","prefecture":"東京都","prefecture_kana":"トウキョウト","city":"港区","city_kana":"ミナトク","town":"浜松町世界貿易センタービル","town_kana":"ハママツチョウセカイボウエキセンタービル","prefecture_code":13},"6113":{"zip_code":"1056113","prefecture":"東京都","prefecture_kana":"トウキョウト","city":"港区","city_kana":"ミナトク","town":"浜松町世界貿易センタービル","town_kana":"ハママツチョウセカイボウエキセンタービル","prefecture_code":13},"6114":{"zip_code":"1056114","prefecture":"東京都","prefecture_kana":"トウキョウト","city":"港区","city_kana":"ミナトク","town":"浜松町世界貿易センタービル","town_kana":"ハママツチョウセカイボウエキセンタービル","prefecture_code":13},"6115":{"zip_code":"1056115","prefecture":"東京都","prefecture_kana":"トウキョウト","city":"港区","city_kana":"ミナトク","town":"浜松町世界貿易センタービル","town_kana":"ハママツチョウセカイボウエキセンタービル","prefecture_code":13},"6116":{"zip_code":"1056116","prefecture":"東京都","prefecture_kana":"トウキョウト","city":"港区","city_kana":"ミナトク","town":"浜松町世界貿易センタービル","town_kana":"ハママツチョウセカイボウエキセンタービル","prefecture_code":13},"6117":{"zip_code":"1056117","prefecture":"東京都","prefecture_kana":"トウキョウト","city":"港区","city_kana":"ミナトク","town":"浜松町世界貿易センタービル","town_kana":"ハママツチョウセカイボウエキセンタービル","prefecture_code":13},"6118":{"zip_code":"1056118","prefecture":"東京都","prefecture_kana":"トウキョウト","city":"港区","city_kana":"ミナトク","town":"浜松町世界貿易センタービル","town_kana":"ハママツチョウセカイボウエキセンタービル","prefecture_code":13},"6119":{"zip_code":"1056119","prefecture":"東京都","prefecture_kana":"トウキョウト","city":"港区","city_kana":"ミナトク","town":"浜松町世界貿易センタービル","town_kana":"ハママツチョウセカイボウエキセンタービル","prefecture_code":13},"6120":{"zip_code":"1056120","prefecture":"東京都","prefecture_kana":"トウキョウト","city":"港区","city_kana":"ミナトク","town":"浜松町世界貿易センタービル","town_kana":"ハママツチョウセカイボウエキセンタービル","prefecture_code":13},"6121":{"zip_code":"1056121","prefecture":"東京都","prefecture_kana":"トウキョウト","city":"港区","city_kana":"ミナトク","town":"浜松町世界貿易センタービル","town_kana":"ハママツチョウセカイボウエキセンタービル","prefecture_code":13},"6122":{"zip_code":"1056122","prefecture":"東京都","prefecture_kana":"トウキョウト","city":"港区","city_kana":"ミナトク","town":"浜松町世界貿易センタービル","town_kana":"ハママツチョウセカイボウエキセンタービル","prefecture_code":13},"6123":{"zip_code":"1056123","prefecture":"東京都","prefecture_kana":"トウキョウト","city":"港区","city_kana":"ミナトク","town":"浜松町世界貿易センタービル","town_kana":"ハママツチョウセカイボウエキセンタービル","prefecture_code":13},"6124":{"zip_code":"1056124","prefecture":"東京都","prefecture_kana":"トウキョウト","city":"港区","city_kana":"ミナトク","town":"浜松町世界貿易センタービル","town_kana":"ハママツチョウセカイボウエキセンタービル","prefecture_code":13},"6125":{"zip_code":"1056125","prefecture":"東京都","prefecture_kana":"トウキョウト","city":"港区","city_kana":"ミナトク","town":"浜松町世界貿易センタービル","town_kana":"ハママツチョウセカイボウエキセンタービル","prefecture_code":13},"6126":{"zip_code":"1056126","prefecture":"東京都","prefecture_kana":"トウキョウト","city":"港区","city_kana":"ミナトク","town":"浜松町世界貿易センタービル","town_kana":"ハママツチョウセカイボウエキセンタービル","prefecture_code":13},"6127":{"zip_code":"1056127","prefecture":"東京都","prefecture_kana":"トウキョウト","city":"港区","city_kana":"ミナトク","town":"浜松町世界貿易センタービル","town_kana":"ハママツチョウセカイボウエキセンタービル","prefecture_code":13},"6128":{"zip_code":"1056128","prefecture":"東京都","prefecture_kana":"トウキョウト","city":"港区","city_kana":"ミナトク","town":"浜松町世界貿易センタービル","town_kana":"ハママツチョウセカイボウエキセンタービル","prefecture_code":13},"6129":{"zip_code":"1056129","prefecture":"東京都","prefecture_kana":"トウキョウト","city":"港区","city_kana":"ミナトク","town":"浜松町世界貿易センタービル","town_kana":"ハママツチョウセカイボウエキセンタービル","prefecture_code":13},"6130":{"zip_code":"1056130","prefecture":"東京都","prefecture_kana":"トウキョウト","city":"港区","city_kana":"ミナトク","town":"浜松町世界貿易センタービル","town_kana":"ハママツチョウセカイボウエキセンタービル","prefecture_code":13},"6131":{"zip_code":"1056131","prefecture":"東京都","prefecture_kana":"トウキョウト","city":"港区","city_kana":"ミナトク","town":"浜松町世界貿易センタービル","town_kana":"ハママツチョウセカイボウエキセンタービル","prefecture_code":13},"6132":{"zip_code":"1056132","prefecture":"東京都","prefecture_kana":"トウキョウト","city":"港区","city_kana":"ミナトク","town":"浜松町世界貿易センタービル","town_kana":"ハママツチョウセカイボウエキセンタービル","prefecture_code":13},"6133":{"zip_code":"1056133","prefecture":"東京都","prefecture_kana":"トウキョウト","city":"港区","city_kana":"ミナトク","town":"浜松町世界貿易センタービル","town_kana":"ハママツチョウセカイボウエキセンタービル","prefecture_code":13},"6134":{"zip_code":"1056134","prefecture":"東京都","prefecture_kana":"トウキョウト","city":"港区","city_kana":"ミナトク","town":"浜松町世界貿易センタービル","town_kana":"ハママツチョウセカイボウエキセンタービル","prefecture_code":13},"6135":{"zip_code":"1056135","prefecture":"東京都","prefecture_kana":"トウキョウト","city":"港区","city_kana":"ミナトク","town":"浜松町世界貿易センタービル","town_kana":"ハママツチョウセカイボウエキセンタービル","prefecture_code":13},"6136":{"zip_code":"1056136","prefecture":"東京都","prefecture_kana":"トウキョウト","city":"港区","city_kana":"ミナトク","town":"浜松町世界貿易センタービル","town_kana":"ハママツチョウセカイボウエキセンタービル","prefecture_code":13},"6137":{"zip_code":"1056137","prefecture":"東京都","prefecture_kana":"トウキョウト","city":"港区","city_kana":"ミナトク","town":"浜松町世界貿易センタービル","town_kana":"ハママツチョウセカイボウエキセンタービル","prefecture_code":13},"6138":{"zip_code":"1056138","prefecture":"東京都","prefecture_kana":"トウキョウト","city":"港区","city_kana":"ミナトク","town":"浜松町世界貿易センタービル","town_kana":"ハママツチョウセカイボウエキセンタービル","prefecture_code":13},"6139":{"zip_code":"1056139","prefecture":"東京都","prefecture_kana":"トウキョウト","city":"港区","city_kana":"ミナトク","town":"浜松町世界貿易センタービル","town_kana":"ハママツチョウセカイボウエキセンタービル","prefecture_code":13},"6140":{"zip_code":"1056140","prefecture":"東京都","prefecture_kana":"トウキョウト","city":"港区","city_kana":"ミナトク","town":"浜松町世界貿易センタービル","town_kana":"ハママツチョウセカイボウエキセンタービル","prefecture_code":13},"0021":{"zip_code":"1050021","prefecture":"東京都","prefecture_kana":"トウキョウト","city":"港区","city_kana":"ミナトク","town":"東新橋","town_kana":"ヒガシシンバシ","prefecture_code":13},"7190":{"zip_code":"1057190","prefecture":"東京都","prefecture_kana":"トウキョウト","city":"港区","city_kana":"ミナトク","town":"東新橋汐留シティセンター","town_kana":"ヒガシシンバシシオドメシティセンター","prefecture_code":13},"7101":{"zip_code":"1057101","prefecture":"東京都","prefecture_kana":"トウキョウト","city":"港区","city_kana":"ミナトク","town":"東新橋汐留シティセンター","town_kana":"ヒガシシンバシシオドメシティセンター","prefecture_code":13},"7102":{"zip_code":"1057102","prefecture":"東京都","prefecture_kana":"トウキョウト","city":"港区","city_kana":"ミナトク","town":"東新橋汐留シティセンター","town_kana":"ヒガシシンバシシオドメシティセンター","prefecture_code":13},"7103":{"zip_code":"1057103","prefecture":"東京都","prefecture_kana":"トウキョウト","city":"港区","city_kana":"ミナトク","town":"東新橋汐留シティセンター","town_kana":"ヒガシシンバシシオドメシティセンター","prefecture_code":13},"7104":{"zip_code":"1057104","prefecture":"東京都","prefecture_kana":"トウキョウト","city":"港区","city_kana":"ミナトク","town":"東新橋汐留シティセンター","town_kana":"ヒガシシンバシシオドメシティセンター","prefecture_code":13},"7105":{"zip_code":"1057105","prefecture":"東京都","prefecture_kana":"トウキョウト","city":"港区","city_kana":"ミナトク","town":"東新橋汐留シティセンター","town_kana":"ヒガシシンバシシオドメシティセンター","prefecture_code":13},"7106":{"zip_code":"1057106","prefecture":"東京都","prefecture_kana":"トウキョウト","city":"港区","city_kana":"ミナトク","town":"東新橋汐留シティセンター","town_kana":"ヒガシシンバシシオドメシティセンター","prefecture_code":13},"7107":{"zip_code":"1057107","prefecture":"東京都","prefecture_kana":"トウキョウト","city":"港区","city_kana":"ミナトク","town":"東新橋汐留シティセンター","town_kana":"ヒガシシンバシシオドメシティセンター","prefecture_code":13},"7108":{"zip_code":"1057108","prefecture":"東京都","prefecture_kana":"トウキョウト","city":"港区","city_kana":"ミナトク","town":"東新橋汐留シティセンター","town_kana":"ヒガシシンバシシオドメシティセンター","prefecture_code":13},"7109":{"zip_code":"1057109","prefecture":"東京都","prefecture_kana":"トウキョウト","city":"港区","city_kana":"ミナトク","town":"東新橋汐留シティセンター","town_kana":"ヒガシシンバシシオドメシティセンター","prefecture_code":13},"7110":{"zip_code":"1057110","prefecture":"東京都","prefecture_kana":"トウキョウト","city":"港区","city_kana":"ミナトク","town":"東新橋汐留シティセンター","town_kana":"ヒガシシンバシシオドメシティセンター","prefecture_code":13},"7111":{"zip_code":"1057111","prefecture":"東京都","prefecture_kana":"トウキョウト","city":"港区","city_kana":"ミナトク","town":"東新橋汐留シティセンター","town_kana":"ヒガシシンバシシオドメシティセンター","prefecture_code":13},"7112":{"zip_code":"1057112","prefecture":"東京都","prefecture_kana":"トウキョウト","city":"港区","city_kana":"ミナトク","town":"東新橋汐留シティセンター","town_kana":"ヒガシシンバシシオドメシティセンター","prefecture_code":13},"7113":{"zip_code":"1057113","prefecture":"東京都","prefecture_kana":"トウキョウト","city":"港区","city_kana":"ミナトク","town":"東新橋汐留シティセンター","town_kana":"ヒガシシンバシシオドメシティセンター","prefecture_code":13},"7114":{"zip_code":"1057114","prefecture":"東京都","prefecture_kana":"トウキョウト","city":"港区","city_kana":"ミナトク","town":"東新橋汐留シティセンター","town_kana":"ヒガシシンバシシオドメシティセンター","prefecture_code":13},"7115":{"zip_code":"1057115","prefecture":"東京都","prefecture_kana":"トウキョウト","city":"港区","city_kana":"ミナトク","town":"東新橋汐留シティセンター","town_kana":"ヒガシシンバシシオドメシティセンター","prefecture_code":13},"7116":{"zip_code":"1057116","prefecture":"東京都","prefecture_kana":"トウキョウト","city":"港区","city_kana":"ミナトク","town":"東新橋汐留シティセンター","town_kana":"ヒガシシンバシシオドメシティセンター","prefecture_code":13},"7117":{"zip_code":"1057117","prefecture":"東京都","prefecture_kana":"トウキョウト","city":"港区","city_kana":"ミナトク","town":"東新橋汐留シティセンター","town_kana":"ヒガシシンバシシオドメシティセンター","prefecture_code":13},"7118":{"zip_code":"1057118","prefecture":"東京都","prefecture_kana":"トウキョウト","city":"港区","city_kana":"ミナトク","town":"東新橋汐留シティセンター","town_kana":"ヒガシシンバシシオドメシティセンター","prefecture_code":13},"7119":{"zip_code":"1057119","prefecture":"東京都","prefecture_kana":"トウキョウト","city":"港区","city_kana":"ミナトク","town":"東新橋汐留シティセンター","town_kana":"ヒガシシンバシシオドメシティセンター","prefecture_code":13},"7120":{"zip_code":"1057120","prefecture":"東京都","prefecture_kana":"トウキョウト","city":"港区","city_kana":"ミナトク","town":"東新橋汐留シティセンター","town_kana":"ヒガシシンバシシオドメシティセンター","prefecture_code":13},"7121":{"zip_code":"1057121","prefecture":"東京都","prefecture_kana":"トウキョウト","city":"港区","city_kana":"ミナトク","town":"東新橋汐留シティセンター","town_kana":"ヒガシシンバシシオドメシティセンター","prefecture_code":13},"7122":{"zip_code":"1057122","prefecture":"東京都","prefecture_kana":"トウキョウト","city":"港区","city_kana":"ミナトク","town":"東新橋汐留シティセンター","town_kana":"ヒガシシンバシシオドメシティセンター","prefecture_code":13},"7123":{"zip_code":"1057123","prefecture":"東京都","prefecture_kana":"トウキョウト","city":"港区","city_kana":"ミナトク","town":"東新橋汐留シティセンター","town_kana":"ヒガシシンバシシオドメシティセンター","prefecture_code":13},"7124":{"zip_code":"1057124","prefecture":"東京都","prefecture_kana":"トウキョウト","city":"港区","city_kana":"ミナトク","town":"東新橋汐留シティセンター","town_kana":"ヒガシシンバシシオドメシティセンター","prefecture_code":13},"7125":{"zip_code":"1057125","prefecture":"東京都","prefecture_kana":"トウキョウト","city":"港区","city_kana":"ミナトク","town":"東新橋汐留シティセンター","town_kana":"ヒガシシンバシシオドメシティセンター","prefecture_code":13},"7126":{"zip_code":"1057126","prefecture":"東京都","prefecture_kana":"トウキョウト","city":"港区","city_kana":"ミナトク","town":"東新橋汐留シティセンター","town_kana":"ヒガシシンバシシオドメシティセンター","prefecture_code":13},"7127":{"zip_code":"1057127","prefecture":"東京都","prefecture_kana":"トウキョウト","city":"港区","city_kana":"ミナトク","town":"東新橋汐留シティセンター","town_kana":"ヒガシシンバシシオドメシティセンター","prefecture_code":13},"7128":{"zip_code":"1057128","prefecture":"東京都","prefecture_kana":"トウキョウト","city":"港区","city_kana":"ミナトク","town":"東新橋汐留シティセンター","town_kana":"ヒガシシンバシシオドメシティセンター","prefecture_code":13},"7129":{"zip_code":"1057129","prefecture":"東京都","prefecture_kana":"トウキョウト","city":"港区","city_kana":"ミナトク","town":"東新橋汐留シティセンター","town_kana":"ヒガシシンバシシオドメシティセンター","prefecture_code":13},"7130":{"zip_code":"1057130","prefecture":"東京都","prefecture_kana":"トウキョウト","city":"港区","city_kana":"ミナトク","town":"東新橋汐留シティセンター","town_kana":"ヒガシシンバシシオドメシティセンター","prefecture_code":13},"7131":{"zip_code":"1057131","prefecture":"東京都","prefecture_kana":"トウキョウト","city":"港区","city_kana":"ミナトク","town":"東新橋汐留シティセンター","town_kana":"ヒガシシンバシシオドメシティセンター","prefecture_code":13},"7132":{"zip_code":"1057132","prefecture":"東京都","prefecture_kana":"トウキョウト","city":"港区","city_kana":"ミナトク","town":"東新橋汐留シティセンター","town_kana":"ヒガシシンバシシオドメシティセンター","prefecture_code":13},"7133":{"zip_code":"1057133","prefecture":"東京都","prefecture_kana":"トウキョウト","city":"港区","city_kana":"ミナトク","town":"東新橋汐留シティセンター","town_kana":"ヒガシシンバシシオドメシティセンター","prefecture_code":13},"7134":{"zip_code":"1057134","prefecture":"東京都","prefecture_kana":"トウキョウト","city":"港区","city_kana":"ミナトク","town":"東新橋汐留シティセンター","town_kana":"ヒガシシンバシシオドメシティセンター","prefecture_code":13},"7135":{"zip_code":"1057135","prefecture":"東京都","prefecture_kana":"トウキョウト","city":"港区","city_kana":"ミナトク","town":"東新橋汐留シティセンター","town_kana":"ヒガシシンバシシオドメシティセンター","prefecture_code":13},"7136":{"zip_code":"1057136","prefecture":"東京都","prefecture_kana":"トウキョウト","city":"港区","city_kana":"ミナトク","town":"東新橋汐留シティセンター","town_kana":"ヒガシシンバシシオドメシティセンター","prefecture_code":13},"7137":{"zip_code":"1057137","prefecture":"東京都","prefecture_kana":"トウキョウト","city":"港区","city_kana":"ミナトク","town":"東新橋汐留シティセンター","town_kana":"ヒガシシンバシシオドメシティセンター","prefecture_code":13},"7138":{"zip_code":"1057138","prefecture":"東京都","prefecture_kana":"トウキョウト","city":"港区","city_kana":"ミナトク","town":"東新橋汐留シティセンター","town_kana":"ヒガシシンバシシオドメシティセンター","prefecture_code":13},"7139":{"zip_code":"1057139","prefecture":"東京都","prefecture_kana":"トウキョウト","city":"港区","city_kana":"ミナトク","town":"東新橋汐留シティセンター","town_kana":"ヒガシシンバシシオドメシティセンター","prefecture_code":13},"7140":{"zip_code":"1057140","prefecture":"東京都","prefecture_kana":"トウキョウト","city":"港区","city_kana":"ミナトク","town":"東新橋汐留シティセンター","town_kana":"ヒガシシンバシシオドメシティセンター","prefecture_code":13},"7141":{"zip_code":"1057141","prefecture":"東京都","prefecture_kana":"トウキョウト","city":"港区","city_kana":"ミナトク","town":"東新橋汐留シティセンター","town_kana":"ヒガシシンバシシオドメシティセンター","prefecture_code":13},"7142":{"zip_code":"1057142","prefecture":"東京都","prefecture_kana":"トウキョウト","city":"港区","city_kana":"ミナトク","town":"東新橋汐留シティセンター","town_kana":"ヒガシシンバシシオドメシティセンター","prefecture_code":13},"7143":{"zip_code":"1057143","prefecture":"東京都","prefecture_kana":"トウキョウト","city":"港区","city_kana":"ミナトク","town":"東新橋汐留シティセンター","town_kana":"ヒガシシンバシシオドメシティセンター","prefecture_code":13},"7290":{"zip_code":"1057290","prefecture":"東京都","prefecture_kana":"トウキョウト","city":"港区","city_kana":"ミナトク","town":"東新橋汐留メディアタワー","town_kana":"ヒガシシンバシシオドメメディアタワー","prefecture_code":13},"7201":{"zip_code":"1057201","prefecture":"東京都","prefecture_kana":"トウキョウト","city":"港区","city_kana":"ミナトク","town":"東新橋汐留メディアタワー","town_kana":"ヒガシシンバシシオドメメディアタワー","prefecture_code":13},"7202":{"zip_code":"1057202","prefecture":"東京都","prefecture_kana":"トウキョウト","city":"港区","city_kana":"ミナトク","town":"東新橋汐留メディアタワー","town_kana":"ヒガシシンバシシオドメメディアタワー","prefecture_code":13},"7203":{"zip_code":"1057203","prefecture":"東京都","prefecture_kana":"トウキョウト","city":"港区","city_kana":"ミナトク","town":"東新橋汐留メディアタワー","town_kana":"ヒガシシンバシシオドメメディアタワー","prefecture_code":13},"7204":{"zip_code":"1057204","prefecture":"東京都","prefecture_kana":"トウキョウト","city":"港区","city_kana":"ミナトク","town":"東新橋汐留メディアタワー","town_kana":"ヒガシシンバシシオドメメディアタワー","prefecture_code":13},"7205":{"zip_code":"1057205","prefecture":"東京都","prefecture_kana":"トウキョウト","city":"港区","city_kana":"ミナトク","town":"東新橋汐留メディアタワー","town_kana":"ヒガシシンバシシオドメメディアタワー","prefecture_code":13},"7206":{"zip_code":"1057206","prefecture":"東京都","prefecture_kana":"トウキョウト","city":"港区","city_kana":"ミナトク","town":"東新橋汐留メディアタワー","town_kana":"ヒガシシンバシシオドメメディアタワー","prefecture_code":13},"7207":{"zip_code":"1057207","prefecture":"東京都","prefecture_kana":"トウキョウト","city":"港区","city_kana":"ミナトク","town":"東新橋汐留メディアタワー","town_kana":"ヒガシシンバシシオドメメディアタワー","prefecture_code":13},"7208":{"zip_code":"1057208","prefecture":"東京都","prefecture_kana":"トウキョウト","city":"港区","city_kana":"ミナトク","town":"東新橋汐留メディアタワー","town_kana":"ヒガシシンバシシオドメメディアタワー","prefecture_code":13},"7209":{"zip_code":"1057209","prefecture":"東京都","prefecture_kana":"トウキョウト","city":"港区","city_kana":"ミナトク","town":"東新橋汐留メディアタワー","town_kana":"ヒガシシンバシシオドメメディアタワー","prefecture_code":13},"7210":{"zip_code":"1057210","prefecture":"東京都","prefecture_kana":"トウキョウト","city":"港区","city_kana":"ミナトク","town":"東新橋汐留メディアタワー","town_kana":"ヒガシシンバシシオドメメディアタワー","prefecture_code":13},"7211":{"zip_code":"1057211","prefecture":"東京都","prefecture_kana":"トウキョウト","city":"港区","city_kana":"ミナトク","town":"東新橋汐留メディアタワー","town_kana":"ヒガシシンバシシオドメメディアタワー","prefecture_code":13},"7212":{"zip_code":"1057212","prefecture":"東京都","prefecture_kana":"トウキョウト","city":"港区","city_kana":"ミナトク","town":"東新橋汐留メディアタワー","town_kana":"ヒガシシンバシシオドメメディアタワー","prefecture_code":13},"7213":{"zip_code":"1057213","prefecture":"東京都","prefecture_kana":"トウキョウト","city":"港区","city_kana":"ミナトク","town":"東新橋汐留メディアタワー","town_kana":"ヒガシシンバシシオドメメディアタワー","prefecture_code":13},"7214":{"zip_code":"1057214","prefecture":"東京都","prefecture_kana":"トウキョウト","city":"港区","city_kana":"ミナトク","town":"東新橋汐留メディアタワー","town_kana":"ヒガシシンバシシオドメメディアタワー","prefecture_code":13},"7215":{"zip_code":"1057215","prefecture":"東京都","prefecture_kana":"トウキョウト","city":"港区","city_kana":"ミナトク","town":"東新橋汐留メディアタワー","town_kana":"ヒガシシンバシシオドメメディアタワー","prefecture_code":13},"7216":{"zip_code":"1057216","prefecture":"東京都","prefecture_kana":"トウキョウト","city":"港区","city_kana":"ミナトク","town":"東新橋汐留メディアタワー","town_kana":"ヒガシシンバシシオドメメディアタワー","prefecture_code":13},"7217":{"zip_code":"1057217","prefecture":"東京都","prefecture_kana":"トウキョウト","city":"港区","city_kana":"ミナトク","town":"東新橋汐留メディアタワー","town_kana":"ヒガシシンバシシオドメメディアタワー","prefecture_code":13},"7218":{"zip_code":"1057218","prefecture":"東京都","prefecture_kana":"トウキョウト","city":"港区","city_kana":"ミナトク","town":"東新橋汐留メディアタワー","town_kana":"ヒガシシンバシシオドメメディアタワー","prefecture_code":13},"7219":{"zip_code":"1057219","prefecture":"東京都","prefecture_kana":"トウキョウト","city":"港区","city_kana":"ミナトク","town":"東新橋汐留メディアタワー","town_kana":"ヒガシシンバシシオドメメディアタワー","prefecture_code":13},"7220":{"zip_code":"1057220","prefecture":"東京都","prefecture_kana":"トウキョウト","city":"港区","city_kana":"ミナトク","town":"東新橋汐留メディアタワー","town_kana":"ヒガシシンバシシオドメメディアタワー","prefecture_code":13},"7221":{"zip_code":"1057221","prefecture":"東京都","prefecture_kana":"トウキョウト","city":"港区","city_kana":"ミナトク","town":"東新橋汐留メディアタワー","town_kana":"ヒガシシンバシシオドメメディアタワー","prefecture_code":13},"7222":{"zip_code":"1057222","prefecture":"東京都","prefecture_kana":"トウキョウト","city":"港区","city_kana":"ミナトク","town":"東新橋汐留メディアタワー","town_kana":"ヒガシシンバシシオドメメディアタワー","prefecture_code":13},"7223":{"zip_code":"1057223","prefecture":"東京都","prefecture_kana":"トウキョウト","city":"港区","city_kana":"ミナトク","town":"東新橋汐留メディアタワー","town_kana":"ヒガシシンバシシオドメメディアタワー","prefecture_code":13},"7224":{"zip_code":"1057224","prefecture":"東京都","prefecture_kana":"トウキョウト","city":"港区","city_kana":"ミナトク","town":"東新橋汐留メディアタワー","town_kana":"ヒガシシンバシシオドメメディアタワー","prefecture_code":13},"7225":{"zip_code":"1057225","prefecture":"東京都","prefecture_kana":"トウキョウト","city":"港区","city_kana":"ミナトク","town":"東新橋汐留メディアタワー","town_kana":"ヒガシシンバシシオドメメディアタワー","prefecture_code":13},"7226":{"zip_code":"1057226","prefecture":"東京都","prefecture_kana":"トウキョウト","city":"港区","city_kana":"ミナトク","town":"東新橋汐留メディアタワー","town_kana":"ヒガシシンバシシオドメメディアタワー","prefecture_code":13},"7227":{"zip_code":"1057227","prefecture":"東京都","prefecture_kana":"トウキョウト","city":"港区","city_kana":"ミナトク","town":"東新橋汐留メディアタワー","town_kana":"ヒガシシンバシシオドメメディアタワー","prefecture_code":13},"7228":{"zip_code":"1057228","prefecture":"東京都","prefecture_kana":"トウキョウト","city":"港区","city_kana":"ミナトク","town":"東新橋汐留メディアタワー","town_kana":"ヒガシシンバシシオドメメディアタワー","prefecture_code":13},"7229":{"zip_code":"1057229","prefecture":"東京都","prefecture_kana":"トウキョウト","city":"港区","city_kana":"ミナトク","town":"東新橋汐留メディアタワー","town_kana":"ヒガシシンバシシオドメメディアタワー","prefecture_code":13},"7230":{"zip_code":"1057230","prefecture":"東京都","prefecture_kana":"トウキョウト","city":"港区","city_kana":"ミナトク","town":"東新橋汐留メディアタワー","town_kana":"ヒガシシンバシシオドメメディアタワー","prefecture_code":13},"7231":{"zip_code":"1057231","prefecture":"東京都","prefecture_kana":"トウキョウト","city":"港区","city_kana":"ミナトク","town":"東新橋汐留メディアタワー","town_kana":"ヒガシシンバシシオドメメディアタワー","prefecture_code":13},"7232":{"zip_code":"1057232","prefecture":"東京都","prefecture_kana":"トウキョウト","city":"港区","city_kana":"ミナトク","town":"東新橋汐留メディアタワー","town_kana":"ヒガシシンバシシオドメメディアタワー","prefecture_code":13},"7233":{"zip_code":"1057233","prefecture":"東京都","prefecture_kana":"トウキョウト","city":"港区","city_kana":"ミナトク","town":"東新橋汐留メディアタワー","town_kana":"ヒガシシンバシシオドメメディアタワー","prefecture_code":13},"7234":{"zip_code":"1057234","prefecture":"東京都","prefecture_kana":"トウキョウト","city":"港区","city_kana":"ミナトク","town":"東新橋汐留メディアタワー","town_kana":"ヒガシシンバシシオドメメディアタワー","prefecture_code":13},"7090":{"zip_code":"1057090","prefecture":"東京都","prefecture_kana":"トウキョウト","city":"港区","city_kana":"ミナトク","town":"東新橋電通本社ビル","town_kana":"ヒガシシンバシデンツウホンシャビル","prefecture_code":13},"7001":{"zip_code":"1057001","prefecture":"東京都","prefecture_kana":"トウキョウト","city":"港区","city_kana":"ミナトク","town":"東新橋電通本社ビル","town_kana":"ヒガシシンバシデンツウホンシャビル","prefecture_code":13},"7002":{"zip_code":"1057002","prefecture":"東京都","prefecture_kana":"トウキョウト","city":"港区","city_kana":"ミナトク","town":"東新橋電通本社ビル","town_kana":"ヒガシシンバシデンツウホンシャビル","prefecture_code":13},"7003":{"zip_code":"1057003","prefecture":"東京都","prefecture_kana":"トウキョウト","city":"港区","city_kana":"ミナトク","town":"東新橋電通本社ビル","town_kana":"ヒガシシンバシデンツウホンシャビル","prefecture_code":13},"7004":{"zip_code":"1057004","prefecture":"東京都","prefecture_kana":"トウキョウト","city":"港区","city_kana":"ミナトク","town":"東新橋電通本社ビル","town_kana":"ヒガシシンバシデンツウホンシャビル","prefecture_code":13},"7005":{"zip_code":"1057005","prefecture":"東京都","prefecture_kana":"トウキョウト","city":"港区","city_kana":"ミナトク","town":"東新橋電通本社ビル","town_kana":"ヒガシシンバシデンツウホンシャビル","prefecture_code":13},"7006":{"zip_code":"1057006","prefecture":"東京都","prefecture_kana":"トウキョウト","city":"港区","city_kana":"ミナトク","town":"東新橋電通本社ビル","town_kana":"ヒガシシンバシデンツウホンシャビル","prefecture_code":13},"7007":{"zip_code":"1057007","prefecture":"東京都","prefecture_kana":"トウキョウト","city":"港区","city_kana":"ミナトク","town":"東新橋電通本社ビル","town_kana":"ヒガシシンバシデンツウホンシャビル","prefecture_code":13},"7008":{"zip_code":"1057008","prefecture":"東京都","prefecture_kana":"トウキョウト","city":"港区","city_kana":"ミナトク","town":"東新橋電通本社ビル","town_kana":"ヒガシシンバシデンツウホンシャビル","prefecture_code":13},"7009":{"zip_code":"1057009","prefecture":"東京都","prefecture_kana":"トウキョウト","city":"港区","city_kana":"ミナトク","town":"東新橋電通本社ビル","town_kana":"ヒガシシンバシデンツウホンシャビル","prefecture_code":13},"7010":{"zip_code":"1057010","prefecture":"東京都","prefecture_kana":"トウキョウト","city":"港区","city_kana":"ミナトク","town":"東新橋電通本社ビル","town_kana":"ヒガシシンバシデンツウホンシャビル","prefecture_code":13},"7011":{"zip_code":"1057011","prefecture":"東京都","prefecture_kana":"トウキョウト","city":"港区","city_kana":"ミナトク","town":"東新橋電通本社ビル","town_kana":"ヒガシシンバシデンツウホンシャビル","prefecture_code":13},"7012":{"zip_code":"1057012","prefecture":"東京都","prefecture_kana":"トウキョウト","city":"港区","city_kana":"ミナトク","town":"東新橋電通本社ビル","town_kana":"ヒガシシンバシデンツウホンシャビル","prefecture_code":13},"7013":{"zip_code":"1057013","prefecture":"東京都","prefecture_kana":"トウキョウト","city":"港区","city_kana":"ミナトク","town":"東新橋電通本社ビル","town_kana":"ヒガシシンバシデンツウホンシャビル","prefecture_code":13},"7014":{"zip_code":"1057014","prefecture":"東京都","prefecture_kana":"トウキョウト","city":"港区","city_kana":"ミナトク","town":"東新橋電通本社ビル","town_kana":"ヒガシシンバシデンツウホンシャビル","prefecture_code":13},"7015":{"zip_code":"1057015","prefecture":"東京都","prefecture_kana":"トウキョウト","city":"港区","city_kana":"ミナトク","town":"東新橋電通本社ビル","town_kana":"ヒガシシンバシデンツウホンシャビル","prefecture_code":13},"7016":{"zip_code":"1057016","prefecture":"東京都","prefecture_kana":"トウキョウト","city":"港区","city_kana":"ミナトク","town":"東新橋電通本社ビル","town_kana":"ヒガシシンバシデンツウホンシャビル","prefecture_code":13},"7017":{"zip_code":"1057017","prefecture":"東京都","prefecture_kana":"トウキョウト","city":"港区","city_kana":"ミナトク","town":"東新橋電通本社ビル","town_kana":"ヒガシシンバシデンツウホンシャビル","prefecture_code":13},"7018":{"zip_code":"1057018","prefecture":"東京都","prefecture_kana":"トウキョウト","city":"港区","city_kana":"ミナトク","town":"東新橋電通本社ビル","town_kana":"ヒガシシンバシデンツウホンシャビル","prefecture_code":13},"7019":{"zip_code":"1057019","prefecture":"東京都","prefecture_kana":"トウキョウト","city":"港区","city_kana":"ミナトク","town":"東新橋電通本社ビル","town_kana":"ヒガシシンバシデンツウホンシャビル","prefecture_code":13},"7020":{"zip_code":"1057020","prefecture":"東京都","prefecture_kana":"トウキョウト","city":"港区","city_kana":"ミナトク","town":"東新橋電通本社ビル","town_kana":"ヒガシシンバシデンツウホンシャビル","prefecture_code":13},"7021":{"zip_code":"1057021","prefecture":"東京都","prefecture_kana":"トウキョウト","city":"港区","city_kana":"ミナトク","town":"東新橋電通本社ビル","town_kana":"ヒガシシンバシデンツウホンシャビル","prefecture_code":13},"7022":{"zip_code":"1057022","prefecture":"東京都","prefecture_kana":"トウキョウト","city":"港区","city_kana":"ミナトク","town":"東新橋電通本社ビル","town_kana":"ヒガシシンバシデンツウホンシャビル","prefecture_code":13},"7023":{"zip_code":"1057023","prefecture":"東京都","prefecture_kana":"トウキョウト","city":"港区","city_kana":"ミナトク","town":"東新橋電通本社ビル","town_kana":"ヒガシシンバシデンツウホンシャビル","prefecture_code":13},"7024":{"zip_code":"1057024","prefecture":"東京都","prefecture_kana":"トウキョウト","city":"港区","city_kana":"ミナトク","town":"東新橋電通本社ビル","town_kana":"ヒガシシンバシデンツウホンシャビル","prefecture_code":13},"7025":{"zip_code":"1057025","prefecture":"東京都","prefecture_kana":"トウキョウト","city":"港区","city_kana":"ミナトク","town":"東新橋電通本社ビル","town_kana":"ヒガシシンバシデンツウホンシャビル","prefecture_code":13},"7026":{"zip_code":"1057026","prefecture":"東京都","prefecture_kana":"トウキョウト","city":"港区","city_kana":"ミナトク","town":"東新橋電通本社ビル","town_kana":"ヒガシシンバシデンツウホンシャビル","prefecture_code":13},"7027":{"zip_code":"1057027","prefecture":"東京都","prefecture_kana":"トウキョウト","city":"港区","city_kana":"ミナトク","town":"東新橋電通本社ビル","town_kana":"ヒガシシンバシデンツウホンシャビル","prefecture_code":13},"7028":{"zip_code":"1057028","prefecture":"東京都","prefecture_kana":"トウキョウト","city":"港区","city_kana":"ミナトク","town":"東新橋電通本社ビル","town_kana":"ヒガシシンバシデンツウホンシャビル","prefecture_code":13},"7029":{"zip_code":"1057029","prefecture":"東京都","prefecture_kana":"トウキョウト","city":"港区","city_kana":"ミナトク","town":"東新橋電通本社ビル","town_kana":"ヒガシシンバシデンツウホンシャビル","prefecture_code":13},"7030":{"zip_code":"1057030","prefecture":"東京都","prefecture_kana":"トウキョウト","city":"港区","city_kana":"ミナトク","town":"東新橋電通本社ビル","town_kana":"ヒガシシンバシデンツウホンシャビル","prefecture_code":13},"7031":{"zip_code":"1057031","prefecture":"東京都","prefecture_kana":"トウキョウト","city":"港区","city_kana":"ミナトク","town":"東新橋電通本社ビル","town_kana":"ヒガシシンバシデンツウホンシャビル","prefecture_code":13},"7032":{"zip_code":"1057032","prefecture":"東京都","prefecture_kana":"トウキョウト","city":"港区","city_kana":"ミナトク","town":"東新橋電通本社ビル","town_kana":"ヒガシシンバシデンツウホンシャビル","prefecture_code":13},"7033":{"zip_code":"1057033","prefecture":"東京都","prefecture_kana":"トウキョウト","city":"港区","city_kana":"ミナトク","town":"東新橋電通本社ビル","town_kana":"ヒガシシンバシデンツウホンシャビル","prefecture_code":13},"7034":{"zip_code":"1057034","prefecture":"東京都","prefecture_kana":"トウキョウト","city":"港区","city_kana":"ミナトク","town":"東新橋電通本社ビル","town_kana":"ヒガシシンバシデンツウホンシャビル","prefecture_code":13},"7035":{"zip_code":"1057035","prefecture":"東京都","prefecture_kana":"トウキョウト","city":"港区","city_kana":"ミナトク","town":"東新橋電通本社ビル","town_kana":"ヒガシシンバシデンツウホンシャビル","prefecture_code":13},"7036":{"zip_code":"1057036","prefecture":"東京都","prefecture_kana":"トウキョウト","city":"港区","city_kana":"ミナトク","town":"東新橋電通本社ビル","town_kana":"ヒガシシンバシデンツウホンシャビル","prefecture_code":13},"7037":{"zip_code":"1057037","prefecture":"東京都","prefecture_kana":"トウキョウト","city":"港区","city_kana":"ミナトク","town":"東新橋電通本社ビル","town_kana":"ヒガシシンバシデンツウホンシャビル","prefecture_code":13},"7038":{"zip_code":"1057038","prefecture":"東京都","prefecture_kana":"トウキョウト","city":"港区","city_kana":"ミナトク","town":"東新橋電通本社ビル","town_kana":"ヒガシシンバシデンツウホンシャビル","prefecture_code":13},"7039":{"zip_code":"1057039","prefecture":"東京都","prefecture_kana":"トウキョウト","city":"港区","city_kana":"ミナトク","town":"東新橋電通本社ビル","town_kana":"ヒガシシンバシデンツウホンシャビル","prefecture_code":13},"7040":{"zip_code":"1057040","prefecture":"東京都","prefecture_kana":"トウキョウト","city":"港区","city_kana":"ミナトク","town":"東新橋電通本社ビル","town_kana":"ヒガシシンバシデンツウホンシャビル","prefecture_code":13},"7041":{"zip_code":"1057041","prefecture":"東京都","prefecture_kana":"トウキョウト","city":"港区","city_kana":"ミナトク","town":"東新橋電通本社ビル","town_kana":"ヒガシシンバシデンツウホンシャビル","prefecture_code":13},"7042":{"zip_code":"1057042","prefecture":"東京都","prefecture_kana":"トウキョウト","city":"港区","city_kana":"ミナトク","town":"東新橋電通本社ビル","town_kana":"ヒガシシンバシデンツウホンシャビル","prefecture_code":13},"7043":{"zip_code":"1057043","prefecture":"東京都","prefecture_kana":"トウキョウト","city":"港区","city_kana":"ミナトク","town":"東新橋電通本社ビル","town_kana":"ヒガシシンバシデンツウホンシャビル","prefecture_code":13},"7044":{"zip_code":"1057044","prefecture":"東京都","prefecture_kana":"トウキョウト","city":"港区","city_kana":"ミナトク","town":"東新橋電通本社ビル","town_kana":"ヒガシシンバシデンツウホンシャビル","prefecture_code":13},"7045":{"zip_code":"1057045","prefecture":"東京都","prefecture_kana":"トウキョウト","city":"港区","city_kana":"ミナトク","town":"東新橋電通本社ビル","town_kana":"ヒガシシンバシデンツウホンシャビル","prefecture_code":13},"7046":{"zip_code":"1057046","prefecture":"東京都","prefecture_kana":"トウキョウト","city":"港区","city_kana":"ミナトク","town":"東新橋電通本社ビル","town_kana":"ヒガシシンバシデンツウホンシャビル","prefecture_code":13},"7047":{"zip_code":"1057047","prefecture":"東京都","prefecture_kana":"トウキョウト","city":"港区","city_kana":"ミナトク","town":"東新橋電通本社ビル","town_kana":"ヒガシシンバシデンツウホンシャビル","prefecture_code":13},"7390":{"zip_code":"1057390","prefecture":"東京都","prefecture_kana":"トウキョウト","city":"港区","city_kana":"ミナトク","town":"東新橋東京汐留ビルディング","town_kana":"ヒガシシンバシトウキョウシオドメビルディング","prefecture_code":13},"7301":{"zip_code":"1057301","prefecture":"東京都","prefecture_kana":"トウキョウト","city":"港区","city_kana":"ミナトク","town":"東新橋東京汐留ビルディング","town_kana":"ヒガシシンバシトウキョウシオドメビルディング","prefecture_code":13},"7302":{"zip_code":"1057302","prefecture":"東京都","prefecture_kana":"トウキョウト","city":"港区","city_kana":"ミナトク","town":"東新橋東京汐留ビルディング","town_kana":"ヒガシシンバシトウキョウシオドメビルディング","prefecture_code":13},"7303":{"zip_code":"1057303","prefecture":"東京都","prefecture_kana":"トウキョウト","city":"港区","city_kana":"ミナトク","town":"東新橋東京汐留ビルディング","town_kana":"ヒガシシンバシトウキョウシオドメビルディング","prefecture_code":13},"7304":{"zip_code":"1057304","prefecture":"東京都","prefecture_kana":"トウキョウト","city":"港区","city_kana":"ミナトク","town":"東新橋東京汐留ビルディング","town_kana":"ヒガシシンバシトウキョウシオドメビルディング","prefecture_code":13},"7305":{"zip_code":"1057305","prefecture":"東京都","prefecture_kana":"トウキョウト","city":"港区","city_kana":"ミナトク","town":"東新橋東京汐留ビルディング","town_kana":"ヒガシシンバシトウキョウシオドメビルディング","prefecture_code":13},"7306":{"zip_code":"1057306","prefecture":"東京都","prefecture_kana":"トウキョウト","city":"港区","city_kana":"ミナトク","town":"東新橋東京汐留ビルディング","town_kana":"ヒガシシンバシトウキョウシオドメビルディング","prefecture_code":13},"7307":{"zip_code":"1057307","prefecture":"東京都","prefecture_kana":"トウキョウト","city":"港区","city_kana":"ミナトク","town":"東新橋東京汐留ビルディング","town_kana":"ヒガシシンバシトウキョウシオドメビルディング","prefecture_code":13},"7308":{"zip_code":"1057308","prefecture":"東京都","prefecture_kana":"トウキョウト","city":"港区","city_kana":"ミナトク","town":"東新橋東京汐留ビルディング","town_kana":"ヒガシシンバシトウキョウシオドメビルディング","prefecture_code":13},"7309":{"zip_code":"1057309","prefecture":"東京都","prefecture_kana":"トウキョウト","city":"港区","city_kana":"ミナトク","town":"東新橋東京汐留ビルディング","town_kana":"ヒガシシンバシトウキョウシオドメビルディング","prefecture_code":13},"7310":{"zip_code":"1057310","prefecture":"東京都","prefecture_kana":"トウキョウト","city":"港区","city_kana":"ミナトク","town":"東新橋東京汐留ビルディング","town_kana":"ヒガシシンバシトウキョウシオドメビルディング","prefecture_code":13},"7311":{"zip_code":"1057311","prefecture":"東京都","prefecture_kana":"トウキョウト","city":"港区","city_kana":"ミナトク","town":"東新橋東京汐留ビルディング","town_kana":"ヒガシシンバシトウキョウシオドメビルディング","prefecture_code":13},"7312":{"zip_code":"1057312","prefecture":"東京都","prefecture_kana":"トウキョウト","city":"港区","city_kana":"ミナトク","town":"東新橋東京汐留ビルディング","town_kana":"ヒガシシンバシトウキョウシオドメビルディング","prefecture_code":13},"7313":{"zip_code":"1057313","prefecture":"東京都","prefecture_kana":"トウキョウト","city":"港区","city_kana":"ミナトク","town":"東新橋東京汐留ビルディング","town_kana":"ヒガシシンバシトウキョウシオドメビルディング","prefecture_code":13},"7314":{"zip_code":"1057314","prefecture":"東京都","prefecture_kana":"トウキョウト","city":"港区","city_kana":"ミナトク","town":"東新橋東京汐留ビルディング","town_kana":"ヒガシシンバシトウキョウシオドメビルディング","prefecture_code":13},"7315":{"zip_code":"1057315","prefecture":"東京都","prefecture_kana":"トウキョウト","city":"港区","city_kana":"ミナトク","town":"東新橋東京汐留ビルディング","town_kana":"ヒガシシンバシトウキョウシオドメビルディング","prefecture_code":13},"7316":{"zip_code":"1057316","prefecture":"東京都","prefecture_kana":"トウキョウト","city":"港区","city_kana":"ミナトク","town":"東新橋東京汐留ビルディング","town_kana":"ヒガシシンバシトウキョウシオドメビルディング","prefecture_code":13},"7317":{"zip_code":"1057317","prefecture":"東京都","prefecture_kana":"トウキョウト","city":"港区","city_kana":"ミナトク","town":"東新橋東京汐留ビルディング","town_kana":"ヒガシシンバシトウキョウシオドメビルディング","prefecture_code":13},"7318":{"zip_code":"1057318","prefecture":"東京都","prefecture_kana":"トウキョウト","city":"港区","city_kana":"ミナトク","town":"東新橋東京汐留ビルディング","town_kana":"ヒガシシンバシトウキョウシオドメビルディング","prefecture_code":13},"7319":{"zip_code":"1057319","prefecture":"東京都","prefecture_kana":"トウキョウト","city":"港区","city_kana":"ミナトク","town":"東新橋東京汐留ビルディング","town_kana":"ヒガシシンバシトウキョウシオドメビルディング","prefecture_code":13},"7320":{"zip_code":"1057320","prefecture":"東京都","prefecture_kana":"トウキョウト","city":"港区","city_kana":"ミナトク","town":"東新橋東京汐留ビルディング","town_kana":"ヒガシシンバシトウキョウシオドメビルディング","prefecture_code":13},"7321":{"zip_code":"1057321","prefecture":"東京都","prefecture_kana":"トウキョウト","city":"港区","city_kana":"ミナトク","town":"東新橋東京汐留ビルディング","town_kana":"ヒガシシンバシトウキョウシオドメビルディング","prefecture_code":13},"7322":{"zip_code":"1057322","prefecture":"東京都","prefecture_kana":"トウキョウト","city":"港区","city_kana":"ミナトク","town":"東新橋東京汐留ビルディング","town_kana":"ヒガシシンバシトウキョウシオドメビルディング","prefecture_code":13},"7323":{"zip_code":"1057323","prefecture":"東京都","prefecture_kana":"トウキョウト","city":"港区","city_kana":"ミナトク","town":"東新橋東京汐留ビルディング","town_kana":"ヒガシシンバシトウキョウシオドメビルディング","prefecture_code":13},"7324":{"zip_code":"1057324","prefecture":"東京都","prefecture_kana":"トウキョウト","city":"港区","city_kana":"ミナトク","town":"東新橋東京汐留ビルディング","town_kana":"ヒガシシンバシトウキョウシオドメビルディング","prefecture_code":13},"7325":{"zip_code":"1057325","prefecture":"東京都","prefecture_kana":"トウキョウト","city":"港区","city_kana":"ミナトク","town":"東新橋東京汐留ビルディング","town_kana":"ヒガシシンバシトウキョウシオドメビルディング","prefecture_code":13},"7326":{"zip_code":"1057326","prefecture":"東京都","prefecture_kana":"トウキョウト","city":"港区","city_kana":"ミナトク","town":"東新橋東京汐留ビルディング","town_kana":"ヒガシシンバシトウキョウシオドメビルディング","prefecture_code":13},"7327":{"zip_code":"1057327","prefecture":"東京都","prefecture_kana":"トウキョウト","city":"港区","city_kana":"ミナトク","town":"東新橋東京汐留ビルディング","town_kana":"ヒガシシンバシトウキョウシオドメビルディング","prefecture_code":13},"7328":{"zip_code":"1057328","prefecture":"東京都","prefecture_kana":"トウキョウト","city":"港区","city_kana":"ミナトク","town":"東新橋東京汐留ビルディング","town_kana":"ヒガシシンバシトウキョウシオドメビルディング","prefecture_code":13},"7329":{"zip_code":"1057329","prefecture":"東京都","prefecture_kana":"トウキョウト","city":"港区","city_kana":"ミナトク","town":"東新橋東京汐留ビルディング","town_kana":"ヒガシシンバシトウキョウシオドメビルディング","prefecture_code":13},"7330":{"zip_code":"1057330","prefecture":"東京都","prefecture_kana":"トウキョウト","city":"港区","city_kana":"ミナトク","town":"東新橋東京汐留ビルディング","town_kana":"ヒガシシンバシトウキョウシオドメビルディング","prefecture_code":13},"7331":{"zip_code":"1057331","prefecture":"東京都","prefecture_kana":"トウキョウト","city":"港区","city_kana":"ミナトク","town":"東新橋東京汐留ビルディング","town_kana":"ヒガシシンバシトウキョウシオドメビルディング","prefecture_code":13},"7332":{"zip_code":"1057332","prefecture":"東京都","prefecture_kana":"トウキョウト","city":"港区","city_kana":"ミナトク","town":"東新橋東京汐留ビルディング","town_kana":"ヒガシシンバシトウキョウシオドメビルディング","prefecture_code":13},"7333":{"zip_code":"1057333","prefecture":"東京都","prefecture_kana":"トウキョウト","city":"港区","city_kana":"ミナトク","town":"東新橋東京汐留ビルディング","town_kana":"ヒガシシンバシトウキョウシオドメビルディング","prefecture_code":13},"7334":{"zip_code":"1057334","prefecture":"東京都","prefecture_kana":"トウキョウト","city":"港区","city_kana":"ミナトク","town":"東新橋東京汐留ビルディング","town_kana":"ヒガシシンバシトウキョウシオドメビルディング","prefecture_code":13},"7335":{"zip_code":"1057335","prefecture":"東京都","prefecture_kana":"トウキョウト","city":"港区","city_kana":"ミナトク","town":"東新橋東京汐留ビルディング","town_kana":"ヒガシシンバシトウキョウシオドメビルディング","prefecture_code":13},"7336":{"zip_code":"1057336","prefecture":"東京都","prefecture_kana":"トウキョウト","city":"港区","city_kana":"ミナトク","town":"東新橋東京汐留ビルディング","town_kana":"ヒガシシンバシトウキョウシオドメビルディング","prefecture_code":13},"7337":{"zip_code":"1057337","prefecture":"東京都","prefecture_kana":"トウキョウト","city":"港区","city_kana":"ミナトク","town":"東新橋東京汐留ビルディング","town_kana":"ヒガシシンバシトウキョウシオドメビルディング","prefecture_code":13},"7490":{"zip_code":"1057490","prefecture":"東京都","prefecture_kana":"トウキョウト","city":"港区","city_kana":"ミナトク","town":"東新橋日本テレビタワー","town_kana":"ヒガシシンバシニホンテレビタワー","prefecture_code":13},"7401":{"zip_code":"1057401","prefecture":"東京都","prefecture_kana":"トウキョウト","city":"港区","city_kana":"ミナトク","town":"東新橋日本テレビタワー","town_kana":"ヒガシシンバシニホンテレビタワー","prefecture_code":13},"7402":{"zip_code":"1057402","prefecture":"東京都","prefecture_kana":"トウキョウト","city":"港区","city_kana":"ミナトク","town":"東新橋日本テレビタワー","town_kana":"ヒガシシンバシニホンテレビタワー","prefecture_code":13},"7403":{"zip_code":"1057403","prefecture":"東京都","prefecture_kana":"トウキョウト","city":"港区","city_kana":"ミナトク","town":"東新橋日本テレビタワー","town_kana":"ヒガシシンバシニホンテレビタワー","prefecture_code":13},"7404":{"zip_code":"1057404","prefecture":"東京都","prefecture_kana":"トウキョウト","city":"港区","city_kana":"ミナトク","town":"東新橋日本テレビタワー","town_kana":"ヒガシシンバシニホンテレビタワー","prefecture_code":13},"7405":{"zip_code":"1057405","prefecture":"東京都","prefecture_kana":"トウキョウト","city":"港区","city_kana":"ミナトク","town":"東新橋日本テレビタワー","town_kana":"ヒガシシンバシニホンテレビタワー","prefecture_code":13},"7406":{"zip_code":"1057406","prefecture":"東京都","prefecture_kana":"トウキョウト","city":"港区","city_kana":"ミナトク","town":"東新橋日本テレビタワー","town_kana":"ヒガシシンバシニホンテレビタワー","prefecture_code":13},"7407":{"zip_code":"1057407","prefecture":"東京都","prefecture_kana":"トウキョウト","city":"港区","city_kana":"ミナトク","town":"東新橋日本テレビタワー","town_kana":"ヒガシシンバシニホンテレビタワー","prefecture_code":13},"7408":{"zip_code":"1057408","prefecture":"東京都","prefecture_kana":"トウキョウト","city":"港区","city_kana":"ミナトク","town":"東新橋日本テレビタワー","town_kana":"ヒガシシンバシニホンテレビタワー","prefecture_code":13},"7409":{"zip_code":"1057409","prefecture":"東京都","prefecture_kana":"トウキョウト","city":"港区","city_kana":"ミナトク","town":"東新橋日本テレビタワー","town_kana":"ヒガシシンバシニホンテレビタワー","prefecture_code":13},"7410":{"zip_code":"1057410","prefecture":"東京都","prefecture_kana":"トウキョウト","city":"港区","city_kana":"ミナトク","town":"東新橋日本テレビタワー","town_kana":"ヒガシシンバシニホンテレビタワー","prefecture_code":13},"7411":{"zip_code":"1057411","prefecture":"東京都","prefecture_kana":"トウキョウト","city":"港区","city_kana":"ミナトク","town":"東新橋日本テレビタワー","town_kana":"ヒガシシンバシニホンテレビタワー","prefecture_code":13},"7412":{"zip_code":"1057412","prefecture":"東京都","prefecture_kana":"トウキョウト","city":"港区","city_kana":"ミナトク","town":"東新橋日本テレビタワー","town_kana":"ヒガシシンバシニホンテレビタワー","prefecture_code":13},"7413":{"zip_code":"1057413","prefecture":"東京都","prefecture_kana":"トウキョウト","city":"港区","city_kana":"ミナトク","town":"東新橋日本テレビタワー","town_kana":"ヒガシシンバシニホンテレビタワー","prefecture_code":13},"7414":{"zip_code":"1057414","prefecture":"東京都","prefecture_kana":"トウキョウト","city":"港区","city_kana":"ミナトク","town":"東新橋日本テレビタワー","town_kana":"ヒガシシンバシニホンテレビタワー","prefecture_code":13},"7415":{"zip_code":"1057415","prefecture":"東京都","prefecture_kana":"トウキョウト","city":"港区","city_kana":"ミナトク","town":"東新橋日本テレビタワー","town_kana":"ヒガシシンバシニホンテレビタワー","prefecture_code":13},"7416":{"zip_code":"1057416","prefecture":"東京都","prefecture_kana":"トウキョウト","city":"港区","city_kana":"ミナトク","town":"東新橋日本テレビタワー","town_kana":"ヒガシシンバシニホンテレビタワー","prefecture_code":13},"7417":{"zip_code":"1057417","prefecture":"東京都","prefecture_kana":"トウキョウト","city":"港区","city_kana":"ミナトク","town":"東新橋日本テレビタワー","town_kana":"ヒガシシンバシニホンテレビタワー","prefecture_code":13},"7418":{"zip_code":"1057418","prefecture":"東京都","prefecture_kana":"トウキョウト","city":"港区","city_kana":"ミナトク","town":"東新橋日本テレビタワー","town_kana":"ヒガシシンバシニホンテレビタワー","prefecture_code":13},"7419":{"zip_code":"1057419","prefecture":"東京都","prefecture_kana":"トウキョウト","city":"港区","city_kana":"ミナトク","town":"東新橋日本テレビタワー","town_kana":"ヒガシシンバシニホンテレビタワー","prefecture_code":13},"7420":{"zip_code":"1057420","prefecture":"東京都","prefecture_kana":"トウキョウト","city":"港区","city_kana":"ミナトク","town":"東新橋日本テレビタワー","town_kana":"ヒガシシンバシニホンテレビタワー","prefecture_code":13},"7421":{"zip_code":"1057421","prefecture":"東京都","prefecture_kana":"トウキョウト","city":"港区","city_kana":"ミナトク","town":"東新橋日本テレビタワー","town_kana":"ヒガシシンバシニホンテレビタワー","prefecture_code":13},"7422":{"zip_code":"1057422","prefecture":"東京都","prefecture_kana":"トウキョウト","city":"港区","city_kana":"ミナトク","town":"東新橋日本テレビタワー","town_kana":"ヒガシシンバシニホンテレビタワー","prefecture_code":13},"7423":{"zip_code":"1057423","prefecture":"東京都","prefecture_kana":"トウキョウト","city":"港区","city_kana":"ミナトク","town":"東新橋日本テレビタワー","town_kana":"ヒガシシンバシニホンテレビタワー","prefecture_code":13},"7424":{"zip_code":"1057424","prefecture":"東京都","prefecture_kana":"トウキョウト","city":"港区","city_kana":"ミナトク","town":"東新橋日本テレビタワー","town_kana":"ヒガシシンバシニホンテレビタワー","prefecture_code":13},"7425":{"zip_code":"1057425","prefecture":"東京都","prefecture_kana":"トウキョウト","city":"港区","city_kana":"ミナトク","town":"東新橋日本テレビタワー","town_kana":"ヒガシシンバシニホンテレビタワー","prefecture_code":13},"7426":{"zip_code":"1057426","prefecture":"東京都","prefecture_kana":"トウキョウト","city":"港区","city_kana":"ミナトク","town":"東新橋日本テレビタワー","town_kana":"ヒガシシンバシニホンテレビタワー","prefecture_code":13},"7427":{"zip_code":"1057427","prefecture":"東京都","prefecture_kana":"トウキョウト","city":"港区","city_kana":"ミナトク","town":"東新橋日本テレビタワー","town_kana":"ヒガシシンバシニホンテレビタワー","prefecture_code":13},"7428":{"zip_code":"1057428","prefecture":"東京都","prefecture_kana":"トウキョウト","city":"港区","city_kana":"ミナトク","town":"東新橋日本テレビタワー","town_kana":"ヒガシシンバシニホンテレビタワー","prefecture_code":13},"7429":{"zip_code":"1057429","prefecture":"東京都","prefecture_kana":"トウキョウト","city":"港区","city_kana":"ミナトク","town":"東新橋日本テレビタワー","town_kana":"ヒガシシンバシニホンテレビタワー","prefecture_code":13},"7430":{"zip_code":"1057430","prefecture":"東京都","prefecture_kana":"トウキョウト","city":"港区","city_kana":"ミナトク","town":"東新橋日本テレビタワー","town_kana":"ヒガシシンバシニホンテレビタワー","prefecture_code":13},"7431":{"zip_code":"1057431","prefecture":"東京都","prefecture_kana":"トウキョウト","city":"港区","city_kana":"ミナトク","town":"東新橋日本テレビタワー","town_kana":"ヒガシシンバシニホンテレビタワー","prefecture_code":13},"7432":{"zip_code":"1057432","prefecture":"東京都","prefecture_kana":"トウキョウト","city":"港区","city_kana":"ミナトク","town":"東新橋日本テレビタワー","town_kana":"ヒガシシンバシニホンテレビタワー","prefecture_code":13}}