{"0052":{"zip_code":"1070052","prefecture":"東京都","prefecture_kana":"トウキョウト","city":"港区","city_kana":"ミナトク","town":"赤坂","town_kana":"アカサカ","prefecture_code":13},"6090":{"zip_code":"1076090","prefecture":"東京都","prefecture_kana":"トウキョウト","city":"港区","city_kana":"ミナトク","town":"赤坂赤坂アークヒルズ・アーク森ビル","town_kana":"アカサカアカサカアークヒルズ・アークモリビル","prefecture_code":13},"6001":{"zip_code":"1076001","prefecture":"東京都","prefecture_kana":"トウキョウト","city":"港区","city_kana":"ミナトク","town":"赤坂赤坂アークヒルズ・アーク森ビル","town_kana":"アカサカアカサカアークヒルズ・アークモリビル","prefecture_code":13},"6002":{"zip_code":"1076002","prefecture":"東京都","prefecture_kana":"トウキョウト","city":"港区","city_kana":"ミナトク","town":"赤坂赤坂アークヒルズ・アーク森ビル","town_kana":"アカサカアカサカアークヒルズ・アークモリビル","prefecture_code":13},"6003":{"zip_code":"1076003","prefecture":"東京都","prefecture_kana":"トウキョウト","city":"港区","city_kana":"ミナトク","town":"赤坂赤坂アークヒルズ・アーク森ビル","town_kana":"アカサカアカサカアークヒルズ・アークモリビル","prefecture_code":13},"6004":{"zip_code":"1076004","prefecture":"東京都","prefecture_kana":"トウキョウト","city":"港区","city_kana":"ミナトク","town":"赤坂赤坂アークヒルズ・アーク森ビル","town_kana":"アカサカアカサカアークヒルズ・アークモリビル","prefecture_code":13},"6005":{"zip_code":"1076005","prefecture":"東京都","prefecture_kana":"トウキョウト","city":"港区","city_kana":"ミナトク","town":"赤坂赤坂アークヒルズ・アーク森ビル","town_kana":"アカサカアカサカアークヒルズ・アークモリビル","prefecture_code":13},"6006":{"zip_code":"1076006","prefecture":"東京都","prefecture_kana":"トウキョウト","city":"港区","city_kana":"ミナトク","town":"赤坂赤坂アークヒルズ・アーク森ビル","town_kana":"アカサカアカサカアークヒルズ・アークモリビル","prefecture_code":13},"6007":{"zip_code":"1076007","prefecture":"東京都","prefecture_kana":"トウキョウト","city":"港区","city_kana":"ミナトク","town":"赤坂赤坂アークヒルズ・アーク森ビル","town_kana":"アカサカアカサカアークヒルズ・アークモリビル","prefecture_code":13},"6008":{"zip_code":"1076008","prefecture":"東京都","prefecture_kana":"トウキョウト","city":"港区","city_kana":"ミナトク","town":"赤坂赤坂アークヒルズ・アーク森ビル","town_kana":"アカサカアカサカアークヒルズ・アークモリビル","prefecture_code":13},"6009":{"zip_code":"1076009","prefecture":"東京都","prefecture_kana":"トウキョウト","city":"港区","city_kana":"ミナトク","town":"赤坂赤坂アークヒルズ・アーク森ビル","town_kana":"アカサカアカサカアークヒルズ・アークモリビル","prefecture_code":13},"6010":{"zip_code":"1076010","prefecture":"東京都","prefecture_kana":"トウキョウト","city":"港区","city_kana":"ミナトク","town":"赤坂赤坂アークヒルズ・アーク森ビル","town_kana":"アカサカアカサカアークヒルズ・アークモリビル","prefecture_code":13},"6011":{"zip_code":"1076011","prefecture":"東京都","prefecture_kana":"トウキョウト","city":"港区","city_kana":"ミナトク","town":"赤坂赤坂アークヒルズ・アーク森ビル","town_kana":"アカサカアカサカアークヒルズ・アークモリビル","prefecture_code":13},"6012":{"zip_code":"1076012","prefecture":"東京都","prefecture_kana":"トウキョウト","city":"港区","city_kana":"ミナトク","town":"赤坂赤坂アークヒルズ・アーク森ビル","town_kana":"アカサカアカサカアークヒルズ・アークモリビル","prefecture_code":13},"6013":{"zip_code":"1076013","prefecture":"東京都","prefecture_kana":"トウキョウト","city":"港区","city_kana":"ミナトク","town":"赤坂赤坂アークヒルズ・アーク森ビル","town_kana":"アカサカアカサカアークヒルズ・アークモリビル","prefecture_code":13},"6014":{"zip_code":"1076014","prefecture":"東京都","prefecture_kana":"トウキョウト","city":"港区","city_kana":"ミナトク","town":"赤坂赤坂アークヒルズ・アーク森ビル","town_kana":"アカサカアカサカアークヒルズ・アークモリビル","prefecture_code":13},"6015":{"zip_code":"1076015","prefecture":"東京都","prefecture_kana":"トウキョウト","city":"港区","city_kana":"ミナトク","town":"赤坂赤坂アークヒルズ・アーク森ビル","town_kana":"アカサカアカサカアークヒルズ・アークモリビル","prefecture_code":13},"6016":{"zip_code":"1076016","prefecture":"東京都","prefecture_kana":"トウキョウト","city":"港区","city_kana":"ミナトク","town":"赤坂赤坂アークヒルズ・アーク森ビル","town_kana":"アカサカアカサカアークヒルズ・アークモリビル","prefecture_code":13},"6017":{"zip_code":"1076017","prefecture":"東京都","prefecture_kana":"トウキョウト","city":"港区","city_kana":"ミナトク","town":"赤坂赤坂アークヒルズ・アーク森ビル","town_kana":"アカサカアカサカアークヒルズ・アークモリビル","prefecture_code":13},"6018":{"zip_code":"1076018","prefecture":"東京都","prefecture_kana":"トウキョウト","city":"港区","city_kana":"ミナトク","town":"赤坂赤坂アークヒルズ・アーク森ビル","town_kana":"アカサカアカサカアークヒルズ・アークモリビル","prefecture_code":13},"6019":{"zip_code":"1076019","prefecture":"東京都","prefecture_kana":"トウキョウト","city":"港区","city_kana":"ミナトク","town":"赤坂赤坂アークヒルズ・アーク森ビル","town_kana":"アカサカアカサカアークヒルズ・アークモリビル","prefecture_code":13},"6020":{"zip_code":"1076020","prefecture":"東京都","prefecture_kana":"トウキョウト","city":"港区","city_kana":"ミナトク","town":"赤坂赤坂アークヒルズ・アーク森ビル","town_kana":"アカサカアカサカアークヒルズ・アークモリビル","prefecture_code":13},"6021":{"zip_code":"1076021","prefecture":"東京都","prefecture_kana":"トウキョウト","city":"港区","city_kana":"ミナトク","town":"赤坂赤坂アークヒルズ・アーク森ビル","town_kana":"アカサカアカサカアークヒルズ・アークモリビル","prefecture_code":13},"6022":{"zip_code":"1076022","prefecture":"東京都","prefecture_kana":"トウキョウト","city":"港区","city_kana":"ミナトク","town":"赤坂赤坂アークヒルズ・アーク森ビル","town_kana":"アカサカアカサカアークヒルズ・アークモリビル","prefecture_code":13},"6023":{"zip_code":"1076023","prefecture":"東京都","prefecture_kana":"トウキョウト","city":"港区","city_kana":"ミナトク","town":"赤坂赤坂アークヒルズ・アーク森ビル","town_kana":"アカサカアカサカアークヒルズ・アークモリビル","prefecture_code":13},"6024":{"zip_code":"1076024","prefecture":"東京都","prefecture_kana":"トウキョウト","city":"港区","city_kana":"ミナトク","town":"赤坂赤坂アークヒルズ・アーク森ビル","town_kana":"アカサカアカサカアークヒルズ・アークモリビル","prefecture_code":13},"6025":{"zip_code":"1076025","prefecture":"東京都","prefecture_kana":"トウキョウト","city":"港区","city_kana":"ミナトク","town":"赤坂赤坂アークヒルズ・アーク森ビル","town_kana":"アカサカアカサカアークヒルズ・アークモリビル","prefecture_code":13},"6026":{"zip_code":"1076026","prefecture":"東京都","prefecture_kana":"トウキョウト","city":"港区","city_kana":"ミナトク","town":"赤坂赤坂アークヒルズ・アーク森ビル","town_kana":"アカサカアカサカアークヒルズ・アークモリビル","prefecture_code":13},"6027":{"zip_code":"1076027","prefecture":"東京都","prefecture_kana":"トウキョウト","city":"港区","city_kana":"ミナトク","town":"赤坂赤坂アークヒルズ・アーク森ビル","town_kana":"アカサカアカサカアークヒルズ・アークモリビル","prefecture_code":13},"6028":{"zip_code":"1076028","prefecture":"東京都","prefecture_kana":"トウキョウト","city":"港区","city_kana":"ミナトク","town":"赤坂赤坂アークヒルズ・アーク森ビル","town_kana":"アカサカアカサカアークヒルズ・アークモリビル","prefecture_code":13},"6029":{"zip_code":"1076029","prefecture":"東京都","prefecture_kana":"トウキョウト","city":"港区","city_kana":"ミナトク","town":"赤坂赤坂アークヒルズ・アーク森ビル","town_kana":"アカサカアカサカアークヒルズ・アークモリビル","prefecture_code":13},"6030":{"zip_code":"1076030","prefecture":"東京都","prefecture_kana":"トウキョウト","city":"港区","city_kana":"ミナトク","town":"赤坂赤坂アークヒルズ・アーク森ビル","town_kana":"アカサカアカサカアークヒルズ・アークモリビル","prefecture_code":13},"6031":{"zip_code":"1076031","prefecture":"東京都","prefecture_kana":"トウキョウト","city":"港区","city_kana":"ミナトク","town":"赤坂赤坂アークヒルズ・アーク森ビル","town_kana":"アカサカアカサカアークヒルズ・アークモリビル","prefecture_code":13},"6032":{"zip_code":"1076032","prefecture":"東京都","prefecture_kana":"トウキョウト","city":"港区","city_kana":"ミナトク","town":"赤坂赤坂アークヒルズ・アーク森ビル","town_kana":"アカサカアカサカアークヒルズ・アークモリビル","prefecture_code":13},"6033":{"zip_code":"1076033","prefecture":"東京都","prefecture_kana":"トウキョウト","city":"港区","city_kana":"ミナトク","town":"赤坂赤坂アークヒルズ・アーク森ビル","town_kana":"アカサカアカサカアークヒルズ・アークモリビル","prefecture_code":13},"6034":{"zip_code":"1076034","prefecture":"東京都","prefecture_kana":"トウキョウト","city":"港区","city_kana":"ミナトク","town":"赤坂赤坂アークヒルズ・アーク森ビル","town_kana":"アカサカアカサカアークヒルズ・アークモリビル","prefecture_code":13},"6035":{"zip_code":"1076035","prefecture":"東京都","prefecture_kana":"トウキョウト","city":"港区","city_kana":"ミナトク","town":"赤坂赤坂アークヒルズ・アーク森ビル","town_kana":"アカサカアカサカアークヒルズ・アークモリビル","prefecture_code":13},"6036":{"zip_code":"1076036","prefecture":"東京都","prefecture_kana":"トウキョウト","city":"港区","city_kana":"ミナトク","town":"赤坂赤坂アークヒルズ・アーク森ビル","town_kana":"アカサカアカサカアークヒルズ・アークモリビル","prefecture_code":13},"6037":{"zip_code":"1076037","prefecture":"東京都","prefecture_kana":"トウキョウト","city":"港区","city_kana":"ミナトク","town":"赤坂赤坂アークヒルズ・アーク森ビル","town_kana":"アカサカアカサカアークヒルズ・アークモリビル","prefecture_code":13},"6190":{"zip_code":"1076190","prefecture":"東京都","prefecture_kana":"トウキョウト","city":"港区","city_kana":"ミナトク","town":"赤坂赤坂パークビル","town_kana":"アカサカアカサカパークビル","prefecture_code":13},"6101":{"zip_code":"1076101","prefecture":"東京都","prefecture_kana":"トウキョウト","city":"港区","city_kana":"ミナトク","town":"赤坂赤坂パークビル","town_kana":"アカサカアカサカパークビル","prefecture_code":13},"6102":{"zip_code":"1076102","prefecture":"東京都","prefecture_kana":"トウキョウト","city":"港区","city_kana":"ミナトク","town":"赤坂赤坂パークビル","town_kana":"アカサカアカサカパークビル","prefecture_code":13},"6103":{"zip_code":"1076103","prefecture":"東京都","prefecture_kana":"トウキョウト","city":"港区","city_kana":"ミナトク","town":"赤坂赤坂パークビル","town_kana":"アカサカアカサカパークビル","prefecture_code":13},"6104":{"zip_code":"1076104","prefecture":"東京都","prefecture_kana":"トウキョウト","city":"港区","city_kana":"ミナトク","town":"赤坂赤坂パークビル","town_kana":"アカサカアカサカパークビル","prefecture_code":13},"6105":{"zip_code":"1076105","prefecture":"東京都","prefecture_kana":"トウキョウト","city":"港区","city_kana":"ミナトク","town":"赤坂赤坂パークビル","town_kana":"アカサカアカサカパークビル","prefecture_code":13},"6106":{"zip_code":"1076106","prefecture":"東京都","prefecture_kana":"トウキョウト","city":"港区","city_kana":"ミナトク","town":"赤坂赤坂パークビル","town_kana":"アカサカアカサカパークビル","prefecture_code":13},"6107":{"zip_code":"1076107","prefecture":"東京都","prefecture_kana":"トウキョウト","city":"港区","city_kana":"ミナトク","town":"赤坂赤坂パークビル","town_kana":"アカサカアカサカパークビル","prefecture_code":13},"6108":{"zip_code":"1076108","prefecture":"東京都","prefecture_kana":"トウキョウト","city":"港区","city_kana":"ミナトク","town":"赤坂赤坂パークビル","town_kana":"アカサカアカサカパークビル","prefecture_code":13},"6109":{"zip_code":"1076109","prefecture":"東京都","prefecture_kana":"トウキョウト","city":"港区","city_kana":"ミナトク","town":"赤坂赤坂パークビル","town_kana":"アカサカアカサカパークビル","prefecture_code":13},"6110":{"zip_code":"1076110","prefecture":"東京都","prefecture_kana":"トウキョウト","city":"港区","city_kana":"ミナトク","town":"赤坂赤坂パークビル","town_kana":"アカサカアカサカパークビル","prefecture_code":13},"6111":{"zip_code":"1076111","prefecture":"東京都","prefecture_kana":"トウキョウト","city":"港区","city_kana":"ミナトク","town":"赤坂赤坂パークビル","town_kana":"アカサカアカサカパークビル","prefecture_code":13},"6112":{"zip_code":"1076112","prefecture":"東京都","prefecture_kana":"トウキョウト","city":"港区","city_kana":"ミナトク","town":"赤坂赤坂パークビル","town_kana":"アカサカアカサカパークビル","prefecture_code":13},"6113":{"zip_code":"1076113","prefecture":"東京都","prefecture_kana":"トウキョウト","city":"港区","city_kana":"ミナトク","town":"赤坂赤坂パークビル","town_kana":"アカサカアカサカパークビル","prefecture_code":13},"6114":{"zip_code":"1076114","prefecture":"東京都","prefecture_kana":"トウキョウト","city":"港区","city_kana":"ミナトク","town":"赤坂赤坂パークビル","town_kana":"アカサカアカサカパークビル","prefecture_code":13},"6115":{"zip_code":"1076115","prefecture":"東京都","prefecture_kana":"トウキョウト","city":"港区","city_kana":"ミナトク","town":"赤坂赤坂パークビル","town_kana":"アカサカアカサカパークビル","prefecture_code":13},"6116":{"zip_code":"1076116","prefecture":"東京都","prefecture_kana":"トウキョウト","city":"港区","city_kana":"ミナトク","town":"赤坂赤坂パークビル","town_kana":"アカサカアカサカパークビル","prefecture_code":13},"6117":{"zip_code":"1076117","prefecture":"東京都","prefecture_kana":"トウキョウト","city":"港区","city_kana":"ミナトク","town":"赤坂赤坂パークビル","town_kana":"アカサカアカサカパークビル","prefecture_code":13},"6118":{"zip_code":"1076118","prefecture":"東京都","prefecture_kana":"トウキョウト","city":"港区","city_kana":"ミナトク","town":"赤坂赤坂パークビル","town_kana":"アカサカアカサカパークビル","prefecture_code":13},"6119":{"zip_code":"1076119","prefecture":"東京都","prefecture_kana":"トウキョウト","city":"港区","city_kana":"ミナトク","town":"赤坂赤坂パークビル","town_kana":"アカサカアカサカパークビル","prefecture_code":13},"6120":{"zip_code":"1076120","prefecture":"東京都","prefecture_kana":"トウキョウト","city":"港区","city_kana":"ミナトク","town":"赤坂赤坂パークビル","town_kana":"アカサカアカサカパークビル","prefecture_code":13},"6121":{"zip_code":"1076121","prefecture":"東京都","prefecture_kana":"トウキョウト","city":"港区","city_kana":"ミナトク","town":"赤坂赤坂パークビル","town_kana":"アカサカアカサカパークビル","prefecture_code":13},"6122":{"zip_code":"1076122","prefecture":"東京都","prefecture_kana":"トウキョウト","city":"港区","city_kana":"ミナトク","town":"赤坂赤坂パークビル","town_kana":"アカサカアカサカパークビル","prefecture_code":13},"6123":{"zip_code":"1076123","prefecture":"東京都","prefecture_kana":"トウキョウト","city":"港区","city_kana":"ミナトク","town":"赤坂赤坂パークビル","town_kana":"アカサカアカサカパークビル","prefecture_code":13},"6124":{"zip_code":"1076124","prefecture":"東京都","prefecture_kana":"トウキョウト","city":"港区","city_kana":"ミナトク","town":"赤坂赤坂パークビル","town_kana":"アカサカアカサカパークビル","prefecture_code":13},"6125":{"zip_code":"1076125","prefecture":"東京都","prefecture_kana":"トウキョウト","city":"港区","city_kana":"ミナトク","town":"赤坂赤坂パークビル","town_kana":"アカサカアカサカパークビル","prefecture_code":13},"6126":{"zip_code":"1076126","prefecture":"東京都","prefecture_kana":"トウキョウト","city":"港区","city_kana":"ミナトク","town":"赤坂赤坂パークビル","town_kana":"アカサカアカサカパークビル","prefecture_code":13},"6127":{"zip_code":"1076127","prefecture":"東京都","prefecture_kana":"トウキョウト","city":"港区","city_kana":"ミナトク","town":"赤坂赤坂パークビル","town_kana":"アカサカアカサカパークビル","prefecture_code":13},"6128":{"zip_code":"1076128","prefecture":"東京都","prefecture_kana":"トウキョウト","city":"港区","city_kana":"ミナトク","town":"赤坂赤坂パークビル","town_kana":"アカサカアカサカパークビル","prefecture_code":13},"6129":{"zip_code":"1076129","prefecture":"東京都","prefecture_kana":"トウキョウト","city":"港区","city_kana":"ミナトク","town":"赤坂赤坂パークビル","town_kana":"アカサカアカサカパークビル","prefecture_code":13},"6130":{"zip_code":"1076130","prefecture":"東京都","prefecture_kana":"トウキョウト","city":"港区","city_kana":"ミナトク","town":"赤坂赤坂パークビル","town_kana":"アカサカアカサカパークビル","prefecture_code":13},"6390":{"zip_code":"1076390","prefecture":"東京都","prefecture_kana":"トウキョウト","city":"港区","city_kana":"ミナトク","town":"赤坂赤坂Ｂｉｚタワー","town_kana":"アカサカアカサカビズタワー","prefecture_code":13},"6301":{"zip_code":"1076301","prefecture":"東京都","prefecture_kana":"トウキョウト","city":"港区","city_kana":"ミナトク","town":"赤坂赤坂Ｂｉｚタワー","town_kana":"アカサカアカサカビズタワー","prefecture_code":13},"6302":{"zip_code":"1076302","prefecture":"東京都","prefecture_kana":"トウキョウト","city":"港区","city_kana":"ミナトク","town":"赤坂赤坂Ｂｉｚタワー","town_kana":"アカサカアカサカビズタワー","prefecture_code":13},"6303":{"zip_code":"1076303","prefecture":"東京都","prefecture_kana":"トウキョウト","city":"港区","city_kana":"ミナトク","town":"赤坂赤坂Ｂｉｚタワー","town_kana":"アカサカアカサカビズタワー","prefecture_code":13},"6304":{"zip_code":"1076304","prefecture":"東京都","prefecture_kana":"トウキョウト","city":"港区","city_kana":"ミナトク","town":"赤坂赤坂Ｂｉｚタワー","town_kana":"アカサカアカサカビズタワー","prefecture_code":13},"6305":{"zip_code":"1076305","prefecture":"東京都","prefecture_kana":"トウキョウト","city":"港区","city_kana":"ミナトク","town":"赤坂赤坂Ｂｉｚタワー","town_kana":"アカサカアカサカビズタワー","prefecture_code":13},"6306":{"zip_code":"1076306","prefecture":"東京都","prefecture_kana":"トウキョウト","city":"港区","city_kana":"ミナトク","town":"赤坂赤坂Ｂｉｚタワー","town_kana":"アカサカアカサカビズタワー","prefecture_code":13},"6307":{"zip_code":"1076307","prefecture":"東京都","prefecture_kana":"トウキョウト","city":"港区","city_kana":"ミナトク","town":"赤坂赤坂Ｂｉｚタワー","town_kana":"アカサカアカサカビズタワー","prefecture_code":13},"6308":{"zip_code":"1076308","prefecture":"東京都","prefecture_kana":"トウキョウト","city":"港区","city_kana":"ミナトク","town":"赤坂赤坂Ｂｉｚタワー","town_kana":"アカサカアカサカビズタワー","prefecture_code":13},"6309":{"zip_code":"1076309","prefecture":"東京都","prefecture_kana":"トウキョウト","city":"港区","city_kana":"ミナトク","town":"赤坂赤坂Ｂｉｚタワー","town_kana":"アカサカアカサカビズタワー","prefecture_code":13},"6310":{"zip_code":"1076310","prefecture":"東京都","prefecture_kana":"トウキョウト","city":"港区","city_kana":"ミナトク","town":"赤坂赤坂Ｂｉｚタワー","town_kana":"アカサカアカサカビズタワー","prefecture_code":13},"6311":{"zip_code":"1076311","prefecture":"東京都","prefecture_kana":"トウキョウト","city":"港区","city_kana":"ミナトク","town":"赤坂赤坂Ｂｉｚタワー","town_kana":"アカサカアカサカビズタワー","prefecture_code":13},"6312":{"zip_code":"1076312","prefecture":"東京都","prefecture_kana":"トウキョウト","city":"港区","city_kana":"ミナトク","town":"赤坂赤坂Ｂｉｚタワー","town_kana":"アカサカアカサカビズタワー","prefecture_code":13},"6313":{"zip_code":"1076313","prefecture":"東京都","prefecture_kana":"トウキョウト","city":"港区","city_kana":"ミナトク","town":"赤坂赤坂Ｂｉｚタワー","town_kana":"アカサカアカサカビズタワー","prefecture_code":13},"6314":{"zip_code":"1076314","prefecture":"東京都","prefecture_kana":"トウキョウト","city":"港区","city_kana":"ミナトク","town":"赤坂赤坂Ｂｉｚタワー","town_kana":"アカサカアカサカビズタワー","prefecture_code":13},"6315":{"zip_code":"1076315","prefecture":"東京都","prefecture_kana":"トウキョウト","city":"港区","city_kana":"ミナトク","town":"赤坂赤坂Ｂｉｚタワー","town_kana":"アカサカアカサカビズタワー","prefecture_code":13},"6316":{"zip_code":"1076316","prefecture":"東京都","prefecture_kana":"トウキョウト","city":"港区","city_kana":"ミナトク","town":"赤坂赤坂Ｂｉｚタワー","town_kana":"アカサカアカサカビズタワー","prefecture_code":13},"6317":{"zip_code":"1076317","prefecture":"東京都","prefecture_kana":"トウキョウト","city":"港区","city_kana":"ミナトク","town":"赤坂赤坂Ｂｉｚタワー","town_kana":"アカサカアカサカビズタワー","prefecture_code":13},"6318":{"zip_code":"1076318","prefecture":"東京都","prefecture_kana":"トウキョウト","city":"港区","city_kana":"ミナトク","town":"赤坂赤坂Ｂｉｚタワー","town_kana":"アカサカアカサカビズタワー","prefecture_code":13},"6319":{"zip_code":"1076319","prefecture":"東京都","prefecture_kana":"トウキョウト","city":"港区","city_kana":"ミナトク","town":"赤坂赤坂Ｂｉｚタワー","town_kana":"アカサカアカサカビズタワー","prefecture_code":13},"6320":{"zip_code":"1076320","prefecture":"東京都","prefecture_kana":"トウキョウト","city":"港区","city_kana":"ミナトク","town":"赤坂赤坂Ｂｉｚタワー","town_kana":"アカサカアカサカビズタワー","prefecture_code":13},"6321":{"zip_code":"1076321","prefecture":"東京都","prefecture_kana":"トウキョウト","city":"港区","city_kana":"ミナトク","town":"赤坂赤坂Ｂｉｚタワー","town_kana":"アカサカアカサカビズタワー","prefecture_code":13},"6322":{"zip_code":"1076322","prefecture":"東京都","prefecture_kana":"トウキョウト","city":"港区","city_kana":"ミナトク","town":"赤坂赤坂Ｂｉｚタワー","town_kana":"アカサカアカサカビズタワー","prefecture_code":13},"6323":{"zip_code":"1076323","prefecture":"東京都","prefecture_kana":"トウキョウト","city":"港区","city_kana":"ミナトク","town":"赤坂赤坂Ｂｉｚタワー","town_kana":"アカサカアカサカビズタワー","prefecture_code":13},"6324":{"zip_code":"1076324","prefecture":"東京都","prefecture_kana":"トウキョウト","city":"港区","city_kana":"ミナトク","town":"赤坂赤坂Ｂｉｚタワー","town_kana":"アカサカアカサカビズタワー","prefecture_code":13},"6325":{"zip_code":"1076325","prefecture":"東京都","prefecture_kana":"トウキョウト","city":"港区","city_kana":"ミナトク","town":"赤坂赤坂Ｂｉｚタワー","town_kana":"アカサカアカサカビズタワー","prefecture_code":13},"6326":{"zip_code":"1076326","prefecture":"東京都","prefecture_kana":"トウキョウト","city":"港区","city_kana":"ミナトク","town":"赤坂赤坂Ｂｉｚタワー","town_kana":"アカサカアカサカビズタワー","prefecture_code":13},"6327":{"zip_code":"1076327","prefecture":"東京都","prefecture_kana":"トウキョウト","city":"港区","city_kana":"ミナトク","town":"赤坂赤坂Ｂｉｚタワー","town_kana":"アカサカアカサカビズタワー","prefecture_code":13},"6328":{"zip_code":"1076328","prefecture":"東京都","prefecture_kana":"トウキョウト","city":"港区","city_kana":"ミナトク","town":"赤坂赤坂Ｂｉｚタワー","town_kana":"アカサカアカサカビズタワー","prefecture_code":13},"6329":{"zip_code":"1076329","prefecture":"東京都","prefecture_kana":"トウキョウト","city":"港区","city_kana":"ミナトク","town":"赤坂赤坂Ｂｉｚタワー","town_kana":"アカサカアカサカビズタワー","prefecture_code":13},"6330":{"zip_code":"1076330","prefecture":"東京都","prefecture_kana":"トウキョウト","city":"港区","city_kana":"ミナトク","town":"赤坂赤坂Ｂｉｚタワー","town_kana":"アカサカアカサカビズタワー","prefecture_code":13},"6331":{"zip_code":"1076331","prefecture":"東京都","prefecture_kana":"トウキョウト","city":"港区","city_kana":"ミナトク","town":"赤坂赤坂Ｂｉｚタワー","town_kana":"アカサカアカサカビズタワー","prefecture_code":13},"6332":{"zip_code":"1076332","prefecture":"東京都","prefecture_kana":"トウキョウト","city":"港区","city_kana":"ミナトク","town":"赤坂赤坂Ｂｉｚタワー","town_kana":"アカサカアカサカビズタワー","prefecture_code":13},"6333":{"zip_code":"1076333","prefecture":"東京都","prefecture_kana":"トウキョウト","city":"港区","city_kana":"ミナトク","town":"赤坂赤坂Ｂｉｚタワー","town_kana":"アカサカアカサカビズタワー","prefecture_code":13},"6334":{"zip_code":"1076334","prefecture":"東京都","prefecture_kana":"トウキョウト","city":"港区","city_kana":"ミナトク","town":"赤坂赤坂Ｂｉｚタワー","town_kana":"アカサカアカサカビズタワー","prefecture_code":13},"6335":{"zip_code":"1076335","prefecture":"東京都","prefecture_kana":"トウキョウト","city":"港区","city_kana":"ミナトク","town":"赤坂赤坂Ｂｉｚタワー","town_kana":"アカサカアカサカビズタワー","prefecture_code":13},"6336":{"zip_code":"1076336","prefecture":"東京都","prefecture_kana":"トウキョウト","city":"港区","city_kana":"ミナトク","town":"赤坂赤坂Ｂｉｚタワー","town_kana":"アカサカアカサカビズタワー","prefecture_code":13},"6337":{"zip_code":"1076337","prefecture":"東京都","prefecture_kana":"トウキョウト","city":"港区","city_kana":"ミナトク","town":"赤坂赤坂Ｂｉｚタワー","town_kana":"アカサカアカサカビズタワー","prefecture_code":13},"6338":{"zip_code":"1076338","prefecture":"東京都","prefecture_kana":"トウキョウト","city":"港区","city_kana":"ミナトク","town":"赤坂赤坂Ｂｉｚタワー","town_kana":"アカサカアカサカビズタワー","prefecture_code":13},"6339":{"zip_code":"1076339","prefecture":"東京都","prefecture_kana":"トウキョウト","city":"港区","city_kana":"ミナトク","town":"赤坂赤坂Ｂｉｚタワー","town_kana":"アカサカアカサカビズタワー","prefecture_code":13},"6290":{"zip_code":"1076290","prefecture":"東京都","prefecture_kana":"トウキョウト","city":"港区","city_kana":"ミナトク","town":"赤坂ミッドタウン・タワー","town_kana":"アカサカミッドタウン・タワー","prefecture_code":13},"6201":{"zip_code":"1076201","prefecture":"東京都","prefecture_kana":"トウキョウト","city":"港区","city_kana":"ミナトク","town":"赤坂ミッドタウン・タワー","town_kana":"アカサカミッドタウン・タワー","prefecture_code":13},"6202":{"zip_code":"1076202","prefecture":"東京都","prefecture_kana":"トウキョウト","city":"港区","city_kana":"ミナトク","town":"赤坂ミッドタウン・タワー","town_kana":"アカサカミッドタウン・タワー","prefecture_code":13},"6203":{"zip_code":"1076203","prefecture":"東京都","prefecture_kana":"トウキョウト","city":"港区","city_kana":"ミナトク","town":"赤坂ミッドタウン・タワー","town_kana":"アカサカミッドタウン・タワー","prefecture_code":13},"6204":{"zip_code":"1076204","prefecture":"東京都","prefecture_kana":"トウキョウト","city":"港区","city_kana":"ミナトク","town":"赤坂ミッドタウン・タワー","town_kana":"アカサカミッドタウン・タワー","prefecture_code":13},"6205":{"zip_code":"1076205","prefecture":"東京都","prefecture_kana":"トウキョウト","city":"港区","city_kana":"ミナトク","town":"赤坂ミッドタウン・タワー","town_kana":"アカサカミッドタウン・タワー","prefecture_code":13},"6206":{"zip_code":"1076206","prefecture":"東京都","prefecture_kana":"トウキョウト","city":"港区","city_kana":"ミナトク","town":"赤坂ミッドタウン・タワー","town_kana":"アカサカミッドタウン・タワー","prefecture_code":13},"6207":{"zip_code":"1076207","prefecture":"東京都","prefecture_kana":"トウキョウト","city":"港区","city_kana":"ミナトク","town":"赤坂ミッドタウン・タワー","town_kana":"アカサカミッドタウン・タワー","prefecture_code":13},"6208":{"zip_code":"1076208","prefecture":"東京都","prefecture_kana":"トウキョウト","city":"港区","city_kana":"ミナトク","town":"赤坂ミッドタウン・タワー","town_kana":"アカサカミッドタウン・タワー","prefecture_code":13},"6209":{"zip_code":"1076209","prefecture":"東京都","prefecture_kana":"トウキョウト","city":"港区","city_kana":"ミナトク","town":"赤坂ミッドタウン・タワー","town_kana":"アカサカミッドタウン・タワー","prefecture_code":13},"6210":{"zip_code":"1076210","prefecture":"東京都","prefecture_kana":"トウキョウト","city":"港区","city_kana":"ミナトク","town":"赤坂ミッドタウン・タワー","town_kana":"アカサカミッドタウン・タワー","prefecture_code":13},"6211":{"zip_code":"1076211","prefecture":"東京都","prefecture_kana":"トウキョウト","city":"港区","city_kana":"ミナトク","town":"赤坂ミッドタウン・タワー","town_kana":"アカサカミッドタウン・タワー","prefecture_code":13},"6212":{"zip_code":"1076212","prefecture":"東京都","prefecture_kana":"トウキョウト","city":"港区","city_kana":"ミナトク","town":"赤坂ミッドタウン・タワー","town_kana":"アカサカミッドタウン・タワー","prefecture_code":13},"6213":{"zip_code":"1076213","prefecture":"東京都","prefecture_kana":"トウキョウト","city":"港区","city_kana":"ミナトク","town":"赤坂ミッドタウン・タワー","town_kana":"アカサカミッドタウン・タワー","prefecture_code":13},"6214":{"zip_code":"1076214","prefecture":"東京都","prefecture_kana":"トウキョウト","city":"港区","city_kana":"ミナトク","town":"赤坂ミッドタウン・タワー","town_kana":"アカサカミッドタウン・タワー","prefecture_code":13},"6215":{"zip_code":"1076215","prefecture":"東京都","prefecture_kana":"トウキョウト","city":"港区","city_kana":"ミナトク","town":"赤坂ミッドタウン・タワー","town_kana":"アカサカミッドタウン・タワー","prefecture_code":13},"6216":{"zip_code":"1076216","prefecture":"東京都","prefecture_kana":"トウキョウト","city":"港区","city_kana":"ミナトク","town":"赤坂ミッドタウン・タワー","town_kana":"アカサカミッドタウン・タワー","prefecture_code":13},"6217":{"zip_code":"1076217","prefecture":"東京都","prefecture_kana":"トウキョウト","city":"港区","city_kana":"ミナトク","town":"赤坂ミッドタウン・タワー","town_kana":"アカサカミッドタウン・タワー","prefecture_code":13},"6218":{"zip_code":"1076218","prefecture":"東京都","prefecture_kana":"トウキョウト","city":"港区","city_kana":"ミナトク","town":"赤坂ミッドタウン・タワー","town_kana":"アカサカミッドタウン・タワー","prefecture_code":13},"6219":{"zip_code":"1076219","prefecture":"東京都","prefecture_kana":"トウキョウト","city":"港区","city_kana":"ミナトク","town":"赤坂ミッドタウン・タワー","town_kana":"アカサカミッドタウン・タワー","prefecture_code":13},"6220":{"zip_code":"1076220","prefecture":"東京都","prefecture_kana":"トウキョウト","city":"港区","city_kana":"ミナトク","town":"赤坂ミッドタウン・タワー","town_kana":"アカサカミッドタウン・タワー","prefecture_code":13},"6221":{"zip_code":"1076221","prefecture":"東京都","prefecture_kana":"トウキョウト","city":"港区","city_kana":"ミナトク","town":"赤坂ミッドタウン・タワー","town_kana":"アカサカミッドタウン・タワー","prefecture_code":13},"6222":{"zip_code":"1076222","prefecture":"東京都","prefecture_kana":"トウキョウト","city":"港区","city_kana":"ミナトク","town":"赤坂ミッドタウン・タワー","town_kana":"アカサカミッドタウン・タワー","prefecture_code":13},"6223":{"zip_code":"1076223","prefecture":"東京都","prefecture_kana":"トウキョウト","city":"港区","city_kana":"ミナトク","town":"赤坂ミッドタウン・タワー","town_kana":"アカサカミッドタウン・タワー","prefecture_code":13},"6224":{"zip_code":"1076224","prefecture":"東京都","prefecture_kana":"トウキョウト","city":"港区","city_kana":"ミナトク","town":"赤坂ミッドタウン・タワー","town_kana":"アカサカミッドタウン・タワー","prefecture_code":13},"6225":{"zip_code":"1076225","prefecture":"東京都","prefecture_kana":"トウキョウト","city":"港区","city_kana":"ミナトク","town":"赤坂ミッドタウン・タワー","town_kana":"アカサカミッドタウン・タワー","prefecture_code":13},"6226":{"zip_code":"1076226","prefecture":"東京都","prefecture_kana":"トウキョウト","city":"港区","city_kana":"ミナトク","town":"赤坂ミッドタウン・タワー","town_kana":"アカサカミッドタウン・タワー","prefecture_code":13},"6227":{"zip_code":"1076227","prefecture":"東京都","prefecture_kana":"トウキョウト","city":"港区","city_kana":"ミナトク","town":"赤坂ミッドタウン・タワー","town_kana":"アカサカミッドタウン・タワー","prefecture_code":13},"6228":{"zip_code":"1076228","prefecture":"東京都","prefecture_kana":"トウキョウト","city":"港区","city_kana":"ミナトク","town":"赤坂ミッドタウン・タワー","town_kana":"アカサカミッドタウン・タワー","prefecture_code":13},"6229":{"zip_code":"1076229","prefecture":"東京都","prefecture_kana":"トウキョウト","city":"港区","city_kana":"ミナトク","town":"赤坂ミッドタウン・タワー","town_kana":"アカサカミッドタウン・タワー","prefecture_code":13},"6230":{"zip_code":"1076230","prefecture":"東京都","prefecture_kana":"トウキョウト","city":"港区","city_kana":"ミナトク","town":"赤坂ミッドタウン・タワー","town_kana":"アカサカミッドタウン・タワー","prefecture_code":13},"6231":{"zip_code":"1076231","prefecture":"東京都","prefecture_kana":"トウキョウト","city":"港区","city_kana":"ミナトク","town":"赤坂ミッドタウン・タワー","town_kana":"アカサカミッドタウン・タワー","prefecture_code":13},"6232":{"zip_code":"1076232","prefecture":"東京都","prefecture_kana":"トウキョウト","city":"港区","city_kana":"ミナトク","town":"赤坂ミッドタウン・タワー","town_kana":"アカサカミッドタウン・タワー","prefecture_code":13},"6233":{"zip_code":"1076233","prefecture":"東京都","prefecture_kana":"トウキョウト","city":"港区","city_kana":"ミナトク","town":"赤坂ミッドタウン・タワー","town_kana":"アカサカミッドタウン・タワー","prefecture_code":13},"6234":{"zip_code":"1076234","prefecture":"東京都","prefecture_kana":"トウキョウト","city":"港区","city_kana":"ミナトク","town":"赤坂ミッドタウン・タワー","town_kana":"アカサカミッドタウン・タワー","prefecture_code":13},"6235":{"zip_code":"1076235","prefecture":"東京都","prefecture_kana":"トウキョウト","city":"港区","city_kana":"ミナトク","town":"赤坂ミッドタウン・タワー","town_kana":"アカサカミッドタウン・タワー","prefecture_code":13},"6236":{"zip_code":"1076236","prefecture":"東京都","prefecture_kana":"トウキョウト","city":"港区","city_kana":"ミナトク","town":"赤坂ミッドタウン・タワー","town_kana":"アカサカミッドタウン・タワー","prefecture_code":13},"6237":{"zip_code":"1076237","prefecture":"東京都","prefecture_kana":"トウキョウト","city":"港区","city_kana":"ミナトク","town":"赤坂ミッドタウン・タワー","town_kana":"アカサカミッドタウン・タワー","prefecture_code":13},"6238":{"zip_code":"1076238","prefecture":"東京都","prefecture_kana":"トウキョウト","city":"港区","city_kana":"ミナトク","town":"赤坂ミッドタウン・タワー","town_kana":"アカサカミッドタウン・タワー","prefecture_code":13},"6239":{"zip_code":"1076239","prefecture":"東京都","prefecture_kana":"トウキョウト","city":"港区","city_kana":"ミナトク","town":"赤坂ミッドタウン・タワー","town_kana":"アカサカミッドタウン・タワー","prefecture_code":13},"6240":{"zip_code":"1076240","prefecture":"東京都","prefecture_kana":"トウキョウト","city":"港区","city_kana":"ミナトク","town":"赤坂ミッドタウン・タワー","town_kana":"アカサカミッドタウン・タワー","prefecture_code":13},"6241":{"zip_code":"1076241","prefecture":"東京都","prefecture_kana":"トウキョウト","city":"港区","city_kana":"ミナトク","town":"赤坂ミッドタウン・タワー","town_kana":"アカサカミッドタウン・タワー","prefecture_code":13},"6242":{"zip_code":"1076242","prefecture":"東京都","prefecture_kana":"トウキョウト","city":"港区","city_kana":"ミナトク","town":"赤坂ミッドタウン・タワー","town_kana":"アカサカミッドタウン・タワー","prefecture_code":13},"6243":{"zip_code":"1076243","prefecture":"東京都","prefecture_kana":"トウキョウト","city":"港区","city_kana":"ミナトク","town":"赤坂ミッドタウン・タワー","town_kana":"アカサカミッドタウン・タワー","prefecture_code":13},"6244":{"zip_code":"1076244","prefecture":"東京都","prefecture_kana":"トウキョウト","city":"港区","city_kana":"ミナトク","town":"赤坂ミッドタウン・タワー","town_kana":"アカサカミッドタウン・タワー","prefecture_code":13},"6245":{"zip_code":"1076245","prefecture":"東京都","prefecture_kana":"トウキョウト","city":"港区","city_kana":"ミナトク","town":"赤坂ミッドタウン・タワー","town_kana":"アカサカミッドタウン・タワー","prefecture_code":13},"0061":{"zip_code":"1070061","prefecture":"東京都","prefecture_kana":"トウキョウト","city":"港区","city_kana":"ミナトク","town":"北青山","town_kana":"キタアオヤマ","prefecture_code":13},"0062":{"zip_code":"1070062","prefecture":"東京都","prefecture_kana":"トウキョウト","city":"港区","city_kana":"ミナトク","town":"南青山","town_kana":"ミナミアオヤマ","prefecture_code":13},"0051":{"zip_code":"1070051","prefecture":"東京都","prefecture_kana":"トウキョウト","city":"港区","city_kana":"ミナトク","town":"元赤坂","town_kana":"モトアカサカ","prefecture_code":13}}