{"0032":{"zip_code":"1410032","prefecture":"東京都","prefecture_kana":"トウキョウト","city":"品川区","city_kana":"シナガワク","town":"大崎","town_kana":"オオサキ","prefecture_code":13},"6090":{"zip_code":"1416090","prefecture":"東京都","prefecture_kana":"トウキョウト","city":"品川区","city_kana":"シナガワク","town":"大崎ＴｈｉｎｋＰａｒｋＴｏｗｅｒ","town_kana":"オオサキシンクパークタワー","prefecture_code":13},"6001":{"zip_code":"1416001","prefecture":"東京都","prefecture_kana":"トウキョウト","city":"品川区","city_kana":"シナガワク","town":"大崎ＴｈｉｎｋＰａｒｋＴｏｗｅｒ","town_kana":"オオサキシンクパークタワー","prefecture_code":13},"6002":{"zip_code":"1416002","prefecture":"東京都","prefecture_kana":"トウキョウト","city":"品川区","city_kana":"シナガワク","town":"大崎ＴｈｉｎｋＰａｒｋＴｏｗｅｒ","town_kana":"オオサキシンクパークタワー","prefecture_code":13},"6003":{"zip_code":"1416003","prefecture":"東京都","prefecture_kana":"トウキョウト","city":"品川区","city_kana":"シナガワク","town":"大崎ＴｈｉｎｋＰａｒｋＴｏｗｅｒ","town_kana":"オオサキシンクパークタワー","prefecture_code":13},"6004":{"zip_code":"1416004","prefecture":"東京都","prefecture_kana":"トウキョウト","city":"品川区","city_kana":"シナガワク","town":"大崎ＴｈｉｎｋＰａｒｋＴｏｗｅｒ","town_kana":"オオサキシンクパークタワー","prefecture_code":13},"6005":{"zip_code":"1416005","prefecture":"東京都","prefecture_kana":"トウキョウト","city":"品川区","city_kana":"シナガワク","town":"大崎ＴｈｉｎｋＰａｒｋＴｏｗｅｒ","town_kana":"オオサキシンクパークタワー","prefecture_code":13},"6006":{"zip_code":"1416006","prefecture":"東京都","prefecture_kana":"トウキョウト","city":"品川区","city_kana":"シナガワク","town":"大崎ＴｈｉｎｋＰａｒｋＴｏｗｅｒ","town_kana":"オオサキシンクパークタワー","prefecture_code":13},"6007":{"zip_code":"1416007","prefecture":"東京都","prefecture_kana":"トウキョウト","city":"品川区","city_kana":"シナガワク","town":"大崎ＴｈｉｎｋＰａｒｋＴｏｗｅｒ","town_kana":"オオサキシンクパークタワー","prefecture_code":13},"6008":{"zip_code":"1416008","prefecture":"東京都","prefecture_kana":"トウキョウト","city":"品川区","city_kana":"シナガワク","town":"大崎ＴｈｉｎｋＰａｒｋＴｏｗｅｒ","town_kana":"オオサキシンクパークタワー","prefecture_code":13},"6009":{"zip_code":"1416009","prefecture":"東京都","prefecture_kana":"トウキョウト","city":"品川区","city_kana":"シナガワク","town":"大崎ＴｈｉｎｋＰａｒｋＴｏｗｅｒ","town_kana":"オオサキシンクパークタワー","prefecture_code":13},"6010":{"zip_code":"1416010","prefecture":"東京都","prefecture_kana":"トウキョウト","city":"品川区","city_kana":"シナガワク","town":"大崎ＴｈｉｎｋＰａｒｋＴｏｗｅｒ","town_kana":"オオサキシンクパークタワー","prefecture_code":13},"6011":{"zip_code":"1416011","prefecture":"東京都","prefecture_kana":"トウキョウト","city":"品川区","city_kana":"シナガワク","town":"大崎ＴｈｉｎｋＰａｒｋＴｏｗｅｒ","town_kana":"オオサキシンクパークタワー","prefecture_code":13},"6012":{"zip_code":"1416012","prefecture":"東京都","prefecture_kana":"トウキョウト","city":"品川区","city_kana":"シナガワク","town":"大崎ＴｈｉｎｋＰａｒｋＴｏｗｅｒ","town_kana":"オオサキシンクパークタワー","prefecture_code":13},"6013":{"zip_code":"1416013","prefecture":"東京都","prefecture_kana":"トウキョウト","city":"品川区","city_kana":"シナガワク","town":"大崎ＴｈｉｎｋＰａｒｋＴｏｗｅｒ","town_kana":"オオサキシンクパークタワー","prefecture_code":13},"6014":{"zip_code":"1416014","prefecture":"東京都","prefecture_kana":"トウキョウト","city":"品川区","city_kana":"シナガワク","town":"大崎ＴｈｉｎｋＰａｒｋＴｏｗｅｒ","town_kana":"オオサキシンクパークタワー","prefecture_code":13},"6015":{"zip_code":"1416015","prefecture":"東京都","prefecture_kana":"トウキョウト","city":"品川区","city_kana":"シナガワク","town":"大崎ＴｈｉｎｋＰａｒｋＴｏｗｅｒ","town_kana":"オオサキシンクパークタワー","prefecture_code":13},"6016":{"zip_code":"1416016","prefecture":"東京都","prefecture_kana":"トウキョウト","city":"品川区","city_kana":"シナガワク","town":"大崎ＴｈｉｎｋＰａｒｋＴｏｗｅｒ","town_kana":"オオサキシンクパークタワー","prefecture_code":13},"6017":{"zip_code":"1416017","prefecture":"東京都","prefecture_kana":"トウキョウト","city":"品川区","city_kana":"シナガワク","town":"大崎ＴｈｉｎｋＰａｒｋＴｏｗｅｒ","town_kana":"オオサキシンクパークタワー","prefecture_code":13},"6018":{"zip_code":"1416018","prefecture":"東京都","prefecture_kana":"トウキョウト","city":"品川区","city_kana":"シナガワク","town":"大崎ＴｈｉｎｋＰａｒｋＴｏｗｅｒ","town_kana":"オオサキシンクパークタワー","prefecture_code":13},"6019":{"zip_code":"1416019","prefecture":"東京都","prefecture_kana":"トウキョウト","city":"品川区","city_kana":"シナガワク","town":"大崎ＴｈｉｎｋＰａｒｋＴｏｗｅｒ","town_kana":"オオサキシンクパークタワー","prefecture_code":13},"6020":{"zip_code":"1416020","prefecture":"東京都","prefecture_kana":"トウキョウト","city":"品川区","city_kana":"シナガワク","town":"大崎ＴｈｉｎｋＰａｒｋＴｏｗｅｒ","town_kana":"オオサキシンクパークタワー","prefecture_code":13},"6021":{"zip_code":"1416021","prefecture":"東京都","prefecture_kana":"トウキョウト","city":"品川区","city_kana":"シナガワク","town":"大崎ＴｈｉｎｋＰａｒｋＴｏｗｅｒ","town_kana":"オオサキシンクパークタワー","prefecture_code":13},"6022":{"zip_code":"1416022","prefecture":"東京都","prefecture_kana":"トウキョウト","city":"品川区","city_kana":"シナガワク","town":"大崎ＴｈｉｎｋＰａｒｋＴｏｗｅｒ","town_kana":"オオサキシンクパークタワー","prefecture_code":13},"6023":{"zip_code":"1416023","prefecture":"東京都","prefecture_kana":"トウキョウト","city":"品川区","city_kana":"シナガワク","town":"大崎ＴｈｉｎｋＰａｒｋＴｏｗｅｒ","town_kana":"オオサキシンクパークタワー","prefecture_code":13},"6024":{"zip_code":"1416024","prefecture":"東京都","prefecture_kana":"トウキョウト","city":"品川区","city_kana":"シナガワク","town":"大崎ＴｈｉｎｋＰａｒｋＴｏｗｅｒ","town_kana":"オオサキシンクパークタワー","prefecture_code":13},"6025":{"zip_code":"1416025","prefecture":"東京都","prefecture_kana":"トウキョウト","city":"品川区","city_kana":"シナガワク","town":"大崎ＴｈｉｎｋＰａｒｋＴｏｗｅｒ","town_kana":"オオサキシンクパークタワー","prefecture_code":13},"6026":{"zip_code":"1416026","prefecture":"東京都","prefecture_kana":"トウキョウト","city":"品川区","city_kana":"シナガワク","town":"大崎ＴｈｉｎｋＰａｒｋＴｏｗｅｒ","town_kana":"オオサキシンクパークタワー","prefecture_code":13},"6027":{"zip_code":"1416027","prefecture":"東京都","prefecture_kana":"トウキョウト","city":"品川区","city_kana":"シナガワク","town":"大崎ＴｈｉｎｋＰａｒｋＴｏｗｅｒ","town_kana":"オオサキシンクパークタワー","prefecture_code":13},"6028":{"zip_code":"1416028","prefecture":"東京都","prefecture_kana":"トウキョウト","city":"品川区","city_kana":"シナガワク","town":"大崎ＴｈｉｎｋＰａｒｋＴｏｗｅｒ","town_kana":"オオサキシンクパークタワー","prefecture_code":13},"6029":{"zip_code":"1416029","prefecture":"東京都","prefecture_kana":"トウキョウト","city":"品川区","city_kana":"シナガワク","town":"大崎ＴｈｉｎｋＰａｒｋＴｏｗｅｒ","town_kana":"オオサキシンクパークタワー","prefecture_code":13},"6030":{"zip_code":"1416030","prefecture":"東京都","prefecture_kana":"トウキョウト","city":"品川区","city_kana":"シナガワク","town":"大崎ＴｈｉｎｋＰａｒｋＴｏｗｅｒ","town_kana":"オオサキシンクパークタワー","prefecture_code":13},"0021":{"zip_code":"1410021","prefecture":"東京都","prefecture_kana":"トウキョウト","city":"品川区","city_kana":"シナガワク","town":"上大崎","town_kana":"カミオオサキ","prefecture_code":13},"0001":{"zip_code":"1410001","prefecture":"東京都","prefecture_kana":"トウキョウト","city":"品川区","city_kana":"シナガワク","town":"北品川","town_kana":"キタシナガワ","prefecture_code":13},"0031":{"zip_code":"1410031","prefecture":"東京都","prefecture_kana":"トウキョウト","city":"品川区","city_kana":"シナガワク","town":"西五反田","town_kana":"ニシゴタンダ","prefecture_code":13},"0033":{"zip_code":"1410033","prefecture":"東京都","prefecture_kana":"トウキョウト","city":"品川区","city_kana":"シナガワク","town":"西品川","town_kana":"ニシシナガワ","prefecture_code":13},"0022":{"zip_code":"1410022","prefecture":"東京都","prefecture_kana":"トウキョウト","city":"品川区","city_kana":"シナガワク","town":"東五反田","town_kana":"ヒガシゴタンダ","prefecture_code":13}}