{"0000":{"zip_code":"1600000","prefecture":"東京都","prefecture_kana":"トウキョウト","city":"新宿区","city_kana":"シンジュクク","town":"","town_kana":"","prefecture_code":13},"0005":{"zip_code":"1600005","prefecture":"東京都","prefecture_kana":"トウキョウト","city":"新宿区","city_kana":"シンジュクク","town":"愛住町","town_kana":"アイズミチョウ","prefecture_code":13},"0007":{"zip_code":"1600007","prefecture":"東京都","prefecture_kana":"トウキョウト","city":"新宿区","city_kana":"シンジュクク","town":"荒木町","town_kana":"アラキチョウ","prefecture_code":13},"0013":{"zip_code":"1600013","prefecture":"東京都","prefecture_kana":"トウキョウト","city":"新宿区","city_kana":"シンジュクク","town":"霞ケ丘町","town_kana":"カスミガオカマチ","prefecture_code":13},"0001":{"zip_code":"1600001","prefecture":"東京都","prefecture_kana":"トウキョウト","city":"新宿区","city_kana":"シンジュクク","town":"片町","town_kana":"カタマチ","prefecture_code":13},"0021":{"zip_code":"1600021","prefecture":"東京都","prefecture_kana":"トウキョウト","city":"新宿区","city_kana":"シンジュクク","town":"歌舞伎町","town_kana":"カブキチョウ","prefecture_code":13},"0002":{"zip_code":"1600002","prefecture":"東京都","prefecture_kana":"トウキョウト","city":"新宿区","city_kana":"シンジュクク","town":"坂町","town_kana":"サカマチ","prefecture_code":13},"0017":{"zip_code":"1600017","prefecture":"東京都","prefecture_kana":"トウキョウト","city":"新宿区","city_kana":"シンジュクク","town":"左門町","town_kana":"サモンチョウ","prefecture_code":13},"0008":{"zip_code":"1600008","prefecture":"東京都","prefecture_kana":"トウキョウト","city":"新宿区","city_kana":"シンジュクク","town":"三栄町","town_kana":"サンエイチョウ","prefecture_code":13},"0016":{"zip_code":"1600016","prefecture":"東京都","prefecture_kana":"トウキョウト","city":"新宿区","city_kana":"シンジュクク","town":"信濃町","town_kana":"シナノマチ","prefecture_code":13},"0022":{"zip_code":"1600022","prefecture":"東京都","prefecture_kana":"トウキョウト","city":"新宿区","city_kana":"シンジュクク","town":"新宿","town_kana":"シンジュク","prefecture_code":13},"0018":{"zip_code":"1600018","prefecture":"東京都","prefecture_kana":"トウキョウト","city":"新宿区","city_kana":"シンジュクク","town":"須賀町","town_kana":"スガチョウ","prefecture_code":13},"0015":{"zip_code":"1600015","prefecture":"東京都","prefecture_kana":"トウキョウト","city":"新宿区","city_kana":"シンジュクク","town":"大京町","town_kana":"ダイキョウチョウ","prefecture_code":13},"0014":{"zip_code":"1600014","prefecture":"東京都","prefecture_kana":"トウキョウト","city":"新宿区","city_kana":"シンジュクク","town":"内藤町","town_kana":"ナイトウマチ","prefecture_code":13},"0023":{"zip_code":"1600023","prefecture":"東京都","prefecture_kana":"トウキョウト","city":"新宿区","city_kana":"シンジュクク","town":"西新宿","town_kana":"ニシシンジュク","prefecture_code":13},"6190":{"zip_code":"1606190","prefecture":"東京都","prefecture_kana":"トウキョウト","city":"新宿区","city_kana":"シンジュクク","town":"西新宿住友不動産新宿グランドタワー","town_kana":"ニシシンジュクスミトモフドウサンシンジュクグランドタワー","prefecture_code":13},"6101":{"zip_code":"1606101","prefecture":"東京都","prefecture_kana":"トウキョウト","city":"新宿区","city_kana":"シンジュクク","town":"西新宿住友不動産新宿グランドタワー","town_kana":"ニシシンジュクスミトモフドウサンシンジュクグランドタワー","prefecture_code":13},"6102":{"zip_code":"1606102","prefecture":"東京都","prefecture_kana":"トウキョウト","city":"新宿区","city_kana":"シンジュクク","town":"西新宿住友不動産新宿グランドタワー","town_kana":"ニシシンジュクスミトモフドウサンシンジュクグランドタワー","prefecture_code":13},"6103":{"zip_code":"1606103","prefecture":"東京都","prefecture_kana":"トウキョウト","city":"新宿区","city_kana":"シンジュクク","town":"西新宿住友不動産新宿グランドタワー","town_kana":"ニシシンジュクスミトモフドウサンシンジュクグランドタワー","prefecture_code":13},"6104":{"zip_code":"1606104","prefecture":"東京都","prefecture_kana":"トウキョウト","city":"新宿区","city_kana":"シンジュクク","town":"西新宿住友不動産新宿グランドタワー","town_kana":"ニシシンジュクスミトモフドウサンシンジュクグランドタワー","prefecture_code":13},"6105":{"zip_code":"1606105","prefecture":"東京都","prefecture_kana":"トウキョウト","city":"新宿区","city_kana":"シンジュクク","town":"西新宿住友不動産新宿グランドタワー","town_kana":"ニシシンジュクスミトモフドウサンシンジュクグランドタワー","prefecture_code":13},"6106":{"zip_code":"1606106","prefecture":"東京都","prefecture_kana":"トウキョウト","city":"新宿区","city_kana":"シンジュクク","town":"西新宿住友不動産新宿グランドタワー","town_kana":"ニシシンジュクスミトモフドウサンシンジュクグランドタワー","prefecture_code":13},"6107":{"zip_code":"1606107","prefecture":"東京都","prefecture_kana":"トウキョウト","city":"新宿区","city_kana":"シンジュクク","town":"西新宿住友不動産新宿グランドタワー","town_kana":"ニシシンジュクスミトモフドウサンシンジュクグランドタワー","prefecture_code":13},"6108":{"zip_code":"1606108","prefecture":"東京都","prefecture_kana":"トウキョウト","city":"新宿区","city_kana":"シンジュクク","town":"西新宿住友不動産新宿グランドタワー","town_kana":"ニシシンジュクスミトモフドウサンシンジュクグランドタワー","prefecture_code":13},"6109":{"zip_code":"1606109","prefecture":"東京都","prefecture_kana":"トウキョウト","city":"新宿区","city_kana":"シンジュクク","town":"西新宿住友不動産新宿グランドタワー","town_kana":"ニシシンジュクスミトモフドウサンシンジュクグランドタワー","prefecture_code":13},"6110":{"zip_code":"1606110","prefecture":"東京都","prefecture_kana":"トウキョウト","city":"新宿区","city_kana":"シンジュクク","town":"西新宿住友不動産新宿グランドタワー","town_kana":"ニシシンジュクスミトモフドウサンシンジュクグランドタワー","prefecture_code":13},"6111":{"zip_code":"1606111","prefecture":"東京都","prefecture_kana":"トウキョウト","city":"新宿区","city_kana":"シンジュクク","town":"西新宿住友不動産新宿グランドタワー","town_kana":"ニシシンジュクスミトモフドウサンシンジュクグランドタワー","prefecture_code":13},"6112":{"zip_code":"1606112","prefecture":"東京都","prefecture_kana":"トウキョウト","city":"新宿区","city_kana":"シンジュクク","town":"西新宿住友不動産新宿グランドタワー","town_kana":"ニシシンジュクスミトモフドウサンシンジュクグランドタワー","prefecture_code":13},"6113":{"zip_code":"1606113","prefecture":"東京都","prefecture_kana":"トウキョウト","city":"新宿区","city_kana":"シンジュクク","town":"西新宿住友不動産新宿グランドタワー","town_kana":"ニシシンジュクスミトモフドウサンシンジュクグランドタワー","prefecture_code":13},"6114":{"zip_code":"1606114","prefecture":"東京都","prefecture_kana":"トウキョウト","city":"新宿区","city_kana":"シンジュクク","town":"西新宿住友不動産新宿グランドタワー","town_kana":"ニシシンジュクスミトモフドウサンシンジュクグランドタワー","prefecture_code":13},"6115":{"zip_code":"1606115","prefecture":"東京都","prefecture_kana":"トウキョウト","city":"新宿区","city_kana":"シンジュクク","town":"西新宿住友不動産新宿グランドタワー","town_kana":"ニシシンジュクスミトモフドウサンシンジュクグランドタワー","prefecture_code":13},"6116":{"zip_code":"1606116","prefecture":"東京都","prefecture_kana":"トウキョウト","city":"新宿区","city_kana":"シンジュクク","town":"西新宿住友不動産新宿グランドタワー","town_kana":"ニシシンジュクスミトモフドウサンシンジュクグランドタワー","prefecture_code":13},"6117":{"zip_code":"1606117","prefecture":"東京都","prefecture_kana":"トウキョウト","city":"新宿区","city_kana":"シンジュクク","town":"西新宿住友不動産新宿グランドタワー","town_kana":"ニシシンジュクスミトモフドウサンシンジュクグランドタワー","prefecture_code":13},"6118":{"zip_code":"1606118","prefecture":"東京都","prefecture_kana":"トウキョウト","city":"新宿区","city_kana":"シンジュクク","town":"西新宿住友不動産新宿グランドタワー","town_kana":"ニシシンジュクスミトモフドウサンシンジュクグランドタワー","prefecture_code":13},"6119":{"zip_code":"1606119","prefecture":"東京都","prefecture_kana":"トウキョウト","city":"新宿区","city_kana":"シンジュクク","town":"西新宿住友不動産新宿グランドタワー","town_kana":"ニシシンジュクスミトモフドウサンシンジュクグランドタワー","prefecture_code":13},"6120":{"zip_code":"1606120","prefecture":"東京都","prefecture_kana":"トウキョウト","city":"新宿区","city_kana":"シンジュクク","town":"西新宿住友不動産新宿グランドタワー","town_kana":"ニシシンジュクスミトモフドウサンシンジュクグランドタワー","prefecture_code":13},"6121":{"zip_code":"1606121","prefecture":"東京都","prefecture_kana":"トウキョウト","city":"新宿区","city_kana":"シンジュクク","town":"西新宿住友不動産新宿グランドタワー","town_kana":"ニシシンジュクスミトモフドウサンシンジュクグランドタワー","prefecture_code":13},"6122":{"zip_code":"1606122","prefecture":"東京都","prefecture_kana":"トウキョウト","city":"新宿区","city_kana":"シンジュクク","town":"西新宿住友不動産新宿グランドタワー","town_kana":"ニシシンジュクスミトモフドウサンシンジュクグランドタワー","prefecture_code":13},"6123":{"zip_code":"1606123","prefecture":"東京都","prefecture_kana":"トウキョウト","city":"新宿区","city_kana":"シンジュクク","town":"西新宿住友不動産新宿グランドタワー","town_kana":"ニシシンジュクスミトモフドウサンシンジュクグランドタワー","prefecture_code":13},"6124":{"zip_code":"1606124","prefecture":"東京都","prefecture_kana":"トウキョウト","city":"新宿区","city_kana":"シンジュクク","town":"西新宿住友不動産新宿グランドタワー","town_kana":"ニシシンジュクスミトモフドウサンシンジュクグランドタワー","prefecture_code":13},"6125":{"zip_code":"1606125","prefecture":"東京都","prefecture_kana":"トウキョウト","city":"新宿区","city_kana":"シンジュクク","town":"西新宿住友不動産新宿グランドタワー","town_kana":"ニシシンジュクスミトモフドウサンシンジュクグランドタワー","prefecture_code":13},"6126":{"zip_code":"1606126","prefecture":"東京都","prefecture_kana":"トウキョウト","city":"新宿区","city_kana":"シンジュクク","town":"西新宿住友不動産新宿グランドタワー","town_kana":"ニシシンジュクスミトモフドウサンシンジュクグランドタワー","prefecture_code":13},"6127":{"zip_code":"1606127","prefecture":"東京都","prefecture_kana":"トウキョウト","city":"新宿区","city_kana":"シンジュクク","town":"西新宿住友不動産新宿グランドタワー","town_kana":"ニシシンジュクスミトモフドウサンシンジュクグランドタワー","prefecture_code":13},"6128":{"zip_code":"1606128","prefecture":"東京都","prefecture_kana":"トウキョウト","city":"新宿区","city_kana":"シンジュクク","town":"西新宿住友不動産新宿グランドタワー","town_kana":"ニシシンジュクスミトモフドウサンシンジュクグランドタワー","prefecture_code":13},"6129":{"zip_code":"1606129","prefecture":"東京都","prefecture_kana":"トウキョウト","city":"新宿区","city_kana":"シンジュクク","town":"西新宿住友不動産新宿グランドタワー","town_kana":"ニシシンジュクスミトモフドウサンシンジュクグランドタワー","prefecture_code":13},"6130":{"zip_code":"1606130","prefecture":"東京都","prefecture_kana":"トウキョウト","city":"新宿区","city_kana":"シンジュクク","town":"西新宿住友不動産新宿グランドタワー","town_kana":"ニシシンジュクスミトモフドウサンシンジュクグランドタワー","prefecture_code":13},"6131":{"zip_code":"1606131","prefecture":"東京都","prefecture_kana":"トウキョウト","city":"新宿区","city_kana":"シンジュクク","town":"西新宿住友不動産新宿グランドタワー","town_kana":"ニシシンジュクスミトモフドウサンシンジュクグランドタワー","prefecture_code":13},"6132":{"zip_code":"1606132","prefecture":"東京都","prefecture_kana":"トウキョウト","city":"新宿区","city_kana":"シンジュクク","town":"西新宿住友不動産新宿グランドタワー","town_kana":"ニシシンジュクスミトモフドウサンシンジュクグランドタワー","prefecture_code":13},"6133":{"zip_code":"1606133","prefecture":"東京都","prefecture_kana":"トウキョウト","city":"新宿区","city_kana":"シンジュクク","town":"西新宿住友不動産新宿グランドタワー","town_kana":"ニシシンジュクスミトモフドウサンシンジュクグランドタワー","prefecture_code":13},"6134":{"zip_code":"1606134","prefecture":"東京都","prefecture_kana":"トウキョウト","city":"新宿区","city_kana":"シンジュクク","town":"西新宿住友不動産新宿グランドタワー","town_kana":"ニシシンジュクスミトモフドウサンシンジュクグランドタワー","prefecture_code":13},"6135":{"zip_code":"1606135","prefecture":"東京都","prefecture_kana":"トウキョウト","city":"新宿区","city_kana":"シンジュクク","town":"西新宿住友不動産新宿グランドタワー","town_kana":"ニシシンジュクスミトモフドウサンシンジュクグランドタワー","prefecture_code":13},"6136":{"zip_code":"1606136","prefecture":"東京都","prefecture_kana":"トウキョウト","city":"新宿区","city_kana":"シンジュクク","town":"西新宿住友不動産新宿グランドタワー","town_kana":"ニシシンジュクスミトモフドウサンシンジュクグランドタワー","prefecture_code":13},"6137":{"zip_code":"1606137","prefecture":"東京都","prefecture_kana":"トウキョウト","city":"新宿区","city_kana":"シンジュクク","town":"西新宿住友不動産新宿グランドタワー","town_kana":"ニシシンジュクスミトモフドウサンシンジュクグランドタワー","prefecture_code":13},"6138":{"zip_code":"1606138","prefecture":"東京都","prefecture_kana":"トウキョウト","city":"新宿区","city_kana":"シンジュクク","town":"西新宿住友不動産新宿グランドタワー","town_kana":"ニシシンジュクスミトモフドウサンシンジュクグランドタワー","prefecture_code":13},"6139":{"zip_code":"1606139","prefecture":"東京都","prefecture_kana":"トウキョウト","city":"新宿区","city_kana":"シンジュクク","town":"西新宿住友不動産新宿グランドタワー","town_kana":"ニシシンジュクスミトモフドウサンシンジュクグランドタワー","prefecture_code":13},"0006":{"zip_code":"1600006","prefecture":"東京都","prefecture_kana":"トウキョウト","city":"新宿区","city_kana":"シンジュクク","town":"舟町","town_kana":"フナマチ","prefecture_code":13},"0003":{"zip_code":"1600003","prefecture":"東京都","prefecture_kana":"トウキョウト","city":"新宿区","city_kana":"シンジュクク","town":"本塩町","town_kana":"ホンシオチョウ","prefecture_code":13},"0012":{"zip_code":"1600012","prefecture":"東京都","prefecture_kana":"トウキョウト","city":"新宿区","city_kana":"シンジュクク","town":"南元町","town_kana":"ミナミモトマチ","prefecture_code":13},"0004":{"zip_code":"1600004","prefecture":"東京都","prefecture_kana":"トウキョウト","city":"新宿区","city_kana":"シンジュクク","town":"四谷","town_kana":"ヨツヤ","prefecture_code":13},"0011":{"zip_code":"1600011","prefecture":"東京都","prefecture_kana":"トウキョウト","city":"新宿区","city_kana":"シンジュクク","town":"若葉","town_kana":"ワカバ","prefecture_code":13}}