{"0790":{"zip_code":"1630790","prefecture":"東京都","prefecture_kana":"トウキョウト","city":"新宿区","city_kana":"シンジュクク","town":"西新宿小田急第一生命ビル","town_kana":"ニシシンジュクオダキュウダイイチセイメイビル","prefecture_code":13},"0701":{"zip_code":"1630701","prefecture":"東京都","prefecture_kana":"トウキョウト","city":"新宿区","city_kana":"シンジュクク","town":"西新宿小田急第一生命ビル","town_kana":"ニシシンジュクオダキュウダイイチセイメイビル","prefecture_code":13},"0702":{"zip_code":"1630702","prefecture":"東京都","prefecture_kana":"トウキョウト","city":"新宿区","city_kana":"シンジュクク","town":"西新宿小田急第一生命ビル","town_kana":"ニシシンジュクオダキュウダイイチセイメイビル","prefecture_code":13},"0703":{"zip_code":"1630703","prefecture":"東京都","prefecture_kana":"トウキョウト","city":"新宿区","city_kana":"シンジュクク","town":"西新宿小田急第一生命ビル","town_kana":"ニシシンジュクオダキュウダイイチセイメイビル","prefecture_code":13},"0704":{"zip_code":"1630704","prefecture":"東京都","prefecture_kana":"トウキョウト","city":"新宿区","city_kana":"シンジュクク","town":"西新宿小田急第一生命ビル","town_kana":"ニシシンジュクオダキュウダイイチセイメイビル","prefecture_code":13},"0705":{"zip_code":"1630705","prefecture":"東京都","prefecture_kana":"トウキョウト","city":"新宿区","city_kana":"シンジュクク","town":"西新宿小田急第一生命ビル","town_kana":"ニシシンジュクオダキュウダイイチセイメイビル","prefecture_code":13},"0706":{"zip_code":"1630706","prefecture":"東京都","prefecture_kana":"トウキョウト","city":"新宿区","city_kana":"シンジュクク","town":"西新宿小田急第一生命ビル","town_kana":"ニシシンジュクオダキュウダイイチセイメイビル","prefecture_code":13},"0707":{"zip_code":"1630707","prefecture":"東京都","prefecture_kana":"トウキョウト","city":"新宿区","city_kana":"シンジュクク","town":"西新宿小田急第一生命ビル","town_kana":"ニシシンジュクオダキュウダイイチセイメイビル","prefecture_code":13},"0708":{"zip_code":"1630708","prefecture":"東京都","prefecture_kana":"トウキョウト","city":"新宿区","city_kana":"シンジュクク","town":"西新宿小田急第一生命ビル","town_kana":"ニシシンジュクオダキュウダイイチセイメイビル","prefecture_code":13},"0709":{"zip_code":"1630709","prefecture":"東京都","prefecture_kana":"トウキョウト","city":"新宿区","city_kana":"シンジュクク","town":"西新宿小田急第一生命ビル","town_kana":"ニシシンジュクオダキュウダイイチセイメイビル","prefecture_code":13},"0710":{"zip_code":"1630710","prefecture":"東京都","prefecture_kana":"トウキョウト","city":"新宿区","city_kana":"シンジュクク","town":"西新宿小田急第一生命ビル","town_kana":"ニシシンジュクオダキュウダイイチセイメイビル","prefecture_code":13},"0711":{"zip_code":"1630711","prefecture":"東京都","prefecture_kana":"トウキョウト","city":"新宿区","city_kana":"シンジュクク","town":"西新宿小田急第一生命ビル","town_kana":"ニシシンジュクオダキュウダイイチセイメイビル","prefecture_code":13},"0712":{"zip_code":"1630712","prefecture":"東京都","prefecture_kana":"トウキョウト","city":"新宿区","city_kana":"シンジュクク","town":"西新宿小田急第一生命ビル","town_kana":"ニシシンジュクオダキュウダイイチセイメイビル","prefecture_code":13},"0713":{"zip_code":"1630713","prefecture":"東京都","prefecture_kana":"トウキョウト","city":"新宿区","city_kana":"シンジュクク","town":"西新宿小田急第一生命ビル","town_kana":"ニシシンジュクオダキュウダイイチセイメイビル","prefecture_code":13},"0714":{"zip_code":"1630714","prefecture":"東京都","prefecture_kana":"トウキョウト","city":"新宿区","city_kana":"シンジュクク","town":"西新宿小田急第一生命ビル","town_kana":"ニシシンジュクオダキュウダイイチセイメイビル","prefecture_code":13},"0715":{"zip_code":"1630715","prefecture":"東京都","prefecture_kana":"トウキョウト","city":"新宿区","city_kana":"シンジュクク","town":"西新宿小田急第一生命ビル","town_kana":"ニシシンジュクオダキュウダイイチセイメイビル","prefecture_code":13},"0716":{"zip_code":"1630716","prefecture":"東京都","prefecture_kana":"トウキョウト","city":"新宿区","city_kana":"シンジュクク","town":"西新宿小田急第一生命ビル","town_kana":"ニシシンジュクオダキュウダイイチセイメイビル","prefecture_code":13},"0717":{"zip_code":"1630717","prefecture":"東京都","prefecture_kana":"トウキョウト","city":"新宿区","city_kana":"シンジュクク","town":"西新宿小田急第一生命ビル","town_kana":"ニシシンジュクオダキュウダイイチセイメイビル","prefecture_code":13},"0718":{"zip_code":"1630718","prefecture":"東京都","prefecture_kana":"トウキョウト","city":"新宿区","city_kana":"シンジュクク","town":"西新宿小田急第一生命ビル","town_kana":"ニシシンジュクオダキュウダイイチセイメイビル","prefecture_code":13},"0719":{"zip_code":"1630719","prefecture":"東京都","prefecture_kana":"トウキョウト","city":"新宿区","city_kana":"シンジュクク","town":"西新宿小田急第一生命ビル","town_kana":"ニシシンジュクオダキュウダイイチセイメイビル","prefecture_code":13},"0720":{"zip_code":"1630720","prefecture":"東京都","prefecture_kana":"トウキョウト","city":"新宿区","city_kana":"シンジュクク","town":"西新宿小田急第一生命ビル","town_kana":"ニシシンジュクオダキュウダイイチセイメイビル","prefecture_code":13},"0721":{"zip_code":"1630721","prefecture":"東京都","prefecture_kana":"トウキョウト","city":"新宿区","city_kana":"シンジュクク","town":"西新宿小田急第一生命ビル","town_kana":"ニシシンジュクオダキュウダイイチセイメイビル","prefecture_code":13},"0722":{"zip_code":"1630722","prefecture":"東京都","prefecture_kana":"トウキョウト","city":"新宿区","city_kana":"シンジュクク","town":"西新宿小田急第一生命ビル","town_kana":"ニシシンジュクオダキュウダイイチセイメイビル","prefecture_code":13},"0723":{"zip_code":"1630723","prefecture":"東京都","prefecture_kana":"トウキョウト","city":"新宿区","city_kana":"シンジュクク","town":"西新宿小田急第一生命ビル","town_kana":"ニシシンジュクオダキュウダイイチセイメイビル","prefecture_code":13},"0724":{"zip_code":"1630724","prefecture":"東京都","prefecture_kana":"トウキョウト","city":"新宿区","city_kana":"シンジュクク","town":"西新宿小田急第一生命ビル","town_kana":"ニシシンジュクオダキュウダイイチセイメイビル","prefecture_code":13},"0725":{"zip_code":"1630725","prefecture":"東京都","prefecture_kana":"トウキョウト","city":"新宿区","city_kana":"シンジュクク","town":"西新宿小田急第一生命ビル","town_kana":"ニシシンジュクオダキュウダイイチセイメイビル","prefecture_code":13},"0726":{"zip_code":"1630726","prefecture":"東京都","prefecture_kana":"トウキョウト","city":"新宿区","city_kana":"シンジュクク","town":"西新宿小田急第一生命ビル","town_kana":"ニシシンジュクオダキュウダイイチセイメイビル","prefecture_code":13},"1390":{"zip_code":"1631390","prefecture":"東京都","prefecture_kana":"トウキョウト","city":"新宿区","city_kana":"シンジュクク","town":"西新宿新宿アイランドタワー","town_kana":"ニシシンジュクシンジュクアイランドタワー","prefecture_code":13},"1301":{"zip_code":"1631301","prefecture":"東京都","prefecture_kana":"トウキョウト","city":"新宿区","city_kana":"シンジュクク","town":"西新宿新宿アイランドタワー","town_kana":"ニシシンジュクシンジュクアイランドタワー","prefecture_code":13},"1302":{"zip_code":"1631302","prefecture":"東京都","prefecture_kana":"トウキョウト","city":"新宿区","city_kana":"シンジュクク","town":"西新宿新宿アイランドタワー","town_kana":"ニシシンジュクシンジュクアイランドタワー","prefecture_code":13},"1303":{"zip_code":"1631303","prefecture":"東京都","prefecture_kana":"トウキョウト","city":"新宿区","city_kana":"シンジュクク","town":"西新宿新宿アイランドタワー","town_kana":"ニシシンジュクシンジュクアイランドタワー","prefecture_code":13},"1304":{"zip_code":"1631304","prefecture":"東京都","prefecture_kana":"トウキョウト","city":"新宿区","city_kana":"シンジュクク","town":"西新宿新宿アイランドタワー","town_kana":"ニシシンジュクシンジュクアイランドタワー","prefecture_code":13},"1305":{"zip_code":"1631305","prefecture":"東京都","prefecture_kana":"トウキョウト","city":"新宿区","city_kana":"シンジュクク","town":"西新宿新宿アイランドタワー","town_kana":"ニシシンジュクシンジュクアイランドタワー","prefecture_code":13},"1306":{"zip_code":"1631306","prefecture":"東京都","prefecture_kana":"トウキョウト","city":"新宿区","city_kana":"シンジュクク","town":"西新宿新宿アイランドタワー","town_kana":"ニシシンジュクシンジュクアイランドタワー","prefecture_code":13},"1307":{"zip_code":"1631307","prefecture":"東京都","prefecture_kana":"トウキョウト","city":"新宿区","city_kana":"シンジュクク","town":"西新宿新宿アイランドタワー","town_kana":"ニシシンジュクシンジュクアイランドタワー","prefecture_code":13},"1308":{"zip_code":"1631308","prefecture":"東京都","prefecture_kana":"トウキョウト","city":"新宿区","city_kana":"シンジュクク","town":"西新宿新宿アイランドタワー","town_kana":"ニシシンジュクシンジュクアイランドタワー","prefecture_code":13},"1309":{"zip_code":"1631309","prefecture":"東京都","prefecture_kana":"トウキョウト","city":"新宿区","city_kana":"シンジュクク","town":"西新宿新宿アイランドタワー","town_kana":"ニシシンジュクシンジュクアイランドタワー","prefecture_code":13},"1310":{"zip_code":"1631310","prefecture":"東京都","prefecture_kana":"トウキョウト","city":"新宿区","city_kana":"シンジュクク","town":"西新宿新宿アイランドタワー","town_kana":"ニシシンジュクシンジュクアイランドタワー","prefecture_code":13},"1311":{"zip_code":"1631311","prefecture":"東京都","prefecture_kana":"トウキョウト","city":"新宿区","city_kana":"シンジュクク","town":"西新宿新宿アイランドタワー","town_kana":"ニシシンジュクシンジュクアイランドタワー","prefecture_code":13},"1312":{"zip_code":"1631312","prefecture":"東京都","prefecture_kana":"トウキョウト","city":"新宿区","city_kana":"シンジュクク","town":"西新宿新宿アイランドタワー","town_kana":"ニシシンジュクシンジュクアイランドタワー","prefecture_code":13},"1313":{"zip_code":"1631313","prefecture":"東京都","prefecture_kana":"トウキョウト","city":"新宿区","city_kana":"シンジュクク","town":"西新宿新宿アイランドタワー","town_kana":"ニシシンジュクシンジュクアイランドタワー","prefecture_code":13},"1314":{"zip_code":"1631314","prefecture":"東京都","prefecture_kana":"トウキョウト","city":"新宿区","city_kana":"シンジュクク","town":"西新宿新宿アイランドタワー","town_kana":"ニシシンジュクシンジュクアイランドタワー","prefecture_code":13},"1315":{"zip_code":"1631315","prefecture":"東京都","prefecture_kana":"トウキョウト","city":"新宿区","city_kana":"シンジュクク","town":"西新宿新宿アイランドタワー","town_kana":"ニシシンジュクシンジュクアイランドタワー","prefecture_code":13},"1316":{"zip_code":"1631316","prefecture":"東京都","prefecture_kana":"トウキョウト","city":"新宿区","city_kana":"シンジュクク","town":"西新宿新宿アイランドタワー","town_kana":"ニシシンジュクシンジュクアイランドタワー","prefecture_code":13},"1317":{"zip_code":"1631317","prefecture":"東京都","prefecture_kana":"トウキョウト","city":"新宿区","city_kana":"シンジュクク","town":"西新宿新宿アイランドタワー","town_kana":"ニシシンジュクシンジュクアイランドタワー","prefecture_code":13},"1318":{"zip_code":"1631318","prefecture":"東京都","prefecture_kana":"トウキョウト","city":"新宿区","city_kana":"シンジュクク","town":"西新宿新宿アイランドタワー","town_kana":"ニシシンジュクシンジュクアイランドタワー","prefecture_code":13},"1319":{"zip_code":"1631319","prefecture":"東京都","prefecture_kana":"トウキョウト","city":"新宿区","city_kana":"シンジュクク","town":"西新宿新宿アイランドタワー","town_kana":"ニシシンジュクシンジュクアイランドタワー","prefecture_code":13},"1320":{"zip_code":"1631320","prefecture":"東京都","prefecture_kana":"トウキョウト","city":"新宿区","city_kana":"シンジュクク","town":"西新宿新宿アイランドタワー","town_kana":"ニシシンジュクシンジュクアイランドタワー","prefecture_code":13},"1321":{"zip_code":"1631321","prefecture":"東京都","prefecture_kana":"トウキョウト","city":"新宿区","city_kana":"シンジュクク","town":"西新宿新宿アイランドタワー","town_kana":"ニシシンジュクシンジュクアイランドタワー","prefecture_code":13},"1322":{"zip_code":"1631322","prefecture":"東京都","prefecture_kana":"トウキョウト","city":"新宿区","city_kana":"シンジュクク","town":"西新宿新宿アイランドタワー","town_kana":"ニシシンジュクシンジュクアイランドタワー","prefecture_code":13},"1323":{"zip_code":"1631323","prefecture":"東京都","prefecture_kana":"トウキョウト","city":"新宿区","city_kana":"シンジュクク","town":"西新宿新宿アイランドタワー","town_kana":"ニシシンジュクシンジュクアイランドタワー","prefecture_code":13},"1324":{"zip_code":"1631324","prefecture":"東京都","prefecture_kana":"トウキョウト","city":"新宿区","city_kana":"シンジュクク","town":"西新宿新宿アイランドタワー","town_kana":"ニシシンジュクシンジュクアイランドタワー","prefecture_code":13},"1325":{"zip_code":"1631325","prefecture":"東京都","prefecture_kana":"トウキョウト","city":"新宿区","city_kana":"シンジュクク","town":"西新宿新宿アイランドタワー","town_kana":"ニシシンジュクシンジュクアイランドタワー","prefecture_code":13},"1326":{"zip_code":"1631326","prefecture":"東京都","prefecture_kana":"トウキョウト","city":"新宿区","city_kana":"シンジュクク","town":"西新宿新宿アイランドタワー","town_kana":"ニシシンジュクシンジュクアイランドタワー","prefecture_code":13},"1327":{"zip_code":"1631327","prefecture":"東京都","prefecture_kana":"トウキョウト","city":"新宿区","city_kana":"シンジュクク","town":"西新宿新宿アイランドタワー","town_kana":"ニシシンジュクシンジュクアイランドタワー","prefecture_code":13},"1328":{"zip_code":"1631328","prefecture":"東京都","prefecture_kana":"トウキョウト","city":"新宿区","city_kana":"シンジュクク","town":"西新宿新宿アイランドタワー","town_kana":"ニシシンジュクシンジュクアイランドタワー","prefecture_code":13},"1329":{"zip_code":"1631329","prefecture":"東京都","prefecture_kana":"トウキョウト","city":"新宿区","city_kana":"シンジュクク","town":"西新宿新宿アイランドタワー","town_kana":"ニシシンジュクシンジュクアイランドタワー","prefecture_code":13},"1330":{"zip_code":"1631330","prefecture":"東京都","prefecture_kana":"トウキョウト","city":"新宿区","city_kana":"シンジュクク","town":"西新宿新宿アイランドタワー","town_kana":"ニシシンジュクシンジュクアイランドタワー","prefecture_code":13},"1331":{"zip_code":"1631331","prefecture":"東京都","prefecture_kana":"トウキョウト","city":"新宿区","city_kana":"シンジュクク","town":"西新宿新宿アイランドタワー","town_kana":"ニシシンジュクシンジュクアイランドタワー","prefecture_code":13},"1332":{"zip_code":"1631332","prefecture":"東京都","prefecture_kana":"トウキョウト","city":"新宿区","city_kana":"シンジュクク","town":"西新宿新宿アイランドタワー","town_kana":"ニシシンジュクシンジュクアイランドタワー","prefecture_code":13},"1333":{"zip_code":"1631333","prefecture":"東京都","prefecture_kana":"トウキョウト","city":"新宿区","city_kana":"シンジュクク","town":"西新宿新宿アイランドタワー","town_kana":"ニシシンジュクシンジュクアイランドタワー","prefecture_code":13},"1334":{"zip_code":"1631334","prefecture":"東京都","prefecture_kana":"トウキョウト","city":"新宿区","city_kana":"シンジュクク","town":"西新宿新宿アイランドタワー","town_kana":"ニシシンジュクシンジュクアイランドタワー","prefecture_code":13},"1335":{"zip_code":"1631335","prefecture":"東京都","prefecture_kana":"トウキョウト","city":"新宿区","city_kana":"シンジュクク","town":"西新宿新宿アイランドタワー","town_kana":"ニシシンジュクシンジュクアイランドタワー","prefecture_code":13},"1336":{"zip_code":"1631336","prefecture":"東京都","prefecture_kana":"トウキョウト","city":"新宿区","city_kana":"シンジュクク","town":"西新宿新宿アイランドタワー","town_kana":"ニシシンジュクシンジュクアイランドタワー","prefecture_code":13},"1337":{"zip_code":"1631337","prefecture":"東京都","prefecture_kana":"トウキョウト","city":"新宿区","city_kana":"シンジュクク","town":"西新宿新宿アイランドタワー","town_kana":"ニシシンジュクシンジュクアイランドタワー","prefecture_code":13},"1338":{"zip_code":"1631338","prefecture":"東京都","prefecture_kana":"トウキョウト","city":"新宿区","city_kana":"シンジュクク","town":"西新宿新宿アイランドタワー","town_kana":"ニシシンジュクシンジュクアイランドタワー","prefecture_code":13},"1339":{"zip_code":"1631339","prefecture":"東京都","prefecture_kana":"トウキョウト","city":"新宿区","city_kana":"シンジュクク","town":"西新宿新宿アイランドタワー","town_kana":"ニシシンジュクシンジュクアイランドタワー","prefecture_code":13},"1340":{"zip_code":"1631340","prefecture":"東京都","prefecture_kana":"トウキョウト","city":"新宿区","city_kana":"シンジュクク","town":"西新宿新宿アイランドタワー","town_kana":"ニシシンジュクシンジュクアイランドタワー","prefecture_code":13},"1341":{"zip_code":"1631341","prefecture":"東京都","prefecture_kana":"トウキョウト","city":"新宿区","city_kana":"シンジュクク","town":"西新宿新宿アイランドタワー","town_kana":"ニシシンジュクシンジュクアイランドタワー","prefecture_code":13},"1342":{"zip_code":"1631342","prefecture":"東京都","prefecture_kana":"トウキョウト","city":"新宿区","city_kana":"シンジュクク","town":"西新宿新宿アイランドタワー","town_kana":"ニシシンジュクシンジュクアイランドタワー","prefecture_code":13},"1343":{"zip_code":"1631343","prefecture":"東京都","prefecture_kana":"トウキョウト","city":"新宿区","city_kana":"シンジュクク","town":"西新宿新宿アイランドタワー","town_kana":"ニシシンジュクシンジュクアイランドタワー","prefecture_code":13},"1344":{"zip_code":"1631344","prefecture":"東京都","prefecture_kana":"トウキョウト","city":"新宿区","city_kana":"シンジュクク","town":"西新宿新宿アイランドタワー","town_kana":"ニシシンジュクシンジュクアイランドタワー","prefecture_code":13},"0890":{"zip_code":"1630890","prefecture":"東京都","prefecture_kana":"トウキョウト","city":"新宿区","city_kana":"シンジュクク","town":"西新宿新宿ＮＳビル","town_kana":"ニシシンジュクシンジュクエヌエスビル","prefecture_code":13},"0801":{"zip_code":"1630801","prefecture":"東京都","prefecture_kana":"トウキョウト","city":"新宿区","city_kana":"シンジュクク","town":"西新宿新宿ＮＳビル","town_kana":"ニシシンジュクシンジュクエヌエスビル","prefecture_code":13},"0802":{"zip_code":"1630802","prefecture":"東京都","prefecture_kana":"トウキョウト","city":"新宿区","city_kana":"シンジュクク","town":"西新宿新宿ＮＳビル","town_kana":"ニシシンジュクシンジュクエヌエスビル","prefecture_code":13},"0803":{"zip_code":"1630803","prefecture":"東京都","prefecture_kana":"トウキョウト","city":"新宿区","city_kana":"シンジュクク","town":"西新宿新宿ＮＳビル","town_kana":"ニシシンジュクシンジュクエヌエスビル","prefecture_code":13},"0804":{"zip_code":"1630804","prefecture":"東京都","prefecture_kana":"トウキョウト","city":"新宿区","city_kana":"シンジュクク","town":"西新宿新宿ＮＳビル","town_kana":"ニシシンジュクシンジュクエヌエスビル","prefecture_code":13},"0805":{"zip_code":"1630805","prefecture":"東京都","prefecture_kana":"トウキョウト","city":"新宿区","city_kana":"シンジュクク","town":"西新宿新宿ＮＳビル","town_kana":"ニシシンジュクシンジュクエヌエスビル","prefecture_code":13},"0806":{"zip_code":"1630806","prefecture":"東京都","prefecture_kana":"トウキョウト","city":"新宿区","city_kana":"シンジュクク","town":"西新宿新宿ＮＳビル","town_kana":"ニシシンジュクシンジュクエヌエスビル","prefecture_code":13},"0807":{"zip_code":"1630807","prefecture":"東京都","prefecture_kana":"トウキョウト","city":"新宿区","city_kana":"シンジュクク","town":"西新宿新宿ＮＳビル","town_kana":"ニシシンジュクシンジュクエヌエスビル","prefecture_code":13},"0808":{"zip_code":"1630808","prefecture":"東京都","prefecture_kana":"トウキョウト","city":"新宿区","city_kana":"シンジュクク","town":"西新宿新宿ＮＳビル","town_kana":"ニシシンジュクシンジュクエヌエスビル","prefecture_code":13},"0809":{"zip_code":"1630809","prefecture":"東京都","prefecture_kana":"トウキョウト","city":"新宿区","city_kana":"シンジュクク","town":"西新宿新宿ＮＳビル","town_kana":"ニシシンジュクシンジュクエヌエスビル","prefecture_code":13},"0810":{"zip_code":"1630810","prefecture":"東京都","prefecture_kana":"トウキョウト","city":"新宿区","city_kana":"シンジュクク","town":"西新宿新宿ＮＳビル","town_kana":"ニシシンジュクシンジュクエヌエスビル","prefecture_code":13},"0811":{"zip_code":"1630811","prefecture":"東京都","prefecture_kana":"トウキョウト","city":"新宿区","city_kana":"シンジュクク","town":"西新宿新宿ＮＳビル","town_kana":"ニシシンジュクシンジュクエヌエスビル","prefecture_code":13},"0812":{"zip_code":"1630812","prefecture":"東京都","prefecture_kana":"トウキョウト","city":"新宿区","city_kana":"シンジュクク","town":"西新宿新宿ＮＳビル","town_kana":"ニシシンジュクシンジュクエヌエスビル","prefecture_code":13},"0813":{"zip_code":"1630813","prefecture":"東京都","prefecture_kana":"トウキョウト","city":"新宿区","city_kana":"シンジュクク","town":"西新宿新宿ＮＳビル","town_kana":"ニシシンジュクシンジュクエヌエスビル","prefecture_code":13},"0814":{"zip_code":"1630814","prefecture":"東京都","prefecture_kana":"トウキョウト","city":"新宿区","city_kana":"シンジュクク","town":"西新宿新宿ＮＳビル","town_kana":"ニシシンジュクシンジュクエヌエスビル","prefecture_code":13},"0815":{"zip_code":"1630815","prefecture":"東京都","prefecture_kana":"トウキョウト","city":"新宿区","city_kana":"シンジュクク","town":"西新宿新宿ＮＳビル","town_kana":"ニシシンジュクシンジュクエヌエスビル","prefecture_code":13},"0816":{"zip_code":"1630816","prefecture":"東京都","prefecture_kana":"トウキョウト","city":"新宿区","city_kana":"シンジュクク","town":"西新宿新宿ＮＳビル","town_kana":"ニシシンジュクシンジュクエヌエスビル","prefecture_code":13},"0817":{"zip_code":"1630817","prefecture":"東京都","prefecture_kana":"トウキョウト","city":"新宿区","city_kana":"シンジュクク","town":"西新宿新宿ＮＳビル","town_kana":"ニシシンジュクシンジュクエヌエスビル","prefecture_code":13},"0818":{"zip_code":"1630818","prefecture":"東京都","prefecture_kana":"トウキョウト","city":"新宿区","city_kana":"シンジュクク","town":"西新宿新宿ＮＳビル","town_kana":"ニシシンジュクシンジュクエヌエスビル","prefecture_code":13},"0819":{"zip_code":"1630819","prefecture":"東京都","prefecture_kana":"トウキョウト","city":"新宿区","city_kana":"シンジュクク","town":"西新宿新宿ＮＳビル","town_kana":"ニシシンジュクシンジュクエヌエスビル","prefecture_code":13},"0820":{"zip_code":"1630820","prefecture":"東京都","prefecture_kana":"トウキョウト","city":"新宿区","city_kana":"シンジュクク","town":"西新宿新宿ＮＳビル","town_kana":"ニシシンジュクシンジュクエヌエスビル","prefecture_code":13},"0821":{"zip_code":"1630821","prefecture":"東京都","prefecture_kana":"トウキョウト","city":"新宿区","city_kana":"シンジュクク","town":"西新宿新宿ＮＳビル","town_kana":"ニシシンジュクシンジュクエヌエスビル","prefecture_code":13},"0822":{"zip_code":"1630822","prefecture":"東京都","prefecture_kana":"トウキョウト","city":"新宿区","city_kana":"シンジュクク","town":"西新宿新宿ＮＳビル","town_kana":"ニシシンジュクシンジュクエヌエスビル","prefecture_code":13},"0823":{"zip_code":"1630823","prefecture":"東京都","prefecture_kana":"トウキョウト","city":"新宿区","city_kana":"シンジュクク","town":"西新宿新宿ＮＳビル","town_kana":"ニシシンジュクシンジュクエヌエスビル","prefecture_code":13},"0824":{"zip_code":"1630824","prefecture":"東京都","prefecture_kana":"トウキョウト","city":"新宿区","city_kana":"シンジュクク","town":"西新宿新宿ＮＳビル","town_kana":"ニシシンジュクシンジュクエヌエスビル","prefecture_code":13},"0825":{"zip_code":"1630825","prefecture":"東京都","prefecture_kana":"トウキョウト","city":"新宿区","city_kana":"シンジュクク","town":"西新宿新宿ＮＳビル","town_kana":"ニシシンジュクシンジュクエヌエスビル","prefecture_code":13},"0826":{"zip_code":"1630826","prefecture":"東京都","prefecture_kana":"トウキョウト","city":"新宿区","city_kana":"シンジュクク","town":"西新宿新宿ＮＳビル","town_kana":"ニシシンジュクシンジュクエヌエスビル","prefecture_code":13},"0827":{"zip_code":"1630827","prefecture":"東京都","prefecture_kana":"トウキョウト","city":"新宿区","city_kana":"シンジュクク","town":"西新宿新宿ＮＳビル","town_kana":"ニシシンジュクシンジュクエヌエスビル","prefecture_code":13},"0828":{"zip_code":"1630828","prefecture":"東京都","prefecture_kana":"トウキョウト","city":"新宿区","city_kana":"シンジュクク","town":"西新宿新宿ＮＳビル","town_kana":"ニシシンジュクシンジュクエヌエスビル","prefecture_code":13},"0829":{"zip_code":"1630829","prefecture":"東京都","prefecture_kana":"トウキョウト","city":"新宿区","city_kana":"シンジュクク","town":"西新宿新宿ＮＳビル","town_kana":"ニシシンジュクシンジュクエヌエスビル","prefecture_code":13},"0830":{"zip_code":"1630830","prefecture":"東京都","prefecture_kana":"トウキョウト","city":"新宿区","city_kana":"シンジュクク","town":"西新宿新宿ＮＳビル","town_kana":"ニシシンジュクシンジュクエヌエスビル","prefecture_code":13},"1590":{"zip_code":"1631590","prefecture":"東京都","prefecture_kana":"トウキョウト","city":"新宿区","city_kana":"シンジュクク","town":"西新宿新宿エルタワー","town_kana":"ニシシンジュクシンジュクエルタワー","prefecture_code":13},"1501":{"zip_code":"1631501","prefecture":"東京都","prefecture_kana":"トウキョウト","city":"新宿区","city_kana":"シンジュクク","town":"西新宿新宿エルタワー","town_kana":"ニシシンジュクシンジュクエルタワー","prefecture_code":13},"1502":{"zip_code":"1631502","prefecture":"東京都","prefecture_kana":"トウキョウト","city":"新宿区","city_kana":"シンジュクク","town":"西新宿新宿エルタワー","town_kana":"ニシシンジュクシンジュクエルタワー","prefecture_code":13},"1503":{"zip_code":"1631503","prefecture":"東京都","prefecture_kana":"トウキョウト","city":"新宿区","city_kana":"シンジュクク","town":"西新宿新宿エルタワー","town_kana":"ニシシンジュクシンジュクエルタワー","prefecture_code":13},"1504":{"zip_code":"1631504","prefecture":"東京都","prefecture_kana":"トウキョウト","city":"新宿区","city_kana":"シンジュクク","town":"西新宿新宿エルタワー","town_kana":"ニシシンジュクシンジュクエルタワー","prefecture_code":13},"1505":{"zip_code":"1631505","prefecture":"東京都","prefecture_kana":"トウキョウト","city":"新宿区","city_kana":"シンジュクク","town":"西新宿新宿エルタワー","town_kana":"ニシシンジュクシンジュクエルタワー","prefecture_code":13},"1506":{"zip_code":"1631506","prefecture":"東京都","prefecture_kana":"トウキョウト","city":"新宿区","city_kana":"シンジュクク","town":"西新宿新宿エルタワー","town_kana":"ニシシンジュクシンジュクエルタワー","prefecture_code":13},"1507":{"zip_code":"1631507","prefecture":"東京都","prefecture_kana":"トウキョウト","city":"新宿区","city_kana":"シンジュクク","town":"西新宿新宿エルタワー","town_kana":"ニシシンジュクシンジュクエルタワー","prefecture_code":13},"1508":{"zip_code":"1631508","prefecture":"東京都","prefecture_kana":"トウキョウト","city":"新宿区","city_kana":"シンジュクク","town":"西新宿新宿エルタワー","town_kana":"ニシシンジュクシンジュクエルタワー","prefecture_code":13},"1509":{"zip_code":"1631509","prefecture":"東京都","prefecture_kana":"トウキョウト","city":"新宿区","city_kana":"シンジュクク","town":"西新宿新宿エルタワー","town_kana":"ニシシンジュクシンジュクエルタワー","prefecture_code":13},"1510":{"zip_code":"1631510","prefecture":"東京都","prefecture_kana":"トウキョウト","city":"新宿区","city_kana":"シンジュクク","town":"西新宿新宿エルタワー","town_kana":"ニシシンジュクシンジュクエルタワー","prefecture_code":13},"1511":{"zip_code":"1631511","prefecture":"東京都","prefecture_kana":"トウキョウト","city":"新宿区","city_kana":"シンジュクク","town":"西新宿新宿エルタワー","town_kana":"ニシシンジュクシンジュクエルタワー","prefecture_code":13},"1512":{"zip_code":"1631512","prefecture":"東京都","prefecture_kana":"トウキョウト","city":"新宿区","city_kana":"シンジュクク","town":"西新宿新宿エルタワー","town_kana":"ニシシンジュクシンジュクエルタワー","prefecture_code":13},"1513":{"zip_code":"1631513","prefecture":"東京都","prefecture_kana":"トウキョウト","city":"新宿区","city_kana":"シンジュクク","town":"西新宿新宿エルタワー","town_kana":"ニシシンジュクシンジュクエルタワー","prefecture_code":13},"1514":{"zip_code":"1631514","prefecture":"東京都","prefecture_kana":"トウキョウト","city":"新宿区","city_kana":"シンジュクク","town":"西新宿新宿エルタワー","town_kana":"ニシシンジュクシンジュクエルタワー","prefecture_code":13},"1515":{"zip_code":"1631515","prefecture":"東京都","prefecture_kana":"トウキョウト","city":"新宿区","city_kana":"シンジュクク","town":"西新宿新宿エルタワー","town_kana":"ニシシンジュクシンジュクエルタワー","prefecture_code":13},"1516":{"zip_code":"1631516","prefecture":"東京都","prefecture_kana":"トウキョウト","city":"新宿区","city_kana":"シンジュクク","town":"西新宿新宿エルタワー","town_kana":"ニシシンジュクシンジュクエルタワー","prefecture_code":13},"1517":{"zip_code":"1631517","prefecture":"東京都","prefecture_kana":"トウキョウト","city":"新宿区","city_kana":"シンジュクク","town":"西新宿新宿エルタワー","town_kana":"ニシシンジュクシンジュクエルタワー","prefecture_code":13},"1518":{"zip_code":"1631518","prefecture":"東京都","prefecture_kana":"トウキョウト","city":"新宿区","city_kana":"シンジュクク","town":"西新宿新宿エルタワー","town_kana":"ニシシンジュクシンジュクエルタワー","prefecture_code":13},"1519":{"zip_code":"1631519","prefecture":"東京都","prefecture_kana":"トウキョウト","city":"新宿区","city_kana":"シンジュクク","town":"西新宿新宿エルタワー","town_kana":"ニシシンジュクシンジュクエルタワー","prefecture_code":13},"1520":{"zip_code":"1631520","prefecture":"東京都","prefecture_kana":"トウキョウト","city":"新宿区","city_kana":"シンジュクク","town":"西新宿新宿エルタワー","town_kana":"ニシシンジュクシンジュクエルタワー","prefecture_code":13},"1521":{"zip_code":"1631521","prefecture":"東京都","prefecture_kana":"トウキョウト","city":"新宿区","city_kana":"シンジュクク","town":"西新宿新宿エルタワー","town_kana":"ニシシンジュクシンジュクエルタワー","prefecture_code":13},"1522":{"zip_code":"1631522","prefecture":"東京都","prefecture_kana":"トウキョウト","city":"新宿区","city_kana":"シンジュクク","town":"西新宿新宿エルタワー","town_kana":"ニシシンジュクシンジュクエルタワー","prefecture_code":13},"1523":{"zip_code":"1631523","prefecture":"東京都","prefecture_kana":"トウキョウト","city":"新宿区","city_kana":"シンジュクク","town":"西新宿新宿エルタワー","town_kana":"ニシシンジュクシンジュクエルタワー","prefecture_code":13},"1524":{"zip_code":"1631524","prefecture":"東京都","prefecture_kana":"トウキョウト","city":"新宿区","city_kana":"シンジュクク","town":"西新宿新宿エルタワー","town_kana":"ニシシンジュクシンジュクエルタワー","prefecture_code":13},"1525":{"zip_code":"1631525","prefecture":"東京都","prefecture_kana":"トウキョウト","city":"新宿区","city_kana":"シンジュクク","town":"西新宿新宿エルタワー","town_kana":"ニシシンジュクシンジュクエルタワー","prefecture_code":13},"1526":{"zip_code":"1631526","prefecture":"東京都","prefecture_kana":"トウキョウト","city":"新宿区","city_kana":"シンジュクク","town":"西新宿新宿エルタワー","town_kana":"ニシシンジュクシンジュクエルタワー","prefecture_code":13},"1527":{"zip_code":"1631527","prefecture":"東京都","prefecture_kana":"トウキョウト","city":"新宿区","city_kana":"シンジュクク","town":"西新宿新宿エルタワー","town_kana":"ニシシンジュクシンジュクエルタワー","prefecture_code":13},"1528":{"zip_code":"1631528","prefecture":"東京都","prefecture_kana":"トウキョウト","city":"新宿区","city_kana":"シンジュクク","town":"西新宿新宿エルタワー","town_kana":"ニシシンジュクシンジュクエルタワー","prefecture_code":13},"1529":{"zip_code":"1631529","prefecture":"東京都","prefecture_kana":"トウキョウト","city":"新宿区","city_kana":"シンジュクク","town":"西新宿新宿エルタワー","town_kana":"ニシシンジュクシンジュクエルタワー","prefecture_code":13},"1530":{"zip_code":"1631530","prefecture":"東京都","prefecture_kana":"トウキョウト","city":"新宿区","city_kana":"シンジュクク","town":"西新宿新宿エルタワー","town_kana":"ニシシンジュクシンジュクエルタワー","prefecture_code":13},"1531":{"zip_code":"1631531","prefecture":"東京都","prefecture_kana":"トウキョウト","city":"新宿区","city_kana":"シンジュクク","town":"西新宿新宿エルタワー","town_kana":"ニシシンジュクシンジュクエルタワー","prefecture_code":13},"1190":{"zip_code":"1631190","prefecture":"東京都","prefecture_kana":"トウキョウト","city":"新宿区","city_kana":"シンジュクク","town":"西新宿新宿スクエアタワー","town_kana":"ニシシンジュクシンジュクスクエアタワー","prefecture_code":13},"1101":{"zip_code":"1631101","prefecture":"東京都","prefecture_kana":"トウキョウト","city":"新宿区","city_kana":"シンジュクク","town":"西新宿新宿スクエアタワー","town_kana":"ニシシンジュクシンジュクスクエアタワー","prefecture_code":13},"1102":{"zip_code":"1631102","prefecture":"東京都","prefecture_kana":"トウキョウト","city":"新宿区","city_kana":"シンジュクク","town":"西新宿新宿スクエアタワー","town_kana":"ニシシンジュクシンジュクスクエアタワー","prefecture_code":13},"1103":{"zip_code":"1631103","prefecture":"東京都","prefecture_kana":"トウキョウト","city":"新宿区","city_kana":"シンジュクク","town":"西新宿新宿スクエアタワー","town_kana":"ニシシンジュクシンジュクスクエアタワー","prefecture_code":13},"1104":{"zip_code":"1631104","prefecture":"東京都","prefecture_kana":"トウキョウト","city":"新宿区","city_kana":"シンジュクク","town":"西新宿新宿スクエアタワー","town_kana":"ニシシンジュクシンジュクスクエアタワー","prefecture_code":13},"1105":{"zip_code":"1631105","prefecture":"東京都","prefecture_kana":"トウキョウト","city":"新宿区","city_kana":"シンジュクク","town":"西新宿新宿スクエアタワー","town_kana":"ニシシンジュクシンジュクスクエアタワー","prefecture_code":13},"1106":{"zip_code":"1631106","prefecture":"東京都","prefecture_kana":"トウキョウト","city":"新宿区","city_kana":"シンジュクク","town":"西新宿新宿スクエアタワー","town_kana":"ニシシンジュクシンジュクスクエアタワー","prefecture_code":13},"1107":{"zip_code":"1631107","prefecture":"東京都","prefecture_kana":"トウキョウト","city":"新宿区","city_kana":"シンジュクク","town":"西新宿新宿スクエアタワー","town_kana":"ニシシンジュクシンジュクスクエアタワー","prefecture_code":13},"1108":{"zip_code":"1631108","prefecture":"東京都","prefecture_kana":"トウキョウト","city":"新宿区","city_kana":"シンジュクク","town":"西新宿新宿スクエアタワー","town_kana":"ニシシンジュクシンジュクスクエアタワー","prefecture_code":13},"1109":{"zip_code":"1631109","prefecture":"東京都","prefecture_kana":"トウキョウト","city":"新宿区","city_kana":"シンジュクク","town":"西新宿新宿スクエアタワー","town_kana":"ニシシンジュクシンジュクスクエアタワー","prefecture_code":13},"1110":{"zip_code":"1631110","prefecture":"東京都","prefecture_kana":"トウキョウト","city":"新宿区","city_kana":"シンジュクク","town":"西新宿新宿スクエアタワー","town_kana":"ニシシンジュクシンジュクスクエアタワー","prefecture_code":13},"1111":{"zip_code":"1631111","prefecture":"東京都","prefecture_kana":"トウキョウト","city":"新宿区","city_kana":"シンジュクク","town":"西新宿新宿スクエアタワー","town_kana":"ニシシンジュクシンジュクスクエアタワー","prefecture_code":13},"1112":{"zip_code":"1631112","prefecture":"東京都","prefecture_kana":"トウキョウト","city":"新宿区","city_kana":"シンジュクク","town":"西新宿新宿スクエアタワー","town_kana":"ニシシンジュクシンジュクスクエアタワー","prefecture_code":13},"1113":{"zip_code":"1631113","prefecture":"東京都","prefecture_kana":"トウキョウト","city":"新宿区","city_kana":"シンジュクク","town":"西新宿新宿スクエアタワー","town_kana":"ニシシンジュクシンジュクスクエアタワー","prefecture_code":13},"1114":{"zip_code":"1631114","prefecture":"東京都","prefecture_kana":"トウキョウト","city":"新宿区","city_kana":"シンジュクク","town":"西新宿新宿スクエアタワー","town_kana":"ニシシンジュクシンジュクスクエアタワー","prefecture_code":13},"1115":{"zip_code":"1631115","prefecture":"東京都","prefecture_kana":"トウキョウト","city":"新宿区","city_kana":"シンジュクク","town":"西新宿新宿スクエアタワー","town_kana":"ニシシンジュクシンジュクスクエアタワー","prefecture_code":13},"1116":{"zip_code":"1631116","prefecture":"東京都","prefecture_kana":"トウキョウト","city":"新宿区","city_kana":"シンジュクク","town":"西新宿新宿スクエアタワー","town_kana":"ニシシンジュクシンジュクスクエアタワー","prefecture_code":13},"1117":{"zip_code":"1631117","prefecture":"東京都","prefecture_kana":"トウキョウト","city":"新宿区","city_kana":"シンジュクク","town":"西新宿新宿スクエアタワー","town_kana":"ニシシンジュクシンジュクスクエアタワー","prefecture_code":13},"1118":{"zip_code":"1631118","prefecture":"東京都","prefecture_kana":"トウキョウト","city":"新宿区","city_kana":"シンジュクク","town":"西新宿新宿スクエアタワー","town_kana":"ニシシンジュクシンジュクスクエアタワー","prefecture_code":13},"1119":{"zip_code":"1631119","prefecture":"東京都","prefecture_kana":"トウキョウト","city":"新宿区","city_kana":"シンジュクク","town":"西新宿新宿スクエアタワー","town_kana":"ニシシンジュクシンジュクスクエアタワー","prefecture_code":13},"1120":{"zip_code":"1631120","prefecture":"東京都","prefecture_kana":"トウキョウト","city":"新宿区","city_kana":"シンジュクク","town":"西新宿新宿スクエアタワー","town_kana":"ニシシンジュクシンジュクスクエアタワー","prefecture_code":13},"1121":{"zip_code":"1631121","prefecture":"東京都","prefecture_kana":"トウキョウト","city":"新宿区","city_kana":"シンジュクク","town":"西新宿新宿スクエアタワー","town_kana":"ニシシンジュクシンジュクスクエアタワー","prefecture_code":13},"1122":{"zip_code":"1631122","prefecture":"東京都","prefecture_kana":"トウキョウト","city":"新宿区","city_kana":"シンジュクク","town":"西新宿新宿スクエアタワー","town_kana":"ニシシンジュクシンジュクスクエアタワー","prefecture_code":13},"1123":{"zip_code":"1631123","prefecture":"東京都","prefecture_kana":"トウキョウト","city":"新宿区","city_kana":"シンジュクク","town":"西新宿新宿スクエアタワー","town_kana":"ニシシンジュクシンジュクスクエアタワー","prefecture_code":13},"1124":{"zip_code":"1631124","prefecture":"東京都","prefecture_kana":"トウキョウト","city":"新宿区","city_kana":"シンジュクク","town":"西新宿新宿スクエアタワー","town_kana":"ニシシンジュクシンジュクスクエアタワー","prefecture_code":13},"1125":{"zip_code":"1631125","prefecture":"東京都","prefecture_kana":"トウキョウト","city":"新宿区","city_kana":"シンジュクク","town":"西新宿新宿スクエアタワー","town_kana":"ニシシンジュクシンジュクスクエアタワー","prefecture_code":13},"1126":{"zip_code":"1631126","prefecture":"東京都","prefecture_kana":"トウキョウト","city":"新宿区","city_kana":"シンジュクク","town":"西新宿新宿スクエアタワー","town_kana":"ニシシンジュクシンジュクスクエアタワー","prefecture_code":13},"1127":{"zip_code":"1631127","prefecture":"東京都","prefecture_kana":"トウキョウト","city":"新宿区","city_kana":"シンジュクク","town":"西新宿新宿スクエアタワー","town_kana":"ニシシンジュクシンジュクスクエアタワー","prefecture_code":13},"1128":{"zip_code":"1631128","prefecture":"東京都","prefecture_kana":"トウキョウト","city":"新宿区","city_kana":"シンジュクク","town":"西新宿新宿スクエアタワー","town_kana":"ニシシンジュクシンジュクスクエアタワー","prefecture_code":13},"1129":{"zip_code":"1631129","prefecture":"東京都","prefecture_kana":"トウキョウト","city":"新宿区","city_kana":"シンジュクク","town":"西新宿新宿スクエアタワー","town_kana":"ニシシンジュクシンジュクスクエアタワー","prefecture_code":13},"1130":{"zip_code":"1631130","prefecture":"東京都","prefecture_kana":"トウキョウト","city":"新宿区","city_kana":"シンジュクク","town":"西新宿新宿スクエアタワー","town_kana":"ニシシンジュクシンジュクスクエアタワー","prefecture_code":13},"0290":{"zip_code":"1630290","prefecture":"東京都","prefecture_kana":"トウキョウト","city":"新宿区","city_kana":"シンジュクク","town":"西新宿新宿住友ビル","town_kana":"ニシシンジュクシンジュクスミトモビル","prefecture_code":13},"0201":{"zip_code":"1630201","prefecture":"東京都","prefecture_kana":"トウキョウト","city":"新宿区","city_kana":"シンジュクク","town":"西新宿新宿住友ビル","town_kana":"ニシシンジュクシンジュクスミトモビル","prefecture_code":13},"0202":{"zip_code":"1630202","prefecture":"東京都","prefecture_kana":"トウキョウト","city":"新宿区","city_kana":"シンジュクク","town":"西新宿新宿住友ビル","town_kana":"ニシシンジュクシンジュクスミトモビル","prefecture_code":13},"0203":{"zip_code":"1630203","prefecture":"東京都","prefecture_kana":"トウキョウト","city":"新宿区","city_kana":"シンジュクク","town":"西新宿新宿住友ビル","town_kana":"ニシシンジュクシンジュクスミトモビル","prefecture_code":13},"0204":{"zip_code":"1630204","prefecture":"東京都","prefecture_kana":"トウキョウト","city":"新宿区","city_kana":"シンジュクク","town":"西新宿新宿住友ビル","town_kana":"ニシシンジュクシンジュクスミトモビル","prefecture_code":13},"0205":{"zip_code":"1630205","prefecture":"東京都","prefecture_kana":"トウキョウト","city":"新宿区","city_kana":"シンジュクク","town":"西新宿新宿住友ビル","town_kana":"ニシシンジュクシンジュクスミトモビル","prefecture_code":13},"0206":{"zip_code":"1630206","prefecture":"東京都","prefecture_kana":"トウキョウト","city":"新宿区","city_kana":"シンジュクク","town":"西新宿新宿住友ビル","town_kana":"ニシシンジュクシンジュクスミトモビル","prefecture_code":13},"0207":{"zip_code":"1630207","prefecture":"東京都","prefecture_kana":"トウキョウト","city":"新宿区","city_kana":"シンジュクク","town":"西新宿新宿住友ビル","town_kana":"ニシシンジュクシンジュクスミトモビル","prefecture_code":13},"0208":{"zip_code":"1630208","prefecture":"東京都","prefecture_kana":"トウキョウト","city":"新宿区","city_kana":"シンジュクク","town":"西新宿新宿住友ビル","town_kana":"ニシシンジュクシンジュクスミトモビル","prefecture_code":13},"0209":{"zip_code":"1630209","prefecture":"東京都","prefecture_kana":"トウキョウト","city":"新宿区","city_kana":"シンジュクク","town":"西新宿新宿住友ビル","town_kana":"ニシシンジュクシンジュクスミトモビル","prefecture_code":13},"0210":{"zip_code":"1630210","prefecture":"東京都","prefecture_kana":"トウキョウト","city":"新宿区","city_kana":"シンジュクク","town":"西新宿新宿住友ビル","town_kana":"ニシシンジュクシンジュクスミトモビル","prefecture_code":13},"0211":{"zip_code":"1630211","prefecture":"東京都","prefecture_kana":"トウキョウト","city":"新宿区","city_kana":"シンジュクク","town":"西新宿新宿住友ビル","town_kana":"ニシシンジュクシンジュクスミトモビル","prefecture_code":13},"0212":{"zip_code":"1630212","prefecture":"東京都","prefecture_kana":"トウキョウト","city":"新宿区","city_kana":"シンジュクク","town":"西新宿新宿住友ビル","town_kana":"ニシシンジュクシンジュクスミトモビル","prefecture_code":13},"0213":{"zip_code":"1630213","prefecture":"東京都","prefecture_kana":"トウキョウト","city":"新宿区","city_kana":"シンジュクク","town":"西新宿新宿住友ビル","town_kana":"ニシシンジュクシンジュクスミトモビル","prefecture_code":13},"0214":{"zip_code":"1630214","prefecture":"東京都","prefecture_kana":"トウキョウト","city":"新宿区","city_kana":"シンジュクク","town":"西新宿新宿住友ビル","town_kana":"ニシシンジュクシンジュクスミトモビル","prefecture_code":13},"0215":{"zip_code":"1630215","prefecture":"東京都","prefecture_kana":"トウキョウト","city":"新宿区","city_kana":"シンジュクク","town":"西新宿新宿住友ビル","town_kana":"ニシシンジュクシンジュクスミトモビル","prefecture_code":13},"0216":{"zip_code":"1630216","prefecture":"東京都","prefecture_kana":"トウキョウト","city":"新宿区","city_kana":"シンジュクク","town":"西新宿新宿住友ビル","town_kana":"ニシシンジュクシンジュクスミトモビル","prefecture_code":13},"0217":{"zip_code":"1630217","prefecture":"東京都","prefecture_kana":"トウキョウト","city":"新宿区","city_kana":"シンジュクク","town":"西新宿新宿住友ビル","town_kana":"ニシシンジュクシンジュクスミトモビル","prefecture_code":13},"0218":{"zip_code":"1630218","prefecture":"東京都","prefecture_kana":"トウキョウト","city":"新宿区","city_kana":"シンジュクク","town":"西新宿新宿住友ビル","town_kana":"ニシシンジュクシンジュクスミトモビル","prefecture_code":13},"0219":{"zip_code":"1630219","prefecture":"東京都","prefecture_kana":"トウキョウト","city":"新宿区","city_kana":"シンジュクク","town":"西新宿新宿住友ビル","town_kana":"ニシシンジュクシンジュクスミトモビル","prefecture_code":13},"0220":{"zip_code":"1630220","prefecture":"東京都","prefecture_kana":"トウキョウト","city":"新宿区","city_kana":"シンジュクク","town":"西新宿新宿住友ビル","town_kana":"ニシシンジュクシンジュクスミトモビル","prefecture_code":13},"0221":{"zip_code":"1630221","prefecture":"東京都","prefecture_kana":"トウキョウト","city":"新宿区","city_kana":"シンジュクク","town":"西新宿新宿住友ビル","town_kana":"ニシシンジュクシンジュクスミトモビル","prefecture_code":13},"0222":{"zip_code":"1630222","prefecture":"東京都","prefecture_kana":"トウキョウト","city":"新宿区","city_kana":"シンジュクク","town":"西新宿新宿住友ビル","town_kana":"ニシシンジュクシンジュクスミトモビル","prefecture_code":13},"0223":{"zip_code":"1630223","prefecture":"東京都","prefecture_kana":"トウキョウト","city":"新宿区","city_kana":"シンジュクク","town":"西新宿新宿住友ビル","town_kana":"ニシシンジュクシンジュクスミトモビル","prefecture_code":13},"0224":{"zip_code":"1630224","prefecture":"東京都","prefecture_kana":"トウキョウト","city":"新宿区","city_kana":"シンジュクク","town":"西新宿新宿住友ビル","town_kana":"ニシシンジュクシンジュクスミトモビル","prefecture_code":13},"0225":{"zip_code":"1630225","prefecture":"東京都","prefecture_kana":"トウキョウト","city":"新宿区","city_kana":"シンジュクク","town":"西新宿新宿住友ビル","town_kana":"ニシシンジュクシンジュクスミトモビル","prefecture_code":13},"0226":{"zip_code":"1630226","prefecture":"東京都","prefecture_kana":"トウキョウト","city":"新宿区","city_kana":"シンジュクク","town":"西新宿新宿住友ビル","town_kana":"ニシシンジュクシンジュクスミトモビル","prefecture_code":13},"0227":{"zip_code":"1630227","prefecture":"東京都","prefecture_kana":"トウキョウト","city":"新宿区","city_kana":"シンジュクク","town":"西新宿新宿住友ビル","town_kana":"ニシシンジュクシンジュクスミトモビル","prefecture_code":13},"0228":{"zip_code":"1630228","prefecture":"東京都","prefecture_kana":"トウキョウト","city":"新宿区","city_kana":"シンジュクク","town":"西新宿新宿住友ビル","town_kana":"ニシシンジュクシンジュクスミトモビル","prefecture_code":13},"0229":{"zip_code":"1630229","prefecture":"東京都","prefecture_kana":"トウキョウト","city":"新宿区","city_kana":"シンジュクク","town":"西新宿新宿住友ビル","town_kana":"ニシシンジュクシンジュクスミトモビル","prefecture_code":13},"0230":{"zip_code":"1630230","prefecture":"東京都","prefecture_kana":"トウキョウト","city":"新宿区","city_kana":"シンジュクク","town":"西新宿新宿住友ビル","town_kana":"ニシシンジュクシンジュクスミトモビル","prefecture_code":13},"0231":{"zip_code":"1630231","prefecture":"東京都","prefecture_kana":"トウキョウト","city":"新宿区","city_kana":"シンジュクク","town":"西新宿新宿住友ビル","town_kana":"ニシシンジュクシンジュクスミトモビル","prefecture_code":13},"0232":{"zip_code":"1630232","prefecture":"東京都","prefecture_kana":"トウキョウト","city":"新宿区","city_kana":"シンジュクク","town":"西新宿新宿住友ビル","town_kana":"ニシシンジュクシンジュクスミトモビル","prefecture_code":13},"0233":{"zip_code":"1630233","prefecture":"東京都","prefecture_kana":"トウキョウト","city":"新宿区","city_kana":"シンジュクク","town":"西新宿新宿住友ビル","town_kana":"ニシシンジュクシンジュクスミトモビル","prefecture_code":13},"0234":{"zip_code":"1630234","prefecture":"東京都","prefecture_kana":"トウキョウト","city":"新宿区","city_kana":"シンジュクク","town":"西新宿新宿住友ビル","town_kana":"ニシシンジュクシンジュクスミトモビル","prefecture_code":13},"0235":{"zip_code":"1630235","prefecture":"東京都","prefecture_kana":"トウキョウト","city":"新宿区","city_kana":"シンジュクク","town":"西新宿新宿住友ビル","town_kana":"ニシシンジュクシンジュクスミトモビル","prefecture_code":13},"0236":{"zip_code":"1630236","prefecture":"東京都","prefecture_kana":"トウキョウト","city":"新宿区","city_kana":"シンジュクク","town":"西新宿新宿住友ビル","town_kana":"ニシシンジュクシンジュクスミトモビル","prefecture_code":13},"0237":{"zip_code":"1630237","prefecture":"東京都","prefecture_kana":"トウキョウト","city":"新宿区","city_kana":"シンジュクク","town":"西新宿新宿住友ビル","town_kana":"ニシシンジュクシンジュクスミトモビル","prefecture_code":13},"0238":{"zip_code":"1630238","prefecture":"東京都","prefecture_kana":"トウキョウト","city":"新宿区","city_kana":"シンジュクク","town":"西新宿新宿住友ビル","town_kana":"ニシシンジュクシンジュクスミトモビル","prefecture_code":13},"0239":{"zip_code":"1630239","prefecture":"東京都","prefecture_kana":"トウキョウト","city":"新宿区","city_kana":"シンジュクク","town":"西新宿新宿住友ビル","town_kana":"ニシシンジュクシンジュクスミトモビル","prefecture_code":13},"0240":{"zip_code":"1630240","prefecture":"東京都","prefecture_kana":"トウキョウト","city":"新宿区","city_kana":"シンジュクク","town":"西新宿新宿住友ビル","town_kana":"ニシシンジュクシンジュクスミトモビル","prefecture_code":13},"0241":{"zip_code":"1630241","prefecture":"東京都","prefecture_kana":"トウキョウト","city":"新宿区","city_kana":"シンジュクク","town":"西新宿新宿住友ビル","town_kana":"ニシシンジュクシンジュクスミトモビル","prefecture_code":13},"0242":{"zip_code":"1630242","prefecture":"東京都","prefecture_kana":"トウキョウト","city":"新宿区","city_kana":"シンジュクク","town":"西新宿新宿住友ビル","town_kana":"ニシシンジュクシンジュクスミトモビル","prefecture_code":13},"0243":{"zip_code":"1630243","prefecture":"東京都","prefecture_kana":"トウキョウト","city":"新宿区","city_kana":"シンジュクク","town":"西新宿新宿住友ビル","town_kana":"ニシシンジュクシンジュクスミトモビル","prefecture_code":13},"0244":{"zip_code":"1630244","prefecture":"東京都","prefecture_kana":"トウキョウト","city":"新宿区","city_kana":"シンジュクク","town":"西新宿新宿住友ビル","town_kana":"ニシシンジュクシンジュクスミトモビル","prefecture_code":13},"0245":{"zip_code":"1630245","prefecture":"東京都","prefecture_kana":"トウキョウト","city":"新宿区","city_kana":"シンジュクク","town":"西新宿新宿住友ビル","town_kana":"ニシシンジュクシンジュクスミトモビル","prefecture_code":13},"0246":{"zip_code":"1630246","prefecture":"東京都","prefecture_kana":"トウキョウト","city":"新宿区","city_kana":"シンジュクク","town":"西新宿新宿住友ビル","town_kana":"ニシシンジュクシンジュクスミトモビル","prefecture_code":13},"0247":{"zip_code":"1630247","prefecture":"東京都","prefecture_kana":"トウキョウト","city":"新宿区","city_kana":"シンジュクク","town":"西新宿新宿住友ビル","town_kana":"ニシシンジュクシンジュクスミトモビル","prefecture_code":13},"0248":{"zip_code":"1630248","prefecture":"東京都","prefecture_kana":"トウキョウト","city":"新宿区","city_kana":"シンジュクク","town":"西新宿新宿住友ビル","town_kana":"ニシシンジュクシンジュクスミトモビル","prefecture_code":13},"0249":{"zip_code":"1630249","prefecture":"東京都","prefecture_kana":"トウキョウト","city":"新宿区","city_kana":"シンジュクク","town":"西新宿新宿住友ビル","town_kana":"ニシシンジュクシンジュクスミトモビル","prefecture_code":13},"0250":{"zip_code":"1630250","prefecture":"東京都","prefecture_kana":"トウキョウト","city":"新宿区","city_kana":"シンジュクク","town":"西新宿新宿住友ビル","town_kana":"ニシシンジュクシンジュクスミトモビル","prefecture_code":13},"0251":{"zip_code":"1630251","prefecture":"東京都","prefecture_kana":"トウキョウト","city":"新宿区","city_kana":"シンジュクク","town":"西新宿新宿住友ビル","town_kana":"ニシシンジュクシンジュクスミトモビル","prefecture_code":13},"0252":{"zip_code":"1630252","prefecture":"東京都","prefecture_kana":"トウキョウト","city":"新宿区","city_kana":"シンジュクク","town":"西新宿新宿住友ビル","town_kana":"ニシシンジュクシンジュクスミトモビル","prefecture_code":13},"0690":{"zip_code":"1630690","prefecture":"東京都","prefecture_kana":"トウキョウト","city":"新宿区","city_kana":"シンジュクク","town":"西新宿新宿センタービル","town_kana":"ニシシンジュクシンジュクセンタービル","prefecture_code":13},"0601":{"zip_code":"1630601","prefecture":"東京都","prefecture_kana":"トウキョウト","city":"新宿区","city_kana":"シンジュクク","town":"西新宿新宿センタービル","town_kana":"ニシシンジュクシンジュクセンタービル","prefecture_code":13},"0602":{"zip_code":"1630602","prefecture":"東京都","prefecture_kana":"トウキョウト","city":"新宿区","city_kana":"シンジュクク","town":"西新宿新宿センタービル","town_kana":"ニシシンジュクシンジュクセンタービル","prefecture_code":13},"0603":{"zip_code":"1630603","prefecture":"東京都","prefecture_kana":"トウキョウト","city":"新宿区","city_kana":"シンジュクク","town":"西新宿新宿センタービル","town_kana":"ニシシンジュクシンジュクセンタービル","prefecture_code":13},"0604":{"zip_code":"1630604","prefecture":"東京都","prefecture_kana":"トウキョウト","city":"新宿区","city_kana":"シンジュクク","town":"西新宿新宿センタービル","town_kana":"ニシシンジュクシンジュクセンタービル","prefecture_code":13},"0605":{"zip_code":"1630605","prefecture":"東京都","prefecture_kana":"トウキョウト","city":"新宿区","city_kana":"シンジュクク","town":"西新宿新宿センタービル","town_kana":"ニシシンジュクシンジュクセンタービル","prefecture_code":13},"0606":{"zip_code":"1630606","prefecture":"東京都","prefecture_kana":"トウキョウト","city":"新宿区","city_kana":"シンジュクク","town":"西新宿新宿センタービル","town_kana":"ニシシンジュクシンジュクセンタービル","prefecture_code":13},"0607":{"zip_code":"1630607","prefecture":"東京都","prefecture_kana":"トウキョウト","city":"新宿区","city_kana":"シンジュクク","town":"西新宿新宿センタービル","town_kana":"ニシシンジュクシンジュクセンタービル","prefecture_code":13},"0608":{"zip_code":"1630608","prefecture":"東京都","prefecture_kana":"トウキョウト","city":"新宿区","city_kana":"シンジュクク","town":"西新宿新宿センタービル","town_kana":"ニシシンジュクシンジュクセンタービル","prefecture_code":13},"0609":{"zip_code":"1630609","prefecture":"東京都","prefecture_kana":"トウキョウト","city":"新宿区","city_kana":"シンジュクク","town":"西新宿新宿センタービル","town_kana":"ニシシンジュクシンジュクセンタービル","prefecture_code":13},"0610":{"zip_code":"1630610","prefecture":"東京都","prefecture_kana":"トウキョウト","city":"新宿区","city_kana":"シンジュクク","town":"西新宿新宿センタービル","town_kana":"ニシシンジュクシンジュクセンタービル","prefecture_code":13},"0611":{"zip_code":"1630611","prefecture":"東京都","prefecture_kana":"トウキョウト","city":"新宿区","city_kana":"シンジュクク","town":"西新宿新宿センタービル","town_kana":"ニシシンジュクシンジュクセンタービル","prefecture_code":13},"0612":{"zip_code":"1630612","prefecture":"東京都","prefecture_kana":"トウキョウト","city":"新宿区","city_kana":"シンジュクク","town":"西新宿新宿センタービル","town_kana":"ニシシンジュクシンジュクセンタービル","prefecture_code":13},"0613":{"zip_code":"1630613","prefecture":"東京都","prefecture_kana":"トウキョウト","city":"新宿区","city_kana":"シンジュクク","town":"西新宿新宿センタービル","town_kana":"ニシシンジュクシンジュクセンタービル","prefecture_code":13},"0614":{"zip_code":"1630614","prefecture":"東京都","prefecture_kana":"トウキョウト","city":"新宿区","city_kana":"シンジュクク","town":"西新宿新宿センタービル","town_kana":"ニシシンジュクシンジュクセンタービル","prefecture_code":13},"0615":{"zip_code":"1630615","prefecture":"東京都","prefecture_kana":"トウキョウト","city":"新宿区","city_kana":"シンジュクク","town":"西新宿新宿センタービル","town_kana":"ニシシンジュクシンジュクセンタービル","prefecture_code":13},"0616":{"zip_code":"1630616","prefecture":"東京都","prefecture_kana":"トウキョウト","city":"新宿区","city_kana":"シンジュクク","town":"西新宿新宿センタービル","town_kana":"ニシシンジュクシンジュクセンタービル","prefecture_code":13},"0617":{"zip_code":"1630617","prefecture":"東京都","prefecture_kana":"トウキョウト","city":"新宿区","city_kana":"シンジュクク","town":"西新宿新宿センタービル","town_kana":"ニシシンジュクシンジュクセンタービル","prefecture_code":13},"0618":{"zip_code":"1630618","prefecture":"東京都","prefecture_kana":"トウキョウト","city":"新宿区","city_kana":"シンジュクク","town":"西新宿新宿センタービル","town_kana":"ニシシンジュクシンジュクセンタービル","prefecture_code":13},"0619":{"zip_code":"1630619","prefecture":"東京都","prefecture_kana":"トウキョウト","city":"新宿区","city_kana":"シンジュクク","town":"西新宿新宿センタービル","town_kana":"ニシシンジュクシンジュクセンタービル","prefecture_code":13},"0620":{"zip_code":"1630620","prefecture":"東京都","prefecture_kana":"トウキョウト","city":"新宿区","city_kana":"シンジュクク","town":"西新宿新宿センタービル","town_kana":"ニシシンジュクシンジュクセンタービル","prefecture_code":13},"0621":{"zip_code":"1630621","prefecture":"東京都","prefecture_kana":"トウキョウト","city":"新宿区","city_kana":"シンジュクク","town":"西新宿新宿センタービル","town_kana":"ニシシンジュクシンジュクセンタービル","prefecture_code":13},"0622":{"zip_code":"1630622","prefecture":"東京都","prefecture_kana":"トウキョウト","city":"新宿区","city_kana":"シンジュクク","town":"西新宿新宿センタービル","town_kana":"ニシシンジュクシンジュクセンタービル","prefecture_code":13},"0623":{"zip_code":"1630623","prefecture":"東京都","prefecture_kana":"トウキョウト","city":"新宿区","city_kana":"シンジュクク","town":"西新宿新宿センタービル","town_kana":"ニシシンジュクシンジュクセンタービル","prefecture_code":13},"0624":{"zip_code":"1630624","prefecture":"東京都","prefecture_kana":"トウキョウト","city":"新宿区","city_kana":"シンジュクク","town":"西新宿新宿センタービル","town_kana":"ニシシンジュクシンジュクセンタービル","prefecture_code":13},"0625":{"zip_code":"1630625","prefecture":"東京都","prefecture_kana":"トウキョウト","city":"新宿区","city_kana":"シンジュクク","town":"西新宿新宿センタービル","town_kana":"ニシシンジュクシンジュクセンタービル","prefecture_code":13},"0626":{"zip_code":"1630626","prefecture":"東京都","prefecture_kana":"トウキョウト","city":"新宿区","city_kana":"シンジュクク","town":"西新宿新宿センタービル","town_kana":"ニシシンジュクシンジュクセンタービル","prefecture_code":13},"0627":{"zip_code":"1630627","prefecture":"東京都","prefecture_kana":"トウキョウト","city":"新宿区","city_kana":"シンジュクク","town":"西新宿新宿センタービル","town_kana":"ニシシンジュクシンジュクセンタービル","prefecture_code":13},"0628":{"zip_code":"1630628","prefecture":"東京都","prefecture_kana":"トウキョウト","city":"新宿区","city_kana":"シンジュクク","town":"西新宿新宿センタービル","town_kana":"ニシシンジュクシンジュクセンタービル","prefecture_code":13},"0629":{"zip_code":"1630629","prefecture":"東京都","prefecture_kana":"トウキョウト","city":"新宿区","city_kana":"シンジュクク","town":"西新宿新宿センタービル","town_kana":"ニシシンジュクシンジュクセンタービル","prefecture_code":13},"0630":{"zip_code":"1630630","prefecture":"東京都","prefecture_kana":"トウキョウト","city":"新宿区","city_kana":"シンジュクク","town":"西新宿新宿センタービル","town_kana":"ニシシンジュクシンジュクセンタービル","prefecture_code":13},"0631":{"zip_code":"1630631","prefecture":"東京都","prefecture_kana":"トウキョウト","city":"新宿区","city_kana":"シンジュクク","town":"西新宿新宿センタービル","town_kana":"ニシシンジュクシンジュクセンタービル","prefecture_code":13},"0632":{"zip_code":"1630632","prefecture":"東京都","prefecture_kana":"トウキョウト","city":"新宿区","city_kana":"シンジュクク","town":"西新宿新宿センタービル","town_kana":"ニシシンジュクシンジュクセンタービル","prefecture_code":13},"0633":{"zip_code":"1630633","prefecture":"東京都","prefecture_kana":"トウキョウト","city":"新宿区","city_kana":"シンジュクク","town":"西新宿新宿センタービル","town_kana":"ニシシンジュクシンジュクセンタービル","prefecture_code":13},"0634":{"zip_code":"1630634","prefecture":"東京都","prefecture_kana":"トウキョウト","city":"新宿区","city_kana":"シンジュクク","town":"西新宿新宿センタービル","town_kana":"ニシシンジュクシンジュクセンタービル","prefecture_code":13},"0635":{"zip_code":"1630635","prefecture":"東京都","prefecture_kana":"トウキョウト","city":"新宿区","city_kana":"シンジュクク","town":"西新宿新宿センタービル","town_kana":"ニシシンジュクシンジュクセンタービル","prefecture_code":13},"0636":{"zip_code":"1630636","prefecture":"東京都","prefecture_kana":"トウキョウト","city":"新宿区","city_kana":"シンジュクク","town":"西新宿新宿センタービル","town_kana":"ニシシンジュクシンジュクセンタービル","prefecture_code":13},"0637":{"zip_code":"1630637","prefecture":"東京都","prefecture_kana":"トウキョウト","city":"新宿区","city_kana":"シンジュクク","town":"西新宿新宿センタービル","town_kana":"ニシシンジュクシンジュクセンタービル","prefecture_code":13},"0638":{"zip_code":"1630638","prefecture":"東京都","prefecture_kana":"トウキョウト","city":"新宿区","city_kana":"シンジュクク","town":"西新宿新宿センタービル","town_kana":"ニシシンジュクシンジュクセンタービル","prefecture_code":13},"0639":{"zip_code":"1630639","prefecture":"東京都","prefecture_kana":"トウキョウト","city":"新宿区","city_kana":"シンジュクク","town":"西新宿新宿センタービル","town_kana":"ニシシンジュクシンジュクセンタービル","prefecture_code":13},"0640":{"zip_code":"1630640","prefecture":"東京都","prefecture_kana":"トウキョウト","city":"新宿区","city_kana":"シンジュクク","town":"西新宿新宿センタービル","town_kana":"ニシシンジュクシンジュクセンタービル","prefecture_code":13},"0641":{"zip_code":"1630641","prefecture":"東京都","prefecture_kana":"トウキョウト","city":"新宿区","city_kana":"シンジュクク","town":"西新宿新宿センタービル","town_kana":"ニシシンジュクシンジュクセンタービル","prefecture_code":13},"0642":{"zip_code":"1630642","prefecture":"東京都","prefecture_kana":"トウキョウト","city":"新宿区","city_kana":"シンジュクク","town":"西新宿新宿センタービル","town_kana":"ニシシンジュクシンジュクセンタービル","prefecture_code":13},"0643":{"zip_code":"1630643","prefecture":"東京都","prefecture_kana":"トウキョウト","city":"新宿区","city_kana":"シンジュクク","town":"西新宿新宿センタービル","town_kana":"ニシシンジュクシンジュクセンタービル","prefecture_code":13},"0644":{"zip_code":"1630644","prefecture":"東京都","prefecture_kana":"トウキョウト","city":"新宿区","city_kana":"シンジュクク","town":"西新宿新宿センタービル","town_kana":"ニシシンジュクシンジュクセンタービル","prefecture_code":13},"0645":{"zip_code":"1630645","prefecture":"東京都","prefecture_kana":"トウキョウト","city":"新宿区","city_kana":"シンジュクク","town":"西新宿新宿センタービル","town_kana":"ニシシンジュクシンジュクセンタービル","prefecture_code":13},"0646":{"zip_code":"1630646","prefecture":"東京都","prefecture_kana":"トウキョウト","city":"新宿区","city_kana":"シンジュクク","town":"西新宿新宿センタービル","town_kana":"ニシシンジュクシンジュクセンタービル","prefecture_code":13},"0647":{"zip_code":"1630647","prefecture":"東京都","prefecture_kana":"トウキョウト","city":"新宿区","city_kana":"シンジュクク","town":"西新宿新宿センタービル","town_kana":"ニシシンジュクシンジュクセンタービル","prefecture_code":13},"0648":{"zip_code":"1630648","prefecture":"東京都","prefecture_kana":"トウキョウト","city":"新宿区","city_kana":"シンジュクク","town":"西新宿新宿センタービル","town_kana":"ニシシンジュクシンジュクセンタービル","prefecture_code":13},"0649":{"zip_code":"1630649","prefecture":"東京都","prefecture_kana":"トウキョウト","city":"新宿区","city_kana":"シンジュクク","town":"西新宿新宿センタービル","town_kana":"ニシシンジュクシンジュクセンタービル","prefecture_code":13},"0650":{"zip_code":"1630650","prefecture":"東京都","prefecture_kana":"トウキョウト","city":"新宿区","city_kana":"シンジュクク","town":"西新宿新宿センタービル","town_kana":"ニシシンジュクシンジュクセンタービル","prefecture_code":13},"0651":{"zip_code":"1630651","prefecture":"東京都","prefecture_kana":"トウキョウト","city":"新宿区","city_kana":"シンジュクク","town":"西新宿新宿センタービル","town_kana":"ニシシンジュクシンジュクセンタービル","prefecture_code":13},"0652":{"zip_code":"1630652","prefecture":"東京都","prefecture_kana":"トウキョウト","city":"新宿区","city_kana":"シンジュクク","town":"西新宿新宿センタービル","town_kana":"ニシシンジュクシンジュクセンタービル","prefecture_code":13},"0653":{"zip_code":"1630653","prefecture":"東京都","prefecture_kana":"トウキョウト","city":"新宿区","city_kana":"シンジュクク","town":"西新宿新宿センタービル","town_kana":"ニシシンジュクシンジュクセンタービル","prefecture_code":13},"0654":{"zip_code":"1630654","prefecture":"東京都","prefecture_kana":"トウキョウト","city":"新宿区","city_kana":"シンジュクク","town":"西新宿新宿センタービル","town_kana":"ニシシンジュクシンジュクセンタービル","prefecture_code":13},"0590":{"zip_code":"1630590","prefecture":"東京都","prefecture_kana":"トウキョウト","city":"新宿区","city_kana":"シンジュクク","town":"西新宿新宿野村ビル","town_kana":"ニシシンジュクシンジュクノムラビル","prefecture_code":13},"0501":{"zip_code":"1630501","prefecture":"東京都","prefecture_kana":"トウキョウト","city":"新宿区","city_kana":"シンジュクク","town":"西新宿新宿野村ビル","town_kana":"ニシシンジュクシンジュクノムラビル","prefecture_code":13},"0502":{"zip_code":"1630502","prefecture":"東京都","prefecture_kana":"トウキョウト","city":"新宿区","city_kana":"シンジュクク","town":"西新宿新宿野村ビル","town_kana":"ニシシンジュクシンジュクノムラビル","prefecture_code":13},"0503":{"zip_code":"1630503","prefecture":"東京都","prefecture_kana":"トウキョウト","city":"新宿区","city_kana":"シンジュクク","town":"西新宿新宿野村ビル","town_kana":"ニシシンジュクシンジュクノムラビル","prefecture_code":13},"0504":{"zip_code":"1630504","prefecture":"東京都","prefecture_kana":"トウキョウト","city":"新宿区","city_kana":"シンジュクク","town":"西新宿新宿野村ビル","town_kana":"ニシシンジュクシンジュクノムラビル","prefecture_code":13},"0505":{"zip_code":"1630505","prefecture":"東京都","prefecture_kana":"トウキョウト","city":"新宿区","city_kana":"シンジュクク","town":"西新宿新宿野村ビル","town_kana":"ニシシンジュクシンジュクノムラビル","prefecture_code":13},"0506":{"zip_code":"1630506","prefecture":"東京都","prefecture_kana":"トウキョウト","city":"新宿区","city_kana":"シンジュクク","town":"西新宿新宿野村ビル","town_kana":"ニシシンジュクシンジュクノムラビル","prefecture_code":13},"0507":{"zip_code":"1630507","prefecture":"東京都","prefecture_kana":"トウキョウト","city":"新宿区","city_kana":"シンジュクク","town":"西新宿新宿野村ビル","town_kana":"ニシシンジュクシンジュクノムラビル","prefecture_code":13},"0508":{"zip_code":"1630508","prefecture":"東京都","prefecture_kana":"トウキョウト","city":"新宿区","city_kana":"シンジュクク","town":"西新宿新宿野村ビル","town_kana":"ニシシンジュクシンジュクノムラビル","prefecture_code":13},"0509":{"zip_code":"1630509","prefecture":"東京都","prefecture_kana":"トウキョウト","city":"新宿区","city_kana":"シンジュクク","town":"西新宿新宿野村ビル","town_kana":"ニシシンジュクシンジュクノムラビル","prefecture_code":13},"0510":{"zip_code":"1630510","prefecture":"東京都","prefecture_kana":"トウキョウト","city":"新宿区","city_kana":"シンジュクク","town":"西新宿新宿野村ビル","town_kana":"ニシシンジュクシンジュクノムラビル","prefecture_code":13},"0511":{"zip_code":"1630511","prefecture":"東京都","prefecture_kana":"トウキョウト","city":"新宿区","city_kana":"シンジュクク","town":"西新宿新宿野村ビル","town_kana":"ニシシンジュクシンジュクノムラビル","prefecture_code":13},"0512":{"zip_code":"1630512","prefecture":"東京都","prefecture_kana":"トウキョウト","city":"新宿区","city_kana":"シンジュクク","town":"西新宿新宿野村ビル","town_kana":"ニシシンジュクシンジュクノムラビル","prefecture_code":13},"0513":{"zip_code":"1630513","prefecture":"東京都","prefecture_kana":"トウキョウト","city":"新宿区","city_kana":"シンジュクク","town":"西新宿新宿野村ビル","town_kana":"ニシシンジュクシンジュクノムラビル","prefecture_code":13},"0514":{"zip_code":"1630514","prefecture":"東京都","prefecture_kana":"トウキョウト","city":"新宿区","city_kana":"シンジュクク","town":"西新宿新宿野村ビル","town_kana":"ニシシンジュクシンジュクノムラビル","prefecture_code":13},"0515":{"zip_code":"1630515","prefecture":"東京都","prefecture_kana":"トウキョウト","city":"新宿区","city_kana":"シンジュクク","town":"西新宿新宿野村ビル","town_kana":"ニシシンジュクシンジュクノムラビル","prefecture_code":13},"0516":{"zip_code":"1630516","prefecture":"東京都","prefecture_kana":"トウキョウト","city":"新宿区","city_kana":"シンジュクク","town":"西新宿新宿野村ビル","town_kana":"ニシシンジュクシンジュクノムラビル","prefecture_code":13},"0517":{"zip_code":"1630517","prefecture":"東京都","prefecture_kana":"トウキョウト","city":"新宿区","city_kana":"シンジュクク","town":"西新宿新宿野村ビル","town_kana":"ニシシンジュクシンジュクノムラビル","prefecture_code":13},"0518":{"zip_code":"1630518","prefecture":"東京都","prefecture_kana":"トウキョウト","city":"新宿区","city_kana":"シンジュクク","town":"西新宿新宿野村ビル","town_kana":"ニシシンジュクシンジュクノムラビル","prefecture_code":13},"0519":{"zip_code":"1630519","prefecture":"東京都","prefecture_kana":"トウキョウト","city":"新宿区","city_kana":"シンジュクク","town":"西新宿新宿野村ビル","town_kana":"ニシシンジュクシンジュクノムラビル","prefecture_code":13},"0520":{"zip_code":"1630520","prefecture":"東京都","prefecture_kana":"トウキョウト","city":"新宿区","city_kana":"シンジュクク","town":"西新宿新宿野村ビル","town_kana":"ニシシンジュクシンジュクノムラビル","prefecture_code":13},"0521":{"zip_code":"1630521","prefecture":"東京都","prefecture_kana":"トウキョウト","city":"新宿区","city_kana":"シンジュクク","town":"西新宿新宿野村ビル","town_kana":"ニシシンジュクシンジュクノムラビル","prefecture_code":13},"0522":{"zip_code":"1630522","prefecture":"東京都","prefecture_kana":"トウキョウト","city":"新宿区","city_kana":"シンジュクク","town":"西新宿新宿野村ビル","town_kana":"ニシシンジュクシンジュクノムラビル","prefecture_code":13},"0523":{"zip_code":"1630523","prefecture":"東京都","prefecture_kana":"トウキョウト","city":"新宿区","city_kana":"シンジュクク","town":"西新宿新宿野村ビル","town_kana":"ニシシンジュクシンジュクノムラビル","prefecture_code":13},"0524":{"zip_code":"1630524","prefecture":"東京都","prefecture_kana":"トウキョウト","city":"新宿区","city_kana":"シンジュクク","town":"西新宿新宿野村ビル","town_kana":"ニシシンジュクシンジュクノムラビル","prefecture_code":13},"0525":{"zip_code":"1630525","prefecture":"東京都","prefecture_kana":"トウキョウト","city":"新宿区","city_kana":"シンジュクク","town":"西新宿新宿野村ビル","town_kana":"ニシシンジュクシンジュクノムラビル","prefecture_code":13},"0526":{"zip_code":"1630526","prefecture":"東京都","prefecture_kana":"トウキョウト","city":"新宿区","city_kana":"シンジュクク","town":"西新宿新宿野村ビル","town_kana":"ニシシンジュクシンジュクノムラビル","prefecture_code":13},"0527":{"zip_code":"1630527","prefecture":"東京都","prefecture_kana":"トウキョウト","city":"新宿区","city_kana":"シンジュクク","town":"西新宿新宿野村ビル","town_kana":"ニシシンジュクシンジュクノムラビル","prefecture_code":13},"0528":{"zip_code":"1630528","prefecture":"東京都","prefecture_kana":"トウキョウト","city":"新宿区","city_kana":"シンジュクク","town":"西新宿新宿野村ビル","town_kana":"ニシシンジュクシンジュクノムラビル","prefecture_code":13},"0529":{"zip_code":"1630529","prefecture":"東京都","prefecture_kana":"トウキョウト","city":"新宿区","city_kana":"シンジュクク","town":"西新宿新宿野村ビル","town_kana":"ニシシンジュクシンジュクノムラビル","prefecture_code":13},"0530":{"zip_code":"1630530","prefecture":"東京都","prefecture_kana":"トウキョウト","city":"新宿区","city_kana":"シンジュクク","town":"西新宿新宿野村ビル","town_kana":"ニシシンジュクシンジュクノムラビル","prefecture_code":13},"0531":{"zip_code":"1630531","prefecture":"東京都","prefecture_kana":"トウキョウト","city":"新宿区","city_kana":"シンジュクク","town":"西新宿新宿野村ビル","town_kana":"ニシシンジュクシンジュクノムラビル","prefecture_code":13},"0532":{"zip_code":"1630532","prefecture":"東京都","prefecture_kana":"トウキョウト","city":"新宿区","city_kana":"シンジュクク","town":"西新宿新宿野村ビル","town_kana":"ニシシンジュクシンジュクノムラビル","prefecture_code":13},"0533":{"zip_code":"1630533","prefecture":"東京都","prefecture_kana":"トウキョウト","city":"新宿区","city_kana":"シンジュクク","town":"西新宿新宿野村ビル","town_kana":"ニシシンジュクシンジュクノムラビル","prefecture_code":13},"0534":{"zip_code":"1630534","prefecture":"東京都","prefecture_kana":"トウキョウト","city":"新宿区","city_kana":"シンジュクク","town":"西新宿新宿野村ビル","town_kana":"ニシシンジュクシンジュクノムラビル","prefecture_code":13},"0535":{"zip_code":"1630535","prefecture":"東京都","prefecture_kana":"トウキョウト","city":"新宿区","city_kana":"シンジュクク","town":"西新宿新宿野村ビル","town_kana":"ニシシンジュクシンジュクノムラビル","prefecture_code":13},"0536":{"zip_code":"1630536","prefecture":"東京都","prefecture_kana":"トウキョウト","city":"新宿区","city_kana":"シンジュクク","town":"西新宿新宿野村ビル","town_kana":"ニシシンジュクシンジュクノムラビル","prefecture_code":13},"0537":{"zip_code":"1630537","prefecture":"東京都","prefecture_kana":"トウキョウト","city":"新宿区","city_kana":"シンジュクク","town":"西新宿新宿野村ビル","town_kana":"ニシシンジュクシンジュクノムラビル","prefecture_code":13},"0538":{"zip_code":"1630538","prefecture":"東京都","prefecture_kana":"トウキョウト","city":"新宿区","city_kana":"シンジュクク","town":"西新宿新宿野村ビル","town_kana":"ニシシンジュクシンジュクノムラビル","prefecture_code":13},"0539":{"zip_code":"1630539","prefecture":"東京都","prefecture_kana":"トウキョウト","city":"新宿区","city_kana":"シンジュクク","town":"西新宿新宿野村ビル","town_kana":"ニシシンジュクシンジュクノムラビル","prefecture_code":13},"0540":{"zip_code":"1630540","prefecture":"東京都","prefecture_kana":"トウキョウト","city":"新宿区","city_kana":"シンジュクク","town":"西新宿新宿野村ビル","town_kana":"ニシシンジュクシンジュクノムラビル","prefecture_code":13},"0541":{"zip_code":"1630541","prefecture":"東京都","prefecture_kana":"トウキョウト","city":"新宿区","city_kana":"シンジュクク","town":"西新宿新宿野村ビル","town_kana":"ニシシンジュクシンジュクノムラビル","prefecture_code":13},"0542":{"zip_code":"1630542","prefecture":"東京都","prefecture_kana":"トウキョウト","city":"新宿区","city_kana":"シンジュクク","town":"西新宿新宿野村ビル","town_kana":"ニシシンジュクシンジュクノムラビル","prefecture_code":13},"0543":{"zip_code":"1630543","prefecture":"東京都","prefecture_kana":"トウキョウト","city":"新宿区","city_kana":"シンジュクク","town":"西新宿新宿野村ビル","town_kana":"ニシシンジュクシンジュクノムラビル","prefecture_code":13},"0544":{"zip_code":"1630544","prefecture":"東京都","prefecture_kana":"トウキョウト","city":"新宿区","city_kana":"シンジュクク","town":"西新宿新宿野村ビル","town_kana":"ニシシンジュクシンジュクノムラビル","prefecture_code":13},"0545":{"zip_code":"1630545","prefecture":"東京都","prefecture_kana":"トウキョウト","city":"新宿区","city_kana":"シンジュクク","town":"西新宿新宿野村ビル","town_kana":"ニシシンジュクシンジュクノムラビル","prefecture_code":13},"0546":{"zip_code":"1630546","prefecture":"東京都","prefecture_kana":"トウキョウト","city":"新宿区","city_kana":"シンジュクク","town":"西新宿新宿野村ビル","town_kana":"ニシシンジュクシンジュクノムラビル","prefecture_code":13},"0547":{"zip_code":"1630547","prefecture":"東京都","prefecture_kana":"トウキョウト","city":"新宿区","city_kana":"シンジュクク","town":"西新宿新宿野村ビル","town_kana":"ニシシンジュクシンジュクノムラビル","prefecture_code":13},"0548":{"zip_code":"1630548","prefecture":"東京都","prefecture_kana":"トウキョウト","city":"新宿区","city_kana":"シンジュクク","town":"西新宿新宿野村ビル","town_kana":"ニシシンジュクシンジュクノムラビル","prefecture_code":13},"0549":{"zip_code":"1630549","prefecture":"東京都","prefecture_kana":"トウキョウト","city":"新宿区","city_kana":"シンジュクク","town":"西新宿新宿野村ビル","town_kana":"ニシシンジュクシンジュクノムラビル","prefecture_code":13},"0550":{"zip_code":"1630550","prefecture":"東京都","prefecture_kana":"トウキョウト","city":"新宿区","city_kana":"シンジュクク","town":"西新宿新宿野村ビル","town_kana":"ニシシンジュクシンジュクノムラビル","prefecture_code":13},"1090":{"zip_code":"1631090","prefecture":"東京都","prefecture_kana":"トウキョウト","city":"新宿区","city_kana":"シンジュクク","town":"西新宿新宿パークタワー","town_kana":"ニシシンジュクシンジュクパークタワー","prefecture_code":13},"1001":{"zip_code":"1631001","prefecture":"東京都","prefecture_kana":"トウキョウト","city":"新宿区","city_kana":"シンジュクク","town":"西新宿新宿パークタワー","town_kana":"ニシシンジュクシンジュクパークタワー","prefecture_code":13},"1002":{"zip_code":"1631002","prefecture":"東京都","prefecture_kana":"トウキョウト","city":"新宿区","city_kana":"シンジュクク","town":"西新宿新宿パークタワー","town_kana":"ニシシンジュクシンジュクパークタワー","prefecture_code":13},"1003":{"zip_code":"1631003","prefecture":"東京都","prefecture_kana":"トウキョウト","city":"新宿区","city_kana":"シンジュクク","town":"西新宿新宿パークタワー","town_kana":"ニシシンジュクシンジュクパークタワー","prefecture_code":13},"1004":{"zip_code":"1631004","prefecture":"東京都","prefecture_kana":"トウキョウト","city":"新宿区","city_kana":"シンジュクク","town":"西新宿新宿パークタワー","town_kana":"ニシシンジュクシンジュクパークタワー","prefecture_code":13},"1005":{"zip_code":"1631005","prefecture":"東京都","prefecture_kana":"トウキョウト","city":"新宿区","city_kana":"シンジュクク","town":"西新宿新宿パークタワー","town_kana":"ニシシンジュクシンジュクパークタワー","prefecture_code":13},"1006":{"zip_code":"1631006","prefecture":"東京都","prefecture_kana":"トウキョウト","city":"新宿区","city_kana":"シンジュクク","town":"西新宿新宿パークタワー","town_kana":"ニシシンジュクシンジュクパークタワー","prefecture_code":13},"1007":{"zip_code":"1631007","prefecture":"東京都","prefecture_kana":"トウキョウト","city":"新宿区","city_kana":"シンジュクク","town":"西新宿新宿パークタワー","town_kana":"ニシシンジュクシンジュクパークタワー","prefecture_code":13},"1008":{"zip_code":"1631008","prefecture":"東京都","prefecture_kana":"トウキョウト","city":"新宿区","city_kana":"シンジュクク","town":"西新宿新宿パークタワー","town_kana":"ニシシンジュクシンジュクパークタワー","prefecture_code":13},"1009":{"zip_code":"1631009","prefecture":"東京都","prefecture_kana":"トウキョウト","city":"新宿区","city_kana":"シンジュクク","town":"西新宿新宿パークタワー","town_kana":"ニシシンジュクシンジュクパークタワー","prefecture_code":13},"1010":{"zip_code":"1631010","prefecture":"東京都","prefecture_kana":"トウキョウト","city":"新宿区","city_kana":"シンジュクク","town":"西新宿新宿パークタワー","town_kana":"ニシシンジュクシンジュクパークタワー","prefecture_code":13},"1011":{"zip_code":"1631011","prefecture":"東京都","prefecture_kana":"トウキョウト","city":"新宿区","city_kana":"シンジュクク","town":"西新宿新宿パークタワー","town_kana":"ニシシンジュクシンジュクパークタワー","prefecture_code":13},"1012":{"zip_code":"1631012","prefecture":"東京都","prefecture_kana":"トウキョウト","city":"新宿区","city_kana":"シンジュクク","town":"西新宿新宿パークタワー","town_kana":"ニシシンジュクシンジュクパークタワー","prefecture_code":13},"1013":{"zip_code":"1631013","prefecture":"東京都","prefecture_kana":"トウキョウト","city":"新宿区","city_kana":"シンジュクク","town":"西新宿新宿パークタワー","town_kana":"ニシシンジュクシンジュクパークタワー","prefecture_code":13},"1014":{"zip_code":"1631014","prefecture":"東京都","prefecture_kana":"トウキョウト","city":"新宿区","city_kana":"シンジュクク","town":"西新宿新宿パークタワー","town_kana":"ニシシンジュクシンジュクパークタワー","prefecture_code":13},"1015":{"zip_code":"1631015","prefecture":"東京都","prefecture_kana":"トウキョウト","city":"新宿区","city_kana":"シンジュクク","town":"西新宿新宿パークタワー","town_kana":"ニシシンジュクシンジュクパークタワー","prefecture_code":13},"1016":{"zip_code":"1631016","prefecture":"東京都","prefecture_kana":"トウキョウト","city":"新宿区","city_kana":"シンジュクク","town":"西新宿新宿パークタワー","town_kana":"ニシシンジュクシンジュクパークタワー","prefecture_code":13},"1017":{"zip_code":"1631017","prefecture":"東京都","prefecture_kana":"トウキョウト","city":"新宿区","city_kana":"シンジュクク","town":"西新宿新宿パークタワー","town_kana":"ニシシンジュクシンジュクパークタワー","prefecture_code":13},"1018":{"zip_code":"1631018","prefecture":"東京都","prefecture_kana":"トウキョウト","city":"新宿区","city_kana":"シンジュクク","town":"西新宿新宿パークタワー","town_kana":"ニシシンジュクシンジュクパークタワー","prefecture_code":13},"1019":{"zip_code":"1631019","prefecture":"東京都","prefecture_kana":"トウキョウト","city":"新宿区","city_kana":"シンジュクク","town":"西新宿新宿パークタワー","town_kana":"ニシシンジュクシンジュクパークタワー","prefecture_code":13},"1020":{"zip_code":"1631020","prefecture":"東京都","prefecture_kana":"トウキョウト","city":"新宿区","city_kana":"シンジュクク","town":"西新宿新宿パークタワー","town_kana":"ニシシンジュクシンジュクパークタワー","prefecture_code":13},"1021":{"zip_code":"1631021","prefecture":"東京都","prefecture_kana":"トウキョウト","city":"新宿区","city_kana":"シンジュクク","town":"西新宿新宿パークタワー","town_kana":"ニシシンジュクシンジュクパークタワー","prefecture_code":13},"1022":{"zip_code":"1631022","prefecture":"東京都","prefecture_kana":"トウキョウト","city":"新宿区","city_kana":"シンジュクク","town":"西新宿新宿パークタワー","town_kana":"ニシシンジュクシンジュクパークタワー","prefecture_code":13},"1023":{"zip_code":"1631023","prefecture":"東京都","prefecture_kana":"トウキョウト","city":"新宿区","city_kana":"シンジュクク","town":"西新宿新宿パークタワー","town_kana":"ニシシンジュクシンジュクパークタワー","prefecture_code":13},"1024":{"zip_code":"1631024","prefecture":"東京都","prefecture_kana":"トウキョウト","city":"新宿区","city_kana":"シンジュクク","town":"西新宿新宿パークタワー","town_kana":"ニシシンジュクシンジュクパークタワー","prefecture_code":13},"1025":{"zip_code":"1631025","prefecture":"東京都","prefecture_kana":"トウキョウト","city":"新宿区","city_kana":"シンジュクク","town":"西新宿新宿パークタワー","town_kana":"ニシシンジュクシンジュクパークタワー","prefecture_code":13},"1026":{"zip_code":"1631026","prefecture":"東京都","prefecture_kana":"トウキョウト","city":"新宿区","city_kana":"シンジュクク","town":"西新宿新宿パークタワー","town_kana":"ニシシンジュクシンジュクパークタワー","prefecture_code":13},"1027":{"zip_code":"1631027","prefecture":"東京都","prefecture_kana":"トウキョウト","city":"新宿区","city_kana":"シンジュクク","town":"西新宿新宿パークタワー","town_kana":"ニシシンジュクシンジュクパークタワー","prefecture_code":13},"1028":{"zip_code":"1631028","prefecture":"東京都","prefecture_kana":"トウキョウト","city":"新宿区","city_kana":"シンジュクク","town":"西新宿新宿パークタワー","town_kana":"ニシシンジュクシンジュクパークタワー","prefecture_code":13},"1029":{"zip_code":"1631029","prefecture":"東京都","prefecture_kana":"トウキョウト","city":"新宿区","city_kana":"シンジュクク","town":"西新宿新宿パークタワー","town_kana":"ニシシンジュクシンジュクパークタワー","prefecture_code":13},"1030":{"zip_code":"1631030","prefecture":"東京都","prefecture_kana":"トウキョウト","city":"新宿区","city_kana":"シンジュクク","town":"西新宿新宿パークタワー","town_kana":"ニシシンジュクシンジュクパークタワー","prefecture_code":13},"1031":{"zip_code":"1631031","prefecture":"東京都","prefecture_kana":"トウキョウト","city":"新宿区","city_kana":"シンジュクク","town":"西新宿新宿パークタワー","town_kana":"ニシシンジュクシンジュクパークタワー","prefecture_code":13},"1032":{"zip_code":"1631032","prefecture":"東京都","prefecture_kana":"トウキョウト","city":"新宿区","city_kana":"シンジュクク","town":"西新宿新宿パークタワー","town_kana":"ニシシンジュクシンジュクパークタワー","prefecture_code":13},"1033":{"zip_code":"1631033","prefecture":"東京都","prefecture_kana":"トウキョウト","city":"新宿区","city_kana":"シンジュクク","town":"西新宿新宿パークタワー","town_kana":"ニシシンジュクシンジュクパークタワー","prefecture_code":13},"1034":{"zip_code":"1631034","prefecture":"東京都","prefecture_kana":"トウキョウト","city":"新宿区","city_kana":"シンジュクク","town":"西新宿新宿パークタワー","town_kana":"ニシシンジュクシンジュクパークタワー","prefecture_code":13},"1035":{"zip_code":"1631035","prefecture":"東京都","prefecture_kana":"トウキョウト","city":"新宿区","city_kana":"シンジュクク","town":"西新宿新宿パークタワー","town_kana":"ニシシンジュクシンジュクパークタワー","prefecture_code":13},"1036":{"zip_code":"1631036","prefecture":"東京都","prefecture_kana":"トウキョウト","city":"新宿区","city_kana":"シンジュクク","town":"西新宿新宿パークタワー","town_kana":"ニシシンジュクシンジュクパークタワー","prefecture_code":13},"1037":{"zip_code":"1631037","prefecture":"東京都","prefecture_kana":"トウキョウト","city":"新宿区","city_kana":"シンジュクク","town":"西新宿新宿パークタワー","town_kana":"ニシシンジュクシンジュクパークタワー","prefecture_code":13},"1038":{"zip_code":"1631038","prefecture":"東京都","prefecture_kana":"トウキョウト","city":"新宿区","city_kana":"シンジュクク","town":"西新宿新宿パークタワー","town_kana":"ニシシンジュクシンジュクパークタワー","prefecture_code":13},"1039":{"zip_code":"1631039","prefecture":"東京都","prefecture_kana":"トウキョウト","city":"新宿区","city_kana":"シンジュクク","town":"西新宿新宿パークタワー","town_kana":"ニシシンジュクシンジュクパークタワー","prefecture_code":13},"1040":{"zip_code":"1631040","prefecture":"東京都","prefecture_kana":"トウキョウト","city":"新宿区","city_kana":"シンジュクク","town":"西新宿新宿パークタワー","town_kana":"ニシシンジュクシンジュクパークタワー","prefecture_code":13},"1041":{"zip_code":"1631041","prefecture":"東京都","prefecture_kana":"トウキョウト","city":"新宿区","city_kana":"シンジュクク","town":"西新宿新宿パークタワー","town_kana":"ニシシンジュクシンジュクパークタワー","prefecture_code":13},"1042":{"zip_code":"1631042","prefecture":"東京都","prefecture_kana":"トウキョウト","city":"新宿区","city_kana":"シンジュクク","town":"西新宿新宿パークタワー","town_kana":"ニシシンジュクシンジュクパークタワー","prefecture_code":13},"1043":{"zip_code":"1631043","prefecture":"東京都","prefecture_kana":"トウキョウト","city":"新宿区","city_kana":"シンジュクク","town":"西新宿新宿パークタワー","town_kana":"ニシシンジュクシンジュクパークタワー","prefecture_code":13},"1044":{"zip_code":"1631044","prefecture":"東京都","prefecture_kana":"トウキョウト","city":"新宿区","city_kana":"シンジュクク","town":"西新宿新宿パークタワー","town_kana":"ニシシンジュクシンジュクパークタワー","prefecture_code":13},"1045":{"zip_code":"1631045","prefecture":"東京都","prefecture_kana":"トウキョウト","city":"新宿区","city_kana":"シンジュクク","town":"西新宿新宿パークタワー","town_kana":"ニシシンジュクシンジュクパークタワー","prefecture_code":13},"1046":{"zip_code":"1631046","prefecture":"東京都","prefecture_kana":"トウキョウト","city":"新宿区","city_kana":"シンジュクク","town":"西新宿新宿パークタワー","town_kana":"ニシシンジュクシンジュクパークタワー","prefecture_code":13},"1047":{"zip_code":"1631047","prefecture":"東京都","prefecture_kana":"トウキョウト","city":"新宿区","city_kana":"シンジュクク","town":"西新宿新宿パークタワー","town_kana":"ニシシンジュクシンジュクパークタワー","prefecture_code":13},"1048":{"zip_code":"1631048","prefecture":"東京都","prefecture_kana":"トウキョウト","city":"新宿区","city_kana":"シンジュクク","town":"西新宿新宿パークタワー","town_kana":"ニシシンジュクシンジュクパークタワー","prefecture_code":13},"1049":{"zip_code":"1631049","prefecture":"東京都","prefecture_kana":"トウキョウト","city":"新宿区","city_kana":"シンジュクク","town":"西新宿新宿パークタワー","town_kana":"ニシシンジュクシンジュクパークタワー","prefecture_code":13},"1050":{"zip_code":"1631050","prefecture":"東京都","prefecture_kana":"トウキョウト","city":"新宿区","city_kana":"シンジュクク","town":"西新宿新宿パークタワー","town_kana":"ニシシンジュクシンジュクパークタワー","prefecture_code":13},"1051":{"zip_code":"1631051","prefecture":"東京都","prefecture_kana":"トウキョウト","city":"新宿区","city_kana":"シンジュクク","town":"西新宿新宿パークタワー","town_kana":"ニシシンジュクシンジュクパークタワー","prefecture_code":13},"1052":{"zip_code":"1631052","prefecture":"東京都","prefecture_kana":"トウキョウト","city":"新宿区","city_kana":"シンジュクク","town":"西新宿新宿パークタワー","town_kana":"ニシシンジュクシンジュクパークタワー","prefecture_code":13},"0490":{"zip_code":"1630490","prefecture":"東京都","prefecture_kana":"トウキョウト","city":"新宿区","city_kana":"シンジュクク","town":"西新宿新宿三井ビル","town_kana":"ニシシンジュクシンジュクミツイビル","prefecture_code":13},"0401":{"zip_code":"1630401","prefecture":"東京都","prefecture_kana":"トウキョウト","city":"新宿区","city_kana":"シンジュクク","town":"西新宿新宿三井ビル","town_kana":"ニシシンジュクシンジュクミツイビル","prefecture_code":13},"0402":{"zip_code":"1630402","prefecture":"東京都","prefecture_kana":"トウキョウト","city":"新宿区","city_kana":"シンジュクク","town":"西新宿新宿三井ビル","town_kana":"ニシシンジュクシンジュクミツイビル","prefecture_code":13},"0403":{"zip_code":"1630403","prefecture":"東京都","prefecture_kana":"トウキョウト","city":"新宿区","city_kana":"シンジュクク","town":"西新宿新宿三井ビル","town_kana":"ニシシンジュクシンジュクミツイビル","prefecture_code":13},"0404":{"zip_code":"1630404","prefecture":"東京都","prefecture_kana":"トウキョウト","city":"新宿区","city_kana":"シンジュクク","town":"西新宿新宿三井ビル","town_kana":"ニシシンジュクシンジュクミツイビル","prefecture_code":13},"0405":{"zip_code":"1630405","prefecture":"東京都","prefecture_kana":"トウキョウト","city":"新宿区","city_kana":"シンジュクク","town":"西新宿新宿三井ビル","town_kana":"ニシシンジュクシンジュクミツイビル","prefecture_code":13},"0406":{"zip_code":"1630406","prefecture":"東京都","prefecture_kana":"トウキョウト","city":"新宿区","city_kana":"シンジュクク","town":"西新宿新宿三井ビル","town_kana":"ニシシンジュクシンジュクミツイビル","prefecture_code":13},"0407":{"zip_code":"1630407","prefecture":"東京都","prefecture_kana":"トウキョウト","city":"新宿区","city_kana":"シンジュクク","town":"西新宿新宿三井ビル","town_kana":"ニシシンジュクシンジュクミツイビル","prefecture_code":13},"0408":{"zip_code":"1630408","prefecture":"東京都","prefecture_kana":"トウキョウト","city":"新宿区","city_kana":"シンジュクク","town":"西新宿新宿三井ビル","town_kana":"ニシシンジュクシンジュクミツイビル","prefecture_code":13},"0409":{"zip_code":"1630409","prefecture":"東京都","prefecture_kana":"トウキョウト","city":"新宿区","city_kana":"シンジュクク","town":"西新宿新宿三井ビル","town_kana":"ニシシンジュクシンジュクミツイビル","prefecture_code":13},"0410":{"zip_code":"1630410","prefecture":"東京都","prefecture_kana":"トウキョウト","city":"新宿区","city_kana":"シンジュクク","town":"西新宿新宿三井ビル","town_kana":"ニシシンジュクシンジュクミツイビル","prefecture_code":13},"0411":{"zip_code":"1630411","prefecture":"東京都","prefecture_kana":"トウキョウト","city":"新宿区","city_kana":"シンジュクク","town":"西新宿新宿三井ビル","town_kana":"ニシシンジュクシンジュクミツイビル","prefecture_code":13},"0412":{"zip_code":"1630412","prefecture":"東京都","prefecture_kana":"トウキョウト","city":"新宿区","city_kana":"シンジュクク","town":"西新宿新宿三井ビル","town_kana":"ニシシンジュクシンジュクミツイビル","prefecture_code":13},"0413":{"zip_code":"1630413","prefecture":"東京都","prefecture_kana":"トウキョウト","city":"新宿区","city_kana":"シンジュクク","town":"西新宿新宿三井ビル","town_kana":"ニシシンジュクシンジュクミツイビル","prefecture_code":13},"0414":{"zip_code":"1630414","prefecture":"東京都","prefecture_kana":"トウキョウト","city":"新宿区","city_kana":"シンジュクク","town":"西新宿新宿三井ビル","town_kana":"ニシシンジュクシンジュクミツイビル","prefecture_code":13},"0415":{"zip_code":"1630415","prefecture":"東京都","prefecture_kana":"トウキョウト","city":"新宿区","city_kana":"シンジュクク","town":"西新宿新宿三井ビル","town_kana":"ニシシンジュクシンジュクミツイビル","prefecture_code":13},"0416":{"zip_code":"1630416","prefecture":"東京都","prefecture_kana":"トウキョウト","city":"新宿区","city_kana":"シンジュクク","town":"西新宿新宿三井ビル","town_kana":"ニシシンジュクシンジュクミツイビル","prefecture_code":13},"0417":{"zip_code":"1630417","prefecture":"東京都","prefecture_kana":"トウキョウト","city":"新宿区","city_kana":"シンジュクク","town":"西新宿新宿三井ビル","town_kana":"ニシシンジュクシンジュクミツイビル","prefecture_code":13},"0418":{"zip_code":"1630418","prefecture":"東京都","prefecture_kana":"トウキョウト","city":"新宿区","city_kana":"シンジュクク","town":"西新宿新宿三井ビル","town_kana":"ニシシンジュクシンジュクミツイビル","prefecture_code":13},"0419":{"zip_code":"1630419","prefecture":"東京都","prefecture_kana":"トウキョウト","city":"新宿区","city_kana":"シンジュクク","town":"西新宿新宿三井ビル","town_kana":"ニシシンジュクシンジュクミツイビル","prefecture_code":13},"0420":{"zip_code":"1630420","prefecture":"東京都","prefecture_kana":"トウキョウト","city":"新宿区","city_kana":"シンジュクク","town":"西新宿新宿三井ビル","town_kana":"ニシシンジュクシンジュクミツイビル","prefecture_code":13},"0421":{"zip_code":"1630421","prefecture":"東京都","prefecture_kana":"トウキョウト","city":"新宿区","city_kana":"シンジュクク","town":"西新宿新宿三井ビル","town_kana":"ニシシンジュクシンジュクミツイビル","prefecture_code":13},"0422":{"zip_code":"1630422","prefecture":"東京都","prefecture_kana":"トウキョウト","city":"新宿区","city_kana":"シンジュクク","town":"西新宿新宿三井ビル","town_kana":"ニシシンジュクシンジュクミツイビル","prefecture_code":13},"0423":{"zip_code":"1630423","prefecture":"東京都","prefecture_kana":"トウキョウト","city":"新宿区","city_kana":"シンジュクク","town":"西新宿新宿三井ビル","town_kana":"ニシシンジュクシンジュクミツイビル","prefecture_code":13},"0424":{"zip_code":"1630424","prefecture":"東京都","prefecture_kana":"トウキョウト","city":"新宿区","city_kana":"シンジュクク","town":"西新宿新宿三井ビル","town_kana":"ニシシンジュクシンジュクミツイビル","prefecture_code":13},"0425":{"zip_code":"1630425","prefecture":"東京都","prefecture_kana":"トウキョウト","city":"新宿区","city_kana":"シンジュクク","town":"西新宿新宿三井ビル","town_kana":"ニシシンジュクシンジュクミツイビル","prefecture_code":13},"0426":{"zip_code":"1630426","prefecture":"東京都","prefecture_kana":"トウキョウト","city":"新宿区","city_kana":"シンジュクク","town":"西新宿新宿三井ビル","town_kana":"ニシシンジュクシンジュクミツイビル","prefecture_code":13},"0427":{"zip_code":"1630427","prefecture":"東京都","prefecture_kana":"トウキョウト","city":"新宿区","city_kana":"シンジュクク","town":"西新宿新宿三井ビル","town_kana":"ニシシンジュクシンジュクミツイビル","prefecture_code":13},"0428":{"zip_code":"1630428","prefecture":"東京都","prefecture_kana":"トウキョウト","city":"新宿区","city_kana":"シンジュクク","town":"西新宿新宿三井ビル","town_kana":"ニシシンジュクシンジュクミツイビル","prefecture_code":13},"0429":{"zip_code":"1630429","prefecture":"東京都","prefecture_kana":"トウキョウト","city":"新宿区","city_kana":"シンジュクク","town":"西新宿新宿三井ビル","town_kana":"ニシシンジュクシンジュクミツイビル","prefecture_code":13},"0430":{"zip_code":"1630430","prefecture":"東京都","prefecture_kana":"トウキョウト","city":"新宿区","city_kana":"シンジュクク","town":"西新宿新宿三井ビル","town_kana":"ニシシンジュクシンジュクミツイビル","prefecture_code":13},"0431":{"zip_code":"1630431","prefecture":"東京都","prefecture_kana":"トウキョウト","city":"新宿区","city_kana":"シンジュクク","town":"西新宿新宿三井ビル","town_kana":"ニシシンジュクシンジュクミツイビル","prefecture_code":13},"0432":{"zip_code":"1630432","prefecture":"東京都","prefecture_kana":"トウキョウト","city":"新宿区","city_kana":"シンジュクク","town":"西新宿新宿三井ビル","town_kana":"ニシシンジュクシンジュクミツイビル","prefecture_code":13},"0433":{"zip_code":"1630433","prefecture":"東京都","prefecture_kana":"トウキョウト","city":"新宿区","city_kana":"シンジュクク","town":"西新宿新宿三井ビル","town_kana":"ニシシンジュクシンジュクミツイビル","prefecture_code":13},"0434":{"zip_code":"1630434","prefecture":"東京都","prefecture_kana":"トウキョウト","city":"新宿区","city_kana":"シンジュクク","town":"西新宿新宿三井ビル","town_kana":"ニシシンジュクシンジュクミツイビル","prefecture_code":13},"0435":{"zip_code":"1630435","prefecture":"東京都","prefecture_kana":"トウキョウト","city":"新宿区","city_kana":"シンジュクク","town":"西新宿新宿三井ビル","town_kana":"ニシシンジュクシンジュクミツイビル","prefecture_code":13},"0436":{"zip_code":"1630436","prefecture":"東京都","prefecture_kana":"トウキョウト","city":"新宿区","city_kana":"シンジュクク","town":"西新宿新宿三井ビル","town_kana":"ニシシンジュクシンジュクミツイビル","prefecture_code":13},"0437":{"zip_code":"1630437","prefecture":"東京都","prefecture_kana":"トウキョウト","city":"新宿区","city_kana":"シンジュクク","town":"西新宿新宿三井ビル","town_kana":"ニシシンジュクシンジュクミツイビル","prefecture_code":13},"0438":{"zip_code":"1630438","prefecture":"東京都","prefecture_kana":"トウキョウト","city":"新宿区","city_kana":"シンジュクク","town":"西新宿新宿三井ビル","town_kana":"ニシシンジュクシンジュクミツイビル","prefecture_code":13},"0439":{"zip_code":"1630439","prefecture":"東京都","prefecture_kana":"トウキョウト","city":"新宿区","city_kana":"シンジュクク","town":"西新宿新宿三井ビル","town_kana":"ニシシンジュクシンジュクミツイビル","prefecture_code":13},"0440":{"zip_code":"1630440","prefecture":"東京都","prefecture_kana":"トウキョウト","city":"新宿区","city_kana":"シンジュクク","town":"西新宿新宿三井ビル","town_kana":"ニシシンジュクシンジュクミツイビル","prefecture_code":13},"0441":{"zip_code":"1630441","prefecture":"東京都","prefecture_kana":"トウキョウト","city":"新宿区","city_kana":"シンジュクク","town":"西新宿新宿三井ビル","town_kana":"ニシシンジュクシンジュクミツイビル","prefecture_code":13},"0442":{"zip_code":"1630442","prefecture":"東京都","prefecture_kana":"トウキョウト","city":"新宿区","city_kana":"シンジュクク","town":"西新宿新宿三井ビル","town_kana":"ニシシンジュクシンジュクミツイビル","prefecture_code":13},"0443":{"zip_code":"1630443","prefecture":"東京都","prefecture_kana":"トウキョウト","city":"新宿区","city_kana":"シンジュクク","town":"西新宿新宿三井ビル","town_kana":"ニシシンジュクシンジュクミツイビル","prefecture_code":13},"0444":{"zip_code":"1630444","prefecture":"東京都","prefecture_kana":"トウキョウト","city":"新宿区","city_kana":"シンジュクク","town":"西新宿新宿三井ビル","town_kana":"ニシシンジュクシンジュクミツイビル","prefecture_code":13},"0445":{"zip_code":"1630445","prefecture":"東京都","prefecture_kana":"トウキョウト","city":"新宿区","city_kana":"シンジュクク","town":"西新宿新宿三井ビル","town_kana":"ニシシンジュクシンジュクミツイビル","prefecture_code":13},"0446":{"zip_code":"1630446","prefecture":"東京都","prefecture_kana":"トウキョウト","city":"新宿区","city_kana":"シンジュクク","town":"西新宿新宿三井ビル","town_kana":"ニシシンジュクシンジュクミツイビル","prefecture_code":13},"0447":{"zip_code":"1630447","prefecture":"東京都","prefecture_kana":"トウキョウト","city":"新宿区","city_kana":"シンジュクク","town":"西新宿新宿三井ビル","town_kana":"ニシシンジュクシンジュクミツイビル","prefecture_code":13},"0448":{"zip_code":"1630448","prefecture":"東京都","prefecture_kana":"トウキョウト","city":"新宿区","city_kana":"シンジュクク","town":"西新宿新宿三井ビル","town_kana":"ニシシンジュクシンジュクミツイビル","prefecture_code":13},"0449":{"zip_code":"1630449","prefecture":"東京都","prefecture_kana":"トウキョウト","city":"新宿区","city_kana":"シンジュクク","town":"西新宿新宿三井ビル","town_kana":"ニシシンジュクシンジュクミツイビル","prefecture_code":13},"0450":{"zip_code":"1630450","prefecture":"東京都","prefecture_kana":"トウキョウト","city":"新宿区","city_kana":"シンジュクク","town":"西新宿新宿三井ビル","town_kana":"ニシシンジュクシンジュクミツイビル","prefecture_code":13},"0451":{"zip_code":"1630451","prefecture":"東京都","prefecture_kana":"トウキョウト","city":"新宿区","city_kana":"シンジュクク","town":"西新宿新宿三井ビル","town_kana":"ニシシンジュクシンジュクミツイビル","prefecture_code":13},"0452":{"zip_code":"1630452","prefecture":"東京都","prefecture_kana":"トウキョウト","city":"新宿区","city_kana":"シンジュクク","town":"西新宿新宿三井ビル","town_kana":"ニシシンジュクシンジュクミツイビル","prefecture_code":13},"0453":{"zip_code":"1630453","prefecture":"東京都","prefecture_kana":"トウキョウト","city":"新宿区","city_kana":"シンジュクク","town":"西新宿新宿三井ビル","town_kana":"ニシシンジュクシンジュクミツイビル","prefecture_code":13},"0454":{"zip_code":"1630454","prefecture":"東京都","prefecture_kana":"トウキョウト","city":"新宿区","city_kana":"シンジュクク","town":"西新宿新宿三井ビル","town_kana":"ニシシンジュクシンジュクミツイビル","prefecture_code":13},"0455":{"zip_code":"1630455","prefecture":"東京都","prefecture_kana":"トウキョウト","city":"新宿区","city_kana":"シンジュクク","town":"西新宿新宿三井ビル","town_kana":"ニシシンジュクシンジュクミツイビル","prefecture_code":13},"0990":{"zip_code":"1630990","prefecture":"東京都","prefecture_kana":"トウキョウト","city":"新宿区","city_kana":"シンジュクク","town":"西新宿新宿モノリス","town_kana":"ニシシンジュクシンジュクモノリス","prefecture_code":13},"0901":{"zip_code":"1630901","prefecture":"東京都","prefecture_kana":"トウキョウト","city":"新宿区","city_kana":"シンジュクク","town":"西新宿新宿モノリス","town_kana":"ニシシンジュクシンジュクモノリス","prefecture_code":13},"0902":{"zip_code":"1630902","prefecture":"東京都","prefecture_kana":"トウキョウト","city":"新宿区","city_kana":"シンジュクク","town":"西新宿新宿モノリス","town_kana":"ニシシンジュクシンジュクモノリス","prefecture_code":13},"0903":{"zip_code":"1630903","prefecture":"東京都","prefecture_kana":"トウキョウト","city":"新宿区","city_kana":"シンジュクク","town":"西新宿新宿モノリス","town_kana":"ニシシンジュクシンジュクモノリス","prefecture_code":13},"0904":{"zip_code":"1630904","prefecture":"東京都","prefecture_kana":"トウキョウト","city":"新宿区","city_kana":"シンジュクク","town":"西新宿新宿モノリス","town_kana":"ニシシンジュクシンジュクモノリス","prefecture_code":13},"0905":{"zip_code":"1630905","prefecture":"東京都","prefecture_kana":"トウキョウト","city":"新宿区","city_kana":"シンジュクク","town":"西新宿新宿モノリス","town_kana":"ニシシンジュクシンジュクモノリス","prefecture_code":13},"0906":{"zip_code":"1630906","prefecture":"東京都","prefecture_kana":"トウキョウト","city":"新宿区","city_kana":"シンジュクク","town":"西新宿新宿モノリス","town_kana":"ニシシンジュクシンジュクモノリス","prefecture_code":13},"0907":{"zip_code":"1630907","prefecture":"東京都","prefecture_kana":"トウキョウト","city":"新宿区","city_kana":"シンジュクク","town":"西新宿新宿モノリス","town_kana":"ニシシンジュクシンジュクモノリス","prefecture_code":13},"0908":{"zip_code":"1630908","prefecture":"東京都","prefecture_kana":"トウキョウト","city":"新宿区","city_kana":"シンジュクク","town":"西新宿新宿モノリス","town_kana":"ニシシンジュクシンジュクモノリス","prefecture_code":13},"0909":{"zip_code":"1630909","prefecture":"東京都","prefecture_kana":"トウキョウト","city":"新宿区","city_kana":"シンジュクク","town":"西新宿新宿モノリス","town_kana":"ニシシンジュクシンジュクモノリス","prefecture_code":13},"0910":{"zip_code":"1630910","prefecture":"東京都","prefecture_kana":"トウキョウト","city":"新宿区","city_kana":"シンジュクク","town":"西新宿新宿モノリス","town_kana":"ニシシンジュクシンジュクモノリス","prefecture_code":13},"0911":{"zip_code":"1630911","prefecture":"東京都","prefecture_kana":"トウキョウト","city":"新宿区","city_kana":"シンジュクク","town":"西新宿新宿モノリス","town_kana":"ニシシンジュクシンジュクモノリス","prefecture_code":13},"0912":{"zip_code":"1630912","prefecture":"東京都","prefecture_kana":"トウキョウト","city":"新宿区","city_kana":"シンジュクク","town":"西新宿新宿モノリス","town_kana":"ニシシンジュクシンジュクモノリス","prefecture_code":13},"0913":{"zip_code":"1630913","prefecture":"東京都","prefecture_kana":"トウキョウト","city":"新宿区","city_kana":"シンジュクク","town":"西新宿新宿モノリス","town_kana":"ニシシンジュクシンジュクモノリス","prefecture_code":13},"0914":{"zip_code":"1630914","prefecture":"東京都","prefecture_kana":"トウキョウト","city":"新宿区","city_kana":"シンジュクク","town":"西新宿新宿モノリス","town_kana":"ニシシンジュクシンジュクモノリス","prefecture_code":13},"0915":{"zip_code":"1630915","prefecture":"東京都","prefecture_kana":"トウキョウト","city":"新宿区","city_kana":"シンジュクク","town":"西新宿新宿モノリス","town_kana":"ニシシンジュクシンジュクモノリス","prefecture_code":13},"0916":{"zip_code":"1630916","prefecture":"東京都","prefecture_kana":"トウキョウト","city":"新宿区","city_kana":"シンジュクク","town":"西新宿新宿モノリス","town_kana":"ニシシンジュクシンジュクモノリス","prefecture_code":13},"0917":{"zip_code":"1630917","prefecture":"東京都","prefecture_kana":"トウキョウト","city":"新宿区","city_kana":"シンジュクク","town":"西新宿新宿モノリス","town_kana":"ニシシンジュクシンジュクモノリス","prefecture_code":13},"0918":{"zip_code":"1630918","prefecture":"東京都","prefecture_kana":"トウキョウト","city":"新宿区","city_kana":"シンジュクク","town":"西新宿新宿モノリス","town_kana":"ニシシンジュクシンジュクモノリス","prefecture_code":13},"0919":{"zip_code":"1630919","prefecture":"東京都","prefecture_kana":"トウキョウト","city":"新宿区","city_kana":"シンジュクク","town":"西新宿新宿モノリス","town_kana":"ニシシンジュクシンジュクモノリス","prefecture_code":13},"0920":{"zip_code":"1630920","prefecture":"東京都","prefecture_kana":"トウキョウト","city":"新宿区","city_kana":"シンジュクク","town":"西新宿新宿モノリス","town_kana":"ニシシンジュクシンジュクモノリス","prefecture_code":13},"0921":{"zip_code":"1630921","prefecture":"東京都","prefecture_kana":"トウキョウト","city":"新宿区","city_kana":"シンジュクク","town":"西新宿新宿モノリス","town_kana":"ニシシンジュクシンジュクモノリス","prefecture_code":13},"0922":{"zip_code":"1630922","prefecture":"東京都","prefecture_kana":"トウキョウト","city":"新宿区","city_kana":"シンジュクク","town":"西新宿新宿モノリス","town_kana":"ニシシンジュクシンジュクモノリス","prefecture_code":13},"0923":{"zip_code":"1630923","prefecture":"東京都","prefecture_kana":"トウキョウト","city":"新宿区","city_kana":"シンジュクク","town":"西新宿新宿モノリス","town_kana":"ニシシンジュクシンジュクモノリス","prefecture_code":13},"0924":{"zip_code":"1630924","prefecture":"東京都","prefecture_kana":"トウキョウト","city":"新宿区","city_kana":"シンジュクク","town":"西新宿新宿モノリス","town_kana":"ニシシンジュクシンジュクモノリス","prefecture_code":13},"0925":{"zip_code":"1630925","prefecture":"東京都","prefecture_kana":"トウキョウト","city":"新宿区","city_kana":"シンジュクク","town":"西新宿新宿モノリス","town_kana":"ニシシンジュクシンジュクモノリス","prefecture_code":13},"0926":{"zip_code":"1630926","prefecture":"東京都","prefecture_kana":"トウキョウト","city":"新宿区","city_kana":"シンジュクク","town":"西新宿新宿モノリス","town_kana":"ニシシンジュクシンジュクモノリス","prefecture_code":13},"0927":{"zip_code":"1630927","prefecture":"東京都","prefecture_kana":"トウキョウト","city":"新宿区","city_kana":"シンジュクク","town":"西新宿新宿モノリス","town_kana":"ニシシンジュクシンジュクモノリス","prefecture_code":13},"0928":{"zip_code":"1630928","prefecture":"東京都","prefecture_kana":"トウキョウト","city":"新宿区","city_kana":"シンジュクク","town":"西新宿新宿モノリス","town_kana":"ニシシンジュクシンジュクモノリス","prefecture_code":13},"0929":{"zip_code":"1630929","prefecture":"東京都","prefecture_kana":"トウキョウト","city":"新宿区","city_kana":"シンジュクク","town":"西新宿新宿モノリス","town_kana":"ニシシンジュクシンジュクモノリス","prefecture_code":13},"0930":{"zip_code":"1630930","prefecture":"東京都","prefecture_kana":"トウキョウト","city":"新宿区","city_kana":"シンジュクク","town":"西新宿新宿モノリス","town_kana":"ニシシンジュクシンジュクモノリス","prefecture_code":13},"6090":{"zip_code":"1636090","prefecture":"東京都","prefecture_kana":"トウキョウト","city":"新宿区","city_kana":"シンジュクク","town":"西新宿住友不動産新宿オークタワー","town_kana":"ニシシンジュクスミトモフドウサンシンジュクオークタワー","prefecture_code":13},"6001":{"zip_code":"1636001","prefecture":"東京都","prefecture_kana":"トウキョウト","city":"新宿区","city_kana":"シンジュクク","town":"西新宿住友不動産新宿オークタワー","town_kana":"ニシシンジュクスミトモフドウサンシンジュクオークタワー","prefecture_code":13},"6002":{"zip_code":"1636002","prefecture":"東京都","prefecture_kana":"トウキョウト","city":"新宿区","city_kana":"シンジュクク","town":"西新宿住友不動産新宿オークタワー","town_kana":"ニシシンジュクスミトモフドウサンシンジュクオークタワー","prefecture_code":13},"6003":{"zip_code":"1636003","prefecture":"東京都","prefecture_kana":"トウキョウト","city":"新宿区","city_kana":"シンジュクク","town":"西新宿住友不動産新宿オークタワー","town_kana":"ニシシンジュクスミトモフドウサンシンジュクオークタワー","prefecture_code":13},"6004":{"zip_code":"1636004","prefecture":"東京都","prefecture_kana":"トウキョウト","city":"新宿区","city_kana":"シンジュクク","town":"西新宿住友不動産新宿オークタワー","town_kana":"ニシシンジュクスミトモフドウサンシンジュクオークタワー","prefecture_code":13},"6005":{"zip_code":"1636005","prefecture":"東京都","prefecture_kana":"トウキョウト","city":"新宿区","city_kana":"シンジュクク","town":"西新宿住友不動産新宿オークタワー","town_kana":"ニシシンジュクスミトモフドウサンシンジュクオークタワー","prefecture_code":13},"6006":{"zip_code":"1636006","prefecture":"東京都","prefecture_kana":"トウキョウト","city":"新宿区","city_kana":"シンジュクク","town":"西新宿住友不動産新宿オークタワー","town_kana":"ニシシンジュクスミトモフドウサンシンジュクオークタワー","prefecture_code":13},"6007":{"zip_code":"1636007","prefecture":"東京都","prefecture_kana":"トウキョウト","city":"新宿区","city_kana":"シンジュクク","town":"西新宿住友不動産新宿オークタワー","town_kana":"ニシシンジュクスミトモフドウサンシンジュクオークタワー","prefecture_code":13},"6008":{"zip_code":"1636008","prefecture":"東京都","prefecture_kana":"トウキョウト","city":"新宿区","city_kana":"シンジュクク","town":"西新宿住友不動産新宿オークタワー","town_kana":"ニシシンジュクスミトモフドウサンシンジュクオークタワー","prefecture_code":13},"6009":{"zip_code":"1636009","prefecture":"東京都","prefecture_kana":"トウキョウト","city":"新宿区","city_kana":"シンジュクク","town":"西新宿住友不動産新宿オークタワー","town_kana":"ニシシンジュクスミトモフドウサンシンジュクオークタワー","prefecture_code":13},"6010":{"zip_code":"1636010","prefecture":"東京都","prefecture_kana":"トウキョウト","city":"新宿区","city_kana":"シンジュクク","town":"西新宿住友不動産新宿オークタワー","town_kana":"ニシシンジュクスミトモフドウサンシンジュクオークタワー","prefecture_code":13},"6011":{"zip_code":"1636011","prefecture":"東京都","prefecture_kana":"トウキョウト","city":"新宿区","city_kana":"シンジュクク","town":"西新宿住友不動産新宿オークタワー","town_kana":"ニシシンジュクスミトモフドウサンシンジュクオークタワー","prefecture_code":13},"6012":{"zip_code":"1636012","prefecture":"東京都","prefecture_kana":"トウキョウト","city":"新宿区","city_kana":"シンジュクク","town":"西新宿住友不動産新宿オークタワー","town_kana":"ニシシンジュクスミトモフドウサンシンジュクオークタワー","prefecture_code":13},"6013":{"zip_code":"1636013","prefecture":"東京都","prefecture_kana":"トウキョウト","city":"新宿区","city_kana":"シンジュクク","town":"西新宿住友不動産新宿オークタワー","town_kana":"ニシシンジュクスミトモフドウサンシンジュクオークタワー","prefecture_code":13},"6014":{"zip_code":"1636014","prefecture":"東京都","prefecture_kana":"トウキョウト","city":"新宿区","city_kana":"シンジュクク","town":"西新宿住友不動産新宿オークタワー","town_kana":"ニシシンジュクスミトモフドウサンシンジュクオークタワー","prefecture_code":13},"6015":{"zip_code":"1636015","prefecture":"東京都","prefecture_kana":"トウキョウト","city":"新宿区","city_kana":"シンジュクク","town":"西新宿住友不動産新宿オークタワー","town_kana":"ニシシンジュクスミトモフドウサンシンジュクオークタワー","prefecture_code":13},"6016":{"zip_code":"1636016","prefecture":"東京都","prefecture_kana":"トウキョウト","city":"新宿区","city_kana":"シンジュクク","town":"西新宿住友不動産新宿オークタワー","town_kana":"ニシシンジュクスミトモフドウサンシンジュクオークタワー","prefecture_code":13},"6017":{"zip_code":"1636017","prefecture":"東京都","prefecture_kana":"トウキョウト","city":"新宿区","city_kana":"シンジュクク","town":"西新宿住友不動産新宿オークタワー","town_kana":"ニシシンジュクスミトモフドウサンシンジュクオークタワー","prefecture_code":13},"6018":{"zip_code":"1636018","prefecture":"東京都","prefecture_kana":"トウキョウト","city":"新宿区","city_kana":"シンジュクク","town":"西新宿住友不動産新宿オークタワー","town_kana":"ニシシンジュクスミトモフドウサンシンジュクオークタワー","prefecture_code":13},"6019":{"zip_code":"1636019","prefecture":"東京都","prefecture_kana":"トウキョウト","city":"新宿区","city_kana":"シンジュクク","town":"西新宿住友不動産新宿オークタワー","town_kana":"ニシシンジュクスミトモフドウサンシンジュクオークタワー","prefecture_code":13},"6020":{"zip_code":"1636020","prefecture":"東京都","prefecture_kana":"トウキョウト","city":"新宿区","city_kana":"シンジュクク","town":"西新宿住友不動産新宿オークタワー","town_kana":"ニシシンジュクスミトモフドウサンシンジュクオークタワー","prefecture_code":13},"6021":{"zip_code":"1636021","prefecture":"東京都","prefecture_kana":"トウキョウト","city":"新宿区","city_kana":"シンジュクク","town":"西新宿住友不動産新宿オークタワー","town_kana":"ニシシンジュクスミトモフドウサンシンジュクオークタワー","prefecture_code":13},"6022":{"zip_code":"1636022","prefecture":"東京都","prefecture_kana":"トウキョウト","city":"新宿区","city_kana":"シンジュクク","town":"西新宿住友不動産新宿オークタワー","town_kana":"ニシシンジュクスミトモフドウサンシンジュクオークタワー","prefecture_code":13},"6023":{"zip_code":"1636023","prefecture":"東京都","prefecture_kana":"トウキョウト","city":"新宿区","city_kana":"シンジュクク","town":"西新宿住友不動産新宿オークタワー","town_kana":"ニシシンジュクスミトモフドウサンシンジュクオークタワー","prefecture_code":13},"6024":{"zip_code":"1636024","prefecture":"東京都","prefecture_kana":"トウキョウト","city":"新宿区","city_kana":"シンジュクク","town":"西新宿住友不動産新宿オークタワー","town_kana":"ニシシンジュクスミトモフドウサンシンジュクオークタワー","prefecture_code":13},"6025":{"zip_code":"1636025","prefecture":"東京都","prefecture_kana":"トウキョウト","city":"新宿区","city_kana":"シンジュクク","town":"西新宿住友不動産新宿オークタワー","town_kana":"ニシシンジュクスミトモフドウサンシンジュクオークタワー","prefecture_code":13},"6026":{"zip_code":"1636026","prefecture":"東京都","prefecture_kana":"トウキョウト","city":"新宿区","city_kana":"シンジュクク","town":"西新宿住友不動産新宿オークタワー","town_kana":"ニシシンジュクスミトモフドウサンシンジュクオークタワー","prefecture_code":13},"6027":{"zip_code":"1636027","prefecture":"東京都","prefecture_kana":"トウキョウト","city":"新宿区","city_kana":"シンジュクク","town":"西新宿住友不動産新宿オークタワー","town_kana":"ニシシンジュクスミトモフドウサンシンジュクオークタワー","prefecture_code":13},"6028":{"zip_code":"1636028","prefecture":"東京都","prefecture_kana":"トウキョウト","city":"新宿区","city_kana":"シンジュクク","town":"西新宿住友不動産新宿オークタワー","town_kana":"ニシシンジュクスミトモフドウサンシンジュクオークタワー","prefecture_code":13},"6029":{"zip_code":"1636029","prefecture":"東京都","prefecture_kana":"トウキョウト","city":"新宿区","city_kana":"シンジュクク","town":"西新宿住友不動産新宿オークタワー","town_kana":"ニシシンジュクスミトモフドウサンシンジュクオークタワー","prefecture_code":13},"6030":{"zip_code":"1636030","prefecture":"東京都","prefecture_kana":"トウキョウト","city":"新宿区","city_kana":"シンジュクク","town":"西新宿住友不動産新宿オークタワー","town_kana":"ニシシンジュクスミトモフドウサンシンジュクオークタワー","prefecture_code":13},"6031":{"zip_code":"1636031","prefecture":"東京都","prefecture_kana":"トウキョウト","city":"新宿区","city_kana":"シンジュクク","town":"西新宿住友不動産新宿オークタワー","town_kana":"ニシシンジュクスミトモフドウサンシンジュクオークタワー","prefecture_code":13},"6032":{"zip_code":"1636032","prefecture":"東京都","prefecture_kana":"トウキョウト","city":"新宿区","city_kana":"シンジュクク","town":"西新宿住友不動産新宿オークタワー","town_kana":"ニシシンジュクスミトモフドウサンシンジュクオークタワー","prefecture_code":13},"6033":{"zip_code":"1636033","prefecture":"東京都","prefecture_kana":"トウキョウト","city":"新宿区","city_kana":"シンジュクク","town":"西新宿住友不動産新宿オークタワー","town_kana":"ニシシンジュクスミトモフドウサンシンジュクオークタワー","prefecture_code":13},"6034":{"zip_code":"1636034","prefecture":"東京都","prefecture_kana":"トウキョウト","city":"新宿区","city_kana":"シンジュクク","town":"西新宿住友不動産新宿オークタワー","town_kana":"ニシシンジュクスミトモフドウサンシンジュクオークタワー","prefecture_code":13},"6035":{"zip_code":"1636035","prefecture":"東京都","prefecture_kana":"トウキョウト","city":"新宿区","city_kana":"シンジュクク","town":"西新宿住友不動産新宿オークタワー","town_kana":"ニシシンジュクスミトモフドウサンシンジュクオークタワー","prefecture_code":13},"6036":{"zip_code":"1636036","prefecture":"東京都","prefecture_kana":"トウキョウト","city":"新宿区","city_kana":"シンジュクク","town":"西新宿住友不動産新宿オークタワー","town_kana":"ニシシンジュクスミトモフドウサンシンジュクオークタワー","prefecture_code":13},"6037":{"zip_code":"1636037","prefecture":"東京都","prefecture_kana":"トウキョウト","city":"新宿区","city_kana":"シンジュクク","town":"西新宿住友不動産新宿オークタワー","town_kana":"ニシシンジュクスミトモフドウサンシンジュクオークタワー","prefecture_code":13},"6038":{"zip_code":"1636038","prefecture":"東京都","prefecture_kana":"トウキョウト","city":"新宿区","city_kana":"シンジュクク","town":"西新宿住友不動産新宿オークタワー","town_kana":"ニシシンジュクスミトモフドウサンシンジュクオークタワー","prefecture_code":13},"1490":{"zip_code":"1631490","prefecture":"東京都","prefecture_kana":"トウキョウト","city":"新宿区","city_kana":"シンジュクク","town":"西新宿東京オペラシティ","town_kana":"ニシシンジュクトウキョウオペラシティ","prefecture_code":13},"1401":{"zip_code":"1631401","prefecture":"東京都","prefecture_kana":"トウキョウト","city":"新宿区","city_kana":"シンジュクク","town":"西新宿東京オペラシティ","town_kana":"ニシシンジュクトウキョウオペラシティ","prefecture_code":13},"1402":{"zip_code":"1631402","prefecture":"東京都","prefecture_kana":"トウキョウト","city":"新宿区","city_kana":"シンジュクク","town":"西新宿東京オペラシティ","town_kana":"ニシシンジュクトウキョウオペラシティ","prefecture_code":13},"1403":{"zip_code":"1631403","prefecture":"東京都","prefecture_kana":"トウキョウト","city":"新宿区","city_kana":"シンジュクク","town":"西新宿東京オペラシティ","town_kana":"ニシシンジュクトウキョウオペラシティ","prefecture_code":13},"1404":{"zip_code":"1631404","prefecture":"東京都","prefecture_kana":"トウキョウト","city":"新宿区","city_kana":"シンジュクク","town":"西新宿東京オペラシティ","town_kana":"ニシシンジュクトウキョウオペラシティ","prefecture_code":13},"1405":{"zip_code":"1631405","prefecture":"東京都","prefecture_kana":"トウキョウト","city":"新宿区","city_kana":"シンジュクク","town":"西新宿東京オペラシティ","town_kana":"ニシシンジュクトウキョウオペラシティ","prefecture_code":13},"1406":{"zip_code":"1631406","prefecture":"東京都","prefecture_kana":"トウキョウト","city":"新宿区","city_kana":"シンジュクク","town":"西新宿東京オペラシティ","town_kana":"ニシシンジュクトウキョウオペラシティ","prefecture_code":13},"1407":{"zip_code":"1631407","prefecture":"東京都","prefecture_kana":"トウキョウト","city":"新宿区","city_kana":"シンジュクク","town":"西新宿東京オペラシティ","town_kana":"ニシシンジュクトウキョウオペラシティ","prefecture_code":13},"1408":{"zip_code":"1631408","prefecture":"東京都","prefecture_kana":"トウキョウト","city":"新宿区","city_kana":"シンジュクク","town":"西新宿東京オペラシティ","town_kana":"ニシシンジュクトウキョウオペラシティ","prefecture_code":13},"1409":{"zip_code":"1631409","prefecture":"東京都","prefecture_kana":"トウキョウト","city":"新宿区","city_kana":"シンジュクク","town":"西新宿東京オペラシティ","town_kana":"ニシシンジュクトウキョウオペラシティ","prefecture_code":13},"1410":{"zip_code":"1631410","prefecture":"東京都","prefecture_kana":"トウキョウト","city":"新宿区","city_kana":"シンジュクク","town":"西新宿東京オペラシティ","town_kana":"ニシシンジュクトウキョウオペラシティ","prefecture_code":13},"1411":{"zip_code":"1631411","prefecture":"東京都","prefecture_kana":"トウキョウト","city":"新宿区","city_kana":"シンジュクク","town":"西新宿東京オペラシティ","town_kana":"ニシシンジュクトウキョウオペラシティ","prefecture_code":13},"1412":{"zip_code":"1631412","prefecture":"東京都","prefecture_kana":"トウキョウト","city":"新宿区","city_kana":"シンジュクク","town":"西新宿東京オペラシティ","town_kana":"ニシシンジュクトウキョウオペラシティ","prefecture_code":13},"1413":{"zip_code":"1631413","prefecture":"東京都","prefecture_kana":"トウキョウト","city":"新宿区","city_kana":"シンジュクク","town":"西新宿東京オペラシティ","town_kana":"ニシシンジュクトウキョウオペラシティ","prefecture_code":13},"1414":{"zip_code":"1631414","prefecture":"東京都","prefecture_kana":"トウキョウト","city":"新宿区","city_kana":"シンジュクク","town":"西新宿東京オペラシティ","town_kana":"ニシシンジュクトウキョウオペラシティ","prefecture_code":13},"1415":{"zip_code":"1631415","prefecture":"東京都","prefecture_kana":"トウキョウト","city":"新宿区","city_kana":"シンジュクク","town":"西新宿東京オペラシティ","town_kana":"ニシシンジュクトウキョウオペラシティ","prefecture_code":13},"1416":{"zip_code":"1631416","prefecture":"東京都","prefecture_kana":"トウキョウト","city":"新宿区","city_kana":"シンジュクク","town":"西新宿東京オペラシティ","town_kana":"ニシシンジュクトウキョウオペラシティ","prefecture_code":13},"1417":{"zip_code":"1631417","prefecture":"東京都","prefecture_kana":"トウキョウト","city":"新宿区","city_kana":"シンジュクク","town":"西新宿東京オペラシティ","town_kana":"ニシシンジュクトウキョウオペラシティ","prefecture_code":13},"1418":{"zip_code":"1631418","prefecture":"東京都","prefecture_kana":"トウキョウト","city":"新宿区","city_kana":"シンジュクク","town":"西新宿東京オペラシティ","town_kana":"ニシシンジュクトウキョウオペラシティ","prefecture_code":13},"1419":{"zip_code":"1631419","prefecture":"東京都","prefecture_kana":"トウキョウト","city":"新宿区","city_kana":"シンジュクク","town":"西新宿東京オペラシティ","town_kana":"ニシシンジュクトウキョウオペラシティ","prefecture_code":13},"1420":{"zip_code":"1631420","prefecture":"東京都","prefecture_kana":"トウキョウト","city":"新宿区","city_kana":"シンジュクク","town":"西新宿東京オペラシティ","town_kana":"ニシシンジュクトウキョウオペラシティ","prefecture_code":13},"1421":{"zip_code":"1631421","prefecture":"東京都","prefecture_kana":"トウキョウト","city":"新宿区","city_kana":"シンジュクク","town":"西新宿東京オペラシティ","town_kana":"ニシシンジュクトウキョウオペラシティ","prefecture_code":13},"1422":{"zip_code":"1631422","prefecture":"東京都","prefecture_kana":"トウキョウト","city":"新宿区","city_kana":"シンジュクク","town":"西新宿東京オペラシティ","town_kana":"ニシシンジュクトウキョウオペラシティ","prefecture_code":13},"1423":{"zip_code":"1631423","prefecture":"東京都","prefecture_kana":"トウキョウト","city":"新宿区","city_kana":"シンジュクク","town":"西新宿東京オペラシティ","town_kana":"ニシシンジュクトウキョウオペラシティ","prefecture_code":13},"1424":{"zip_code":"1631424","prefecture":"東京都","prefecture_kana":"トウキョウト","city":"新宿区","city_kana":"シンジュクク","town":"西新宿東京オペラシティ","town_kana":"ニシシンジュクトウキョウオペラシティ","prefecture_code":13},"1425":{"zip_code":"1631425","prefecture":"東京都","prefecture_kana":"トウキョウト","city":"新宿区","city_kana":"シンジュクク","town":"西新宿東京オペラシティ","town_kana":"ニシシンジュクトウキョウオペラシティ","prefecture_code":13},"1426":{"zip_code":"1631426","prefecture":"東京都","prefecture_kana":"トウキョウト","city":"新宿区","city_kana":"シンジュクク","town":"西新宿東京オペラシティ","town_kana":"ニシシンジュクトウキョウオペラシティ","prefecture_code":13},"1427":{"zip_code":"1631427","prefecture":"東京都","prefecture_kana":"トウキョウト","city":"新宿区","city_kana":"シンジュクク","town":"西新宿東京オペラシティ","town_kana":"ニシシンジュクトウキョウオペラシティ","prefecture_code":13},"1428":{"zip_code":"1631428","prefecture":"東京都","prefecture_kana":"トウキョウト","city":"新宿区","city_kana":"シンジュクク","town":"西新宿東京オペラシティ","town_kana":"ニシシンジュクトウキョウオペラシティ","prefecture_code":13},"1429":{"zip_code":"1631429","prefecture":"東京都","prefecture_kana":"トウキョウト","city":"新宿区","city_kana":"シンジュクク","town":"西新宿東京オペラシティ","town_kana":"ニシシンジュクトウキョウオペラシティ","prefecture_code":13},"1430":{"zip_code":"1631430","prefecture":"東京都","prefecture_kana":"トウキョウト","city":"新宿区","city_kana":"シンジュクク","town":"西新宿東京オペラシティ","town_kana":"ニシシンジュクトウキョウオペラシティ","prefecture_code":13},"1431":{"zip_code":"1631431","prefecture":"東京都","prefecture_kana":"トウキョウト","city":"新宿区","city_kana":"シンジュクク","town":"西新宿東京オペラシティ","town_kana":"ニシシンジュクトウキョウオペラシティ","prefecture_code":13},"1432":{"zip_code":"1631432","prefecture":"東京都","prefecture_kana":"トウキョウト","city":"新宿区","city_kana":"シンジュクク","town":"西新宿東京オペラシティ","town_kana":"ニシシンジュクトウキョウオペラシティ","prefecture_code":13},"1433":{"zip_code":"1631433","prefecture":"東京都","prefecture_kana":"トウキョウト","city":"新宿区","city_kana":"シンジュクク","town":"西新宿東京オペラシティ","town_kana":"ニシシンジュクトウキョウオペラシティ","prefecture_code":13},"1434":{"zip_code":"1631434","prefecture":"東京都","prefecture_kana":"トウキョウト","city":"新宿区","city_kana":"シンジュクク","town":"西新宿東京オペラシティ","town_kana":"ニシシンジュクトウキョウオペラシティ","prefecture_code":13},"1435":{"zip_code":"1631435","prefecture":"東京都","prefecture_kana":"トウキョウト","city":"新宿区","city_kana":"シンジュクク","town":"西新宿東京オペラシティ","town_kana":"ニシシンジュクトウキョウオペラシティ","prefecture_code":13},"1436":{"zip_code":"1631436","prefecture":"東京都","prefecture_kana":"トウキョウト","city":"新宿区","city_kana":"シンジュクク","town":"西新宿東京オペラシティ","town_kana":"ニシシンジュクトウキョウオペラシティ","prefecture_code":13},"1437":{"zip_code":"1631437","prefecture":"東京都","prefecture_kana":"トウキョウト","city":"新宿区","city_kana":"シンジュクク","town":"西新宿東京オペラシティ","town_kana":"ニシシンジュクトウキョウオペラシティ","prefecture_code":13},"1438":{"zip_code":"1631438","prefecture":"東京都","prefecture_kana":"トウキョウト","city":"新宿区","city_kana":"シンジュクク","town":"西新宿東京オペラシティ","town_kana":"ニシシンジュクトウキョウオペラシティ","prefecture_code":13},"1439":{"zip_code":"1631439","prefecture":"東京都","prefecture_kana":"トウキョウト","city":"新宿区","city_kana":"シンジュクク","town":"西新宿東京オペラシティ","town_kana":"ニシシンジュクトウキョウオペラシティ","prefecture_code":13},"1440":{"zip_code":"1631440","prefecture":"東京都","prefecture_kana":"トウキョウト","city":"新宿区","city_kana":"シンジュクク","town":"西新宿東京オペラシティ","town_kana":"ニシシンジュクトウキョウオペラシティ","prefecture_code":13},"1441":{"zip_code":"1631441","prefecture":"東京都","prefecture_kana":"トウキョウト","city":"新宿区","city_kana":"シンジュクク","town":"西新宿東京オペラシティ","town_kana":"ニシシンジュクトウキョウオペラシティ","prefecture_code":13},"1442":{"zip_code":"1631442","prefecture":"東京都","prefecture_kana":"トウキョウト","city":"新宿区","city_kana":"シンジュクク","town":"西新宿東京オペラシティ","town_kana":"ニシシンジュクトウキョウオペラシティ","prefecture_code":13},"1443":{"zip_code":"1631443","prefecture":"東京都","prefecture_kana":"トウキョウト","city":"新宿区","city_kana":"シンジュクク","town":"西新宿東京オペラシティ","town_kana":"ニシシンジュクトウキョウオペラシティ","prefecture_code":13},"1444":{"zip_code":"1631444","prefecture":"東京都","prefecture_kana":"トウキョウト","city":"新宿区","city_kana":"シンジュクク","town":"西新宿東京オペラシティ","town_kana":"ニシシンジュクトウキョウオペラシティ","prefecture_code":13},"1445":{"zip_code":"1631445","prefecture":"東京都","prefecture_kana":"トウキョウト","city":"新宿区","city_kana":"シンジュクク","town":"西新宿東京オペラシティ","town_kana":"ニシシンジュクトウキョウオペラシティ","prefecture_code":13},"1446":{"zip_code":"1631446","prefecture":"東京都","prefecture_kana":"トウキョウト","city":"新宿区","city_kana":"シンジュクク","town":"西新宿東京オペラシティ","town_kana":"ニシシンジュクトウキョウオペラシティ","prefecture_code":13},"1447":{"zip_code":"1631447","prefecture":"東京都","prefecture_kana":"トウキョウト","city":"新宿区","city_kana":"シンジュクク","town":"西新宿東京オペラシティ","town_kana":"ニシシンジュクトウキョウオペラシティ","prefecture_code":13},"1448":{"zip_code":"1631448","prefecture":"東京都","prefecture_kana":"トウキョウト","city":"新宿区","city_kana":"シンジュクク","town":"西新宿東京オペラシティ","town_kana":"ニシシンジュクトウキョウオペラシティ","prefecture_code":13},"1449":{"zip_code":"1631449","prefecture":"東京都","prefecture_kana":"トウキョウト","city":"新宿区","city_kana":"シンジュクク","town":"西新宿東京オペラシティ","town_kana":"ニシシンジュクトウキョウオペラシティ","prefecture_code":13},"1450":{"zip_code":"1631450","prefecture":"東京都","prefecture_kana":"トウキョウト","city":"新宿区","city_kana":"シンジュクク","town":"西新宿東京オペラシティ","town_kana":"ニシシンジュクトウキョウオペラシティ","prefecture_code":13},"1451":{"zip_code":"1631451","prefecture":"東京都","prefecture_kana":"トウキョウト","city":"新宿区","city_kana":"シンジュクク","town":"西新宿東京オペラシティ","town_kana":"ニシシンジュクトウキョウオペラシティ","prefecture_code":13},"1452":{"zip_code":"1631452","prefecture":"東京都","prefecture_kana":"トウキョウト","city":"新宿区","city_kana":"シンジュクク","town":"西新宿東京オペラシティ","town_kana":"ニシシンジュクトウキョウオペラシティ","prefecture_code":13},"1453":{"zip_code":"1631453","prefecture":"東京都","prefecture_kana":"トウキョウト","city":"新宿区","city_kana":"シンジュクク","town":"西新宿東京オペラシティ","town_kana":"ニシシンジュクトウキョウオペラシティ","prefecture_code":13},"1454":{"zip_code":"1631454","prefecture":"東京都","prefecture_kana":"トウキョウト","city":"新宿区","city_kana":"シンジュクク","town":"西新宿東京オペラシティ","town_kana":"ニシシンジュクトウキョウオペラシティ","prefecture_code":13}}