{"0000":{"zip_code":"2200000","prefecture":"神奈川県","prefecture_kana":"カナガワケン","city":"横浜市西区","city_kana":"ヨコハマシニシク","town":"","town_kana":"","prefecture_code":14},"0034":{"zip_code":"2200034","prefecture":"神奈川県","prefecture_kana":"カナガワケン","city":"横浜市西区","city_kana":"ヨコハマシニシク","town":"赤門町","town_kana":"アカモンチョウ","prefecture_code":14},"0033":{"zip_code":"2200033","prefecture":"神奈川県","prefecture_kana":"カナガワケン","city":"横浜市西区","city_kana":"ヨコハマシニシク","town":"東ケ丘","town_kana":"アズマガオカ","prefecture_code":14},"0045":{"zip_code":"2200045","prefecture":"神奈川県","prefecture_kana":"カナガワケン","city":"横浜市西区","city_kana":"ヨコハマシニシク","town":"伊勢町","town_kana":"イセチョウ","prefecture_code":14},"0032":{"zip_code":"2200032","prefecture":"神奈川県","prefecture_kana":"カナガワケン","city":"横浜市西区","city_kana":"ヨコハマシニシク","town":"老松町","town_kana":"オイマツチョウ","prefecture_code":14},"0073":{"zip_code":"2200073","prefecture":"神奈川県","prefecture_kana":"カナガワケン","city":"横浜市西区","city_kana":"ヨコハマシニシク","town":"岡野","town_kana":"オカノ","prefecture_code":14},"0035":{"zip_code":"2200035","prefecture":"神奈川県","prefecture_kana":"カナガワケン","city":"横浜市西区","city_kana":"ヨコハマシニシク","town":"霞ケ丘","town_kana":"カスミガオカ","prefecture_code":14},"0001":{"zip_code":"2200001","prefecture":"神奈川県","prefecture_kana":"カナガワケン","city":"横浜市西区","city_kana":"ヨコハマシニシク","town":"北軽井沢","town_kana":"キタカルイザワ","prefecture_code":14},"0004":{"zip_code":"2200004","prefecture":"神奈川県","prefecture_kana":"カナガワケン","city":"横浜市西区","city_kana":"ヨコハマシニシク","town":"北幸","town_kana":"キタサイワイ","prefecture_code":14},"0003":{"zip_code":"2200003","prefecture":"神奈川県","prefecture_kana":"カナガワケン","city":"横浜市西区","city_kana":"ヨコハマシニシク","town":"楠町","town_kana":"クスノキチョウ","prefecture_code":14},"0061":{"zip_code":"2200061","prefecture":"神奈川県","prefecture_kana":"カナガワケン","city":"横浜市西区","city_kana":"ヨコハマシニシク","town":"久保町","town_kana":"クボチョウ","prefecture_code":14},"0043":{"zip_code":"2200043","prefecture":"神奈川県","prefecture_kana":"カナガワケン","city":"横浜市西区","city_kana":"ヨコハマシニシク","town":"御所山町","town_kana":"ゴショヤマチョウ","prefecture_code":14},"0054":{"zip_code":"2200054","prefecture":"神奈川県","prefecture_kana":"カナガワケン","city":"横浜市西区","city_kana":"ヨコハマシニシク","town":"境之谷","town_kana":"サカイノタニ","prefecture_code":14},"0021":{"zip_code":"2200021","prefecture":"神奈川県","prefecture_kana":"カナガワケン","city":"横浜市西区","city_kana":"ヨコハマシニシク","town":"桜木町","town_kana":"サクラギチョウ","prefecture_code":14},"0071":{"zip_code":"2200071","prefecture":"神奈川県","prefecture_kana":"カナガワケン","city":"横浜市西区","city_kana":"ヨコハマシニシク","town":"浅間台","town_kana":"センゲンダイ","prefecture_code":14},"0072":{"zip_code":"2200072","prefecture":"神奈川県","prefecture_kana":"カナガワケン","city":"横浜市西区","city_kana":"ヨコハマシニシク","town":"浅間町","town_kana":"センゲンチョウ","prefecture_code":14},"0011":{"zip_code":"2200011","prefecture":"神奈川県","prefecture_kana":"カナガワケン","city":"横浜市西区","city_kana":"ヨコハマシニシク","town":"高島","town_kana":"タカシマ","prefecture_code":14},"0051":{"zip_code":"2200051","prefecture":"神奈川県","prefecture_kana":"カナガワケン","city":"横浜市西区","city_kana":"ヨコハマシニシク","town":"中央","town_kana":"チュウオウ","prefecture_code":14},"0042":{"zip_code":"2200042","prefecture":"神奈川県","prefecture_kana":"カナガワケン","city":"横浜市西区","city_kana":"ヨコハマシニシク","town":"戸部町","town_kana":"トベチョウ","prefecture_code":14},"0041":{"zip_code":"2200041","prefecture":"神奈川県","prefecture_kana":"カナガワケン","city":"横浜市西区","city_kana":"ヨコハマシニシク","town":"戸部本町","town_kana":"トベホンチョウ","prefecture_code":14},"0046":{"zip_code":"2200046","prefecture":"神奈川県","prefecture_kana":"カナガワケン","city":"横浜市西区","city_kana":"ヨコハマシニシク","town":"西戸部町","town_kana":"ニシトベチョウ","prefecture_code":14},"0024":{"zip_code":"2200024","prefecture":"神奈川県","prefecture_kana":"カナガワケン","city":"横浜市西区","city_kana":"ヨコハマシニシク","town":"西平沼町","town_kana":"ニシヒラヌマチョウ","prefecture_code":14},"0052":{"zip_code":"2200052","prefecture":"神奈川県","prefecture_kana":"カナガワケン","city":"横浜市西区","city_kana":"ヨコハマシニシク","town":"西前町","town_kana":"ニシマエチョウ","prefecture_code":14},"0022":{"zip_code":"2200022","prefecture":"神奈川県","prefecture_kana":"カナガワケン","city":"横浜市西区","city_kana":"ヨコハマシニシク","town":"花咲町","town_kana":"ハナサキチョウ","prefecture_code":14},"0055":{"zip_code":"2200055","prefecture":"神奈川県","prefecture_kana":"カナガワケン","city":"横浜市西区","city_kana":"ヨコハマシニシク","town":"浜松町","town_kana":"ハママツチョウ","prefecture_code":14},"0062":{"zip_code":"2200062","prefecture":"神奈川県","prefecture_kana":"カナガワケン","city":"横浜市西区","city_kana":"ヨコハマシニシク","town":"東久保町","town_kana":"ヒガシクボチョウ","prefecture_code":14},"0023":{"zip_code":"2200023","prefecture":"神奈川県","prefecture_kana":"カナガワケン","city":"横浜市西区","city_kana":"ヨコハマシニシク","town":"平沼","town_kana":"ヒラヌマ","prefecture_code":14},"0053":{"zip_code":"2200053","prefecture":"神奈川県","prefecture_kana":"カナガワケン","city":"横浜市西区","city_kana":"ヨコハマシニシク","town":"藤棚町","town_kana":"フジダナチョウ","prefecture_code":14},"0013":{"zip_code":"2200013","prefecture":"神奈川県","prefecture_kana":"カナガワケン","city":"横浜市西区","city_kana":"ヨコハマシニシク","town":"緑町","town_kana":"ミドリチョウ","prefecture_code":14},"0012":{"zip_code":"2200012","prefecture":"神奈川県","prefecture_kana":"カナガワケン","city":"横浜市西区","city_kana":"ヨコハマシニシク","town":"みなとみらい","town_kana":"ミナトミライ","prefecture_code":14},"6090":{"zip_code":"2206090","prefecture":"神奈川県","prefecture_kana":"カナガワケン","city":"横浜市西区","city_kana":"ヨコハマシニシク","town":"みなとみらいクイーンズタワーＡ","town_kana":"ミナトミライクイーンズタワーA","prefecture_code":14},"6001":{"zip_code":"2206001","prefecture":"神奈川県","prefecture_kana":"カナガワケン","city":"横浜市西区","city_kana":"ヨコハマシニシク","town":"みなとみらいクイーンズタワーＡ","town_kana":"ミナトミライクイーンズタワーA","prefecture_code":14},"6002":{"zip_code":"2206002","prefecture":"神奈川県","prefecture_kana":"カナガワケン","city":"横浜市西区","city_kana":"ヨコハマシニシク","town":"みなとみらいクイーンズタワーＡ","town_kana":"ミナトミライクイーンズタワーA","prefecture_code":14},"6003":{"zip_code":"2206003","prefecture":"神奈川県","prefecture_kana":"カナガワケン","city":"横浜市西区","city_kana":"ヨコハマシニシク","town":"みなとみらいクイーンズタワーＡ","town_kana":"ミナトミライクイーンズタワーA","prefecture_code":14},"6004":{"zip_code":"2206004","prefecture":"神奈川県","prefecture_kana":"カナガワケン","city":"横浜市西区","city_kana":"ヨコハマシニシク","town":"みなとみらいクイーンズタワーＡ","town_kana":"ミナトミライクイーンズタワーA","prefecture_code":14},"6005":{"zip_code":"2206005","prefecture":"神奈川県","prefecture_kana":"カナガワケン","city":"横浜市西区","city_kana":"ヨコハマシニシク","town":"みなとみらいクイーンズタワーＡ","town_kana":"ミナトミライクイーンズタワーA","prefecture_code":14},"6006":{"zip_code":"2206006","prefecture":"神奈川県","prefecture_kana":"カナガワケン","city":"横浜市西区","city_kana":"ヨコハマシニシク","town":"みなとみらいクイーンズタワーＡ","town_kana":"ミナトミライクイーンズタワーA","prefecture_code":14},"6007":{"zip_code":"2206007","prefecture":"神奈川県","prefecture_kana":"カナガワケン","city":"横浜市西区","city_kana":"ヨコハマシニシク","town":"みなとみらいクイーンズタワーＡ","town_kana":"ミナトミライクイーンズタワーA","prefecture_code":14},"6008":{"zip_code":"2206008","prefecture":"神奈川県","prefecture_kana":"カナガワケン","city":"横浜市西区","city_kana":"ヨコハマシニシク","town":"みなとみらいクイーンズタワーＡ","town_kana":"ミナトミライクイーンズタワーA","prefecture_code":14},"6009":{"zip_code":"2206009","prefecture":"神奈川県","prefecture_kana":"カナガワケン","city":"横浜市西区","city_kana":"ヨコハマシニシク","town":"みなとみらいクイーンズタワーＡ","town_kana":"ミナトミライクイーンズタワーA","prefecture_code":14},"6010":{"zip_code":"2206010","prefecture":"神奈川県","prefecture_kana":"カナガワケン","city":"横浜市西区","city_kana":"ヨコハマシニシク","town":"みなとみらいクイーンズタワーＡ","town_kana":"ミナトミライクイーンズタワーA","prefecture_code":14},"6011":{"zip_code":"2206011","prefecture":"神奈川県","prefecture_kana":"カナガワケン","city":"横浜市西区","city_kana":"ヨコハマシニシク","town":"みなとみらいクイーンズタワーＡ","town_kana":"ミナトミライクイーンズタワーA","prefecture_code":14},"6012":{"zip_code":"2206012","prefecture":"神奈川県","prefecture_kana":"カナガワケン","city":"横浜市西区","city_kana":"ヨコハマシニシク","town":"みなとみらいクイーンズタワーＡ","town_kana":"ミナトミライクイーンズタワーA","prefecture_code":14},"6013":{"zip_code":"2206013","prefecture":"神奈川県","prefecture_kana":"カナガワケン","city":"横浜市西区","city_kana":"ヨコハマシニシク","town":"みなとみらいクイーンズタワーＡ","town_kana":"ミナトミライクイーンズタワーA","prefecture_code":14},"6014":{"zip_code":"2206014","prefecture":"神奈川県","prefecture_kana":"カナガワケン","city":"横浜市西区","city_kana":"ヨコハマシニシク","town":"みなとみらいクイーンズタワーＡ","town_kana":"ミナトミライクイーンズタワーA","prefecture_code":14},"6015":{"zip_code":"2206015","prefecture":"神奈川県","prefecture_kana":"カナガワケン","city":"横浜市西区","city_kana":"ヨコハマシニシク","town":"みなとみらいクイーンズタワーＡ","town_kana":"ミナトミライクイーンズタワーA","prefecture_code":14},"6016":{"zip_code":"2206016","prefecture":"神奈川県","prefecture_kana":"カナガワケン","city":"横浜市西区","city_kana":"ヨコハマシニシク","town":"みなとみらいクイーンズタワーＡ","town_kana":"ミナトミライクイーンズタワーA","prefecture_code":14},"6017":{"zip_code":"2206017","prefecture":"神奈川県","prefecture_kana":"カナガワケン","city":"横浜市西区","city_kana":"ヨコハマシニシク","town":"みなとみらいクイーンズタワーＡ","town_kana":"ミナトミライクイーンズタワーA","prefecture_code":14},"6018":{"zip_code":"2206018","prefecture":"神奈川県","prefecture_kana":"カナガワケン","city":"横浜市西区","city_kana":"ヨコハマシニシク","town":"みなとみらいクイーンズタワーＡ","town_kana":"ミナトミライクイーンズタワーA","prefecture_code":14},"6019":{"zip_code":"2206019","prefecture":"神奈川県","prefecture_kana":"カナガワケン","city":"横浜市西区","city_kana":"ヨコハマシニシク","town":"みなとみらいクイーンズタワーＡ","town_kana":"ミナトミライクイーンズタワーA","prefecture_code":14},"6020":{"zip_code":"2206020","prefecture":"神奈川県","prefecture_kana":"カナガワケン","city":"横浜市西区","city_kana":"ヨコハマシニシク","town":"みなとみらいクイーンズタワーＡ","town_kana":"ミナトミライクイーンズタワーA","prefecture_code":14},"6021":{"zip_code":"2206021","prefecture":"神奈川県","prefecture_kana":"カナガワケン","city":"横浜市西区","city_kana":"ヨコハマシニシク","town":"みなとみらいクイーンズタワーＡ","town_kana":"ミナトミライクイーンズタワーA","prefecture_code":14},"6022":{"zip_code":"2206022","prefecture":"神奈川県","prefecture_kana":"カナガワケン","city":"横浜市西区","city_kana":"ヨコハマシニシク","town":"みなとみらいクイーンズタワーＡ","town_kana":"ミナトミライクイーンズタワーA","prefecture_code":14},"6023":{"zip_code":"2206023","prefecture":"神奈川県","prefecture_kana":"カナガワケン","city":"横浜市西区","city_kana":"ヨコハマシニシク","town":"みなとみらいクイーンズタワーＡ","town_kana":"ミナトミライクイーンズタワーA","prefecture_code":14},"6024":{"zip_code":"2206024","prefecture":"神奈川県","prefecture_kana":"カナガワケン","city":"横浜市西区","city_kana":"ヨコハマシニシク","town":"みなとみらいクイーンズタワーＡ","town_kana":"ミナトミライクイーンズタワーA","prefecture_code":14},"6025":{"zip_code":"2206025","prefecture":"神奈川県","prefecture_kana":"カナガワケン","city":"横浜市西区","city_kana":"ヨコハマシニシク","town":"みなとみらいクイーンズタワーＡ","town_kana":"ミナトミライクイーンズタワーA","prefecture_code":14},"6026":{"zip_code":"2206026","prefecture":"神奈川県","prefecture_kana":"カナガワケン","city":"横浜市西区","city_kana":"ヨコハマシニシク","town":"みなとみらいクイーンズタワーＡ","town_kana":"ミナトミライクイーンズタワーA","prefecture_code":14},"6027":{"zip_code":"2206027","prefecture":"神奈川県","prefecture_kana":"カナガワケン","city":"横浜市西区","city_kana":"ヨコハマシニシク","town":"みなとみらいクイーンズタワーＡ","town_kana":"ミナトミライクイーンズタワーA","prefecture_code":14},"6028":{"zip_code":"2206028","prefecture":"神奈川県","prefecture_kana":"カナガワケン","city":"横浜市西区","city_kana":"ヨコハマシニシク","town":"みなとみらいクイーンズタワーＡ","town_kana":"ミナトミライクイーンズタワーA","prefecture_code":14},"6029":{"zip_code":"2206029","prefecture":"神奈川県","prefecture_kana":"カナガワケン","city":"横浜市西区","city_kana":"ヨコハマシニシク","town":"みなとみらいクイーンズタワーＡ","town_kana":"ミナトミライクイーンズタワーA","prefecture_code":14},"6030":{"zip_code":"2206030","prefecture":"神奈川県","prefecture_kana":"カナガワケン","city":"横浜市西区","city_kana":"ヨコハマシニシク","town":"みなとみらいクイーンズタワーＡ","town_kana":"ミナトミライクイーンズタワーA","prefecture_code":14},"6031":{"zip_code":"2206031","prefecture":"神奈川県","prefecture_kana":"カナガワケン","city":"横浜市西区","city_kana":"ヨコハマシニシク","town":"みなとみらいクイーンズタワーＡ","town_kana":"ミナトミライクイーンズタワーA","prefecture_code":14},"6032":{"zip_code":"2206032","prefecture":"神奈川県","prefecture_kana":"カナガワケン","city":"横浜市西区","city_kana":"ヨコハマシニシク","town":"みなとみらいクイーンズタワーＡ","town_kana":"ミナトミライクイーンズタワーA","prefecture_code":14},"6033":{"zip_code":"2206033","prefecture":"神奈川県","prefecture_kana":"カナガワケン","city":"横浜市西区","city_kana":"ヨコハマシニシク","town":"みなとみらいクイーンズタワーＡ","town_kana":"ミナトミライクイーンズタワーA","prefecture_code":14},"6034":{"zip_code":"2206034","prefecture":"神奈川県","prefecture_kana":"カナガワケン","city":"横浜市西区","city_kana":"ヨコハマシニシク","town":"みなとみらいクイーンズタワーＡ","town_kana":"ミナトミライクイーンズタワーA","prefecture_code":14},"6035":{"zip_code":"2206035","prefecture":"神奈川県","prefecture_kana":"カナガワケン","city":"横浜市西区","city_kana":"ヨコハマシニシク","town":"みなとみらいクイーンズタワーＡ","town_kana":"ミナトミライクイーンズタワーA","prefecture_code":14},"6190":{"zip_code":"2206190","prefecture":"神奈川県","prefecture_kana":"カナガワケン","city":"横浜市西区","city_kana":"ヨコハマシニシク","town":"みなとみらいクイーンズタワーＢ","town_kana":"ミナトミライクイーンズタワーB","prefecture_code":14},"6101":{"zip_code":"2206101","prefecture":"神奈川県","prefecture_kana":"カナガワケン","city":"横浜市西区","city_kana":"ヨコハマシニシク","town":"みなとみらいクイーンズタワーＢ","town_kana":"ミナトミライクイーンズタワーB","prefecture_code":14},"6102":{"zip_code":"2206102","prefecture":"神奈川県","prefecture_kana":"カナガワケン","city":"横浜市西区","city_kana":"ヨコハマシニシク","town":"みなとみらいクイーンズタワーＢ","town_kana":"ミナトミライクイーンズタワーB","prefecture_code":14},"6103":{"zip_code":"2206103","prefecture":"神奈川県","prefecture_kana":"カナガワケン","city":"横浜市西区","city_kana":"ヨコハマシニシク","town":"みなとみらいクイーンズタワーＢ","town_kana":"ミナトミライクイーンズタワーB","prefecture_code":14},"6104":{"zip_code":"2206104","prefecture":"神奈川県","prefecture_kana":"カナガワケン","city":"横浜市西区","city_kana":"ヨコハマシニシク","town":"みなとみらいクイーンズタワーＢ","town_kana":"ミナトミライクイーンズタワーB","prefecture_code":14},"6105":{"zip_code":"2206105","prefecture":"神奈川県","prefecture_kana":"カナガワケン","city":"横浜市西区","city_kana":"ヨコハマシニシク","town":"みなとみらいクイーンズタワーＢ","town_kana":"ミナトミライクイーンズタワーB","prefecture_code":14},"6106":{"zip_code":"2206106","prefecture":"神奈川県","prefecture_kana":"カナガワケン","city":"横浜市西区","city_kana":"ヨコハマシニシク","town":"みなとみらいクイーンズタワーＢ","town_kana":"ミナトミライクイーンズタワーB","prefecture_code":14},"6107":{"zip_code":"2206107","prefecture":"神奈川県","prefecture_kana":"カナガワケン","city":"横浜市西区","city_kana":"ヨコハマシニシク","town":"みなとみらいクイーンズタワーＢ","town_kana":"ミナトミライクイーンズタワーB","prefecture_code":14},"6108":{"zip_code":"2206108","prefecture":"神奈川県","prefecture_kana":"カナガワケン","city":"横浜市西区","city_kana":"ヨコハマシニシク","town":"みなとみらいクイーンズタワーＢ","town_kana":"ミナトミライクイーンズタワーB","prefecture_code":14},"6109":{"zip_code":"2206109","prefecture":"神奈川県","prefecture_kana":"カナガワケン","city":"横浜市西区","city_kana":"ヨコハマシニシク","town":"みなとみらいクイーンズタワーＢ","town_kana":"ミナトミライクイーンズタワーB","prefecture_code":14},"6110":{"zip_code":"2206110","prefecture":"神奈川県","prefecture_kana":"カナガワケン","city":"横浜市西区","city_kana":"ヨコハマシニシク","town":"みなとみらいクイーンズタワーＢ","town_kana":"ミナトミライクイーンズタワーB","prefecture_code":14},"6111":{"zip_code":"2206111","prefecture":"神奈川県","prefecture_kana":"カナガワケン","city":"横浜市西区","city_kana":"ヨコハマシニシク","town":"みなとみらいクイーンズタワーＢ","town_kana":"ミナトミライクイーンズタワーB","prefecture_code":14},"6112":{"zip_code":"2206112","prefecture":"神奈川県","prefecture_kana":"カナガワケン","city":"横浜市西区","city_kana":"ヨコハマシニシク","town":"みなとみらいクイーンズタワーＢ","town_kana":"ミナトミライクイーンズタワーB","prefecture_code":14},"6113":{"zip_code":"2206113","prefecture":"神奈川県","prefecture_kana":"カナガワケン","city":"横浜市西区","city_kana":"ヨコハマシニシク","town":"みなとみらいクイーンズタワーＢ","town_kana":"ミナトミライクイーンズタワーB","prefecture_code":14},"6114":{"zip_code":"2206114","prefecture":"神奈川県","prefecture_kana":"カナガワケン","city":"横浜市西区","city_kana":"ヨコハマシニシク","town":"みなとみらいクイーンズタワーＢ","town_kana":"ミナトミライクイーンズタワーB","prefecture_code":14},"6115":{"zip_code":"2206115","prefecture":"神奈川県","prefecture_kana":"カナガワケン","city":"横浜市西区","city_kana":"ヨコハマシニシク","town":"みなとみらいクイーンズタワーＢ","town_kana":"ミナトミライクイーンズタワーB","prefecture_code":14},"6116":{"zip_code":"2206116","prefecture":"神奈川県","prefecture_kana":"カナガワケン","city":"横浜市西区","city_kana":"ヨコハマシニシク","town":"みなとみらいクイーンズタワーＢ","town_kana":"ミナトミライクイーンズタワーB","prefecture_code":14},"6117":{"zip_code":"2206117","prefecture":"神奈川県","prefecture_kana":"カナガワケン","city":"横浜市西区","city_kana":"ヨコハマシニシク","town":"みなとみらいクイーンズタワーＢ","town_kana":"ミナトミライクイーンズタワーB","prefecture_code":14},"6118":{"zip_code":"2206118","prefecture":"神奈川県","prefecture_kana":"カナガワケン","city":"横浜市西区","city_kana":"ヨコハマシニシク","town":"みなとみらいクイーンズタワーＢ","town_kana":"ミナトミライクイーンズタワーB","prefecture_code":14},"6119":{"zip_code":"2206119","prefecture":"神奈川県","prefecture_kana":"カナガワケン","city":"横浜市西区","city_kana":"ヨコハマシニシク","town":"みなとみらいクイーンズタワーＢ","town_kana":"ミナトミライクイーンズタワーB","prefecture_code":14},"6120":{"zip_code":"2206120","prefecture":"神奈川県","prefecture_kana":"カナガワケン","city":"横浜市西区","city_kana":"ヨコハマシニシク","town":"みなとみらいクイーンズタワーＢ","town_kana":"ミナトミライクイーンズタワーB","prefecture_code":14},"6121":{"zip_code":"2206121","prefecture":"神奈川県","prefecture_kana":"カナガワケン","city":"横浜市西区","city_kana":"ヨコハマシニシク","town":"みなとみらいクイーンズタワーＢ","town_kana":"ミナトミライクイーンズタワーB","prefecture_code":14},"6122":{"zip_code":"2206122","prefecture":"神奈川県","prefecture_kana":"カナガワケン","city":"横浜市西区","city_kana":"ヨコハマシニシク","town":"みなとみらいクイーンズタワーＢ","town_kana":"ミナトミライクイーンズタワーB","prefecture_code":14},"6123":{"zip_code":"2206123","prefecture":"神奈川県","prefecture_kana":"カナガワケン","city":"横浜市西区","city_kana":"ヨコハマシニシク","town":"みなとみらいクイーンズタワーＢ","town_kana":"ミナトミライクイーンズタワーB","prefecture_code":14},"6124":{"zip_code":"2206124","prefecture":"神奈川県","prefecture_kana":"カナガワケン","city":"横浜市西区","city_kana":"ヨコハマシニシク","town":"みなとみらいクイーンズタワーＢ","town_kana":"ミナトミライクイーンズタワーB","prefecture_code":14},"6125":{"zip_code":"2206125","prefecture":"神奈川県","prefecture_kana":"カナガワケン","city":"横浜市西区","city_kana":"ヨコハマシニシク","town":"みなとみらいクイーンズタワーＢ","town_kana":"ミナトミライクイーンズタワーB","prefecture_code":14},"6126":{"zip_code":"2206126","prefecture":"神奈川県","prefecture_kana":"カナガワケン","city":"横浜市西区","city_kana":"ヨコハマシニシク","town":"みなとみらいクイーンズタワーＢ","town_kana":"ミナトミライクイーンズタワーB","prefecture_code":14},"6127":{"zip_code":"2206127","prefecture":"神奈川県","prefecture_kana":"カナガワケン","city":"横浜市西区","city_kana":"ヨコハマシニシク","town":"みなとみらいクイーンズタワーＢ","town_kana":"ミナトミライクイーンズタワーB","prefecture_code":14},"6128":{"zip_code":"2206128","prefecture":"神奈川県","prefecture_kana":"カナガワケン","city":"横浜市西区","city_kana":"ヨコハマシニシク","town":"みなとみらいクイーンズタワーＢ","town_kana":"ミナトミライクイーンズタワーB","prefecture_code":14},"6290":{"zip_code":"2206290","prefecture":"神奈川県","prefecture_kana":"カナガワケン","city":"横浜市西区","city_kana":"ヨコハマシニシク","town":"みなとみらいクイーンズタワーＣ","town_kana":"ミナトミライクイーンズタワーC","prefecture_code":14},"6201":{"zip_code":"2206201","prefecture":"神奈川県","prefecture_kana":"カナガワケン","city":"横浜市西区","city_kana":"ヨコハマシニシク","town":"みなとみらいクイーンズタワーＣ","town_kana":"ミナトミライクイーンズタワーC","prefecture_code":14},"6202":{"zip_code":"2206202","prefecture":"神奈川県","prefecture_kana":"カナガワケン","city":"横浜市西区","city_kana":"ヨコハマシニシク","town":"みなとみらいクイーンズタワーＣ","town_kana":"ミナトミライクイーンズタワーC","prefecture_code":14},"6203":{"zip_code":"2206203","prefecture":"神奈川県","prefecture_kana":"カナガワケン","city":"横浜市西区","city_kana":"ヨコハマシニシク","town":"みなとみらいクイーンズタワーＣ","town_kana":"ミナトミライクイーンズタワーC","prefecture_code":14},"6204":{"zip_code":"2206204","prefecture":"神奈川県","prefecture_kana":"カナガワケン","city":"横浜市西区","city_kana":"ヨコハマシニシク","town":"みなとみらいクイーンズタワーＣ","town_kana":"ミナトミライクイーンズタワーC","prefecture_code":14},"6205":{"zip_code":"2206205","prefecture":"神奈川県","prefecture_kana":"カナガワケン","city":"横浜市西区","city_kana":"ヨコハマシニシク","town":"みなとみらいクイーンズタワーＣ","town_kana":"ミナトミライクイーンズタワーC","prefecture_code":14},"6206":{"zip_code":"2206206","prefecture":"神奈川県","prefecture_kana":"カナガワケン","city":"横浜市西区","city_kana":"ヨコハマシニシク","town":"みなとみらいクイーンズタワーＣ","town_kana":"ミナトミライクイーンズタワーC","prefecture_code":14},"6207":{"zip_code":"2206207","prefecture":"神奈川県","prefecture_kana":"カナガワケン","city":"横浜市西区","city_kana":"ヨコハマシニシク","town":"みなとみらいクイーンズタワーＣ","town_kana":"ミナトミライクイーンズタワーC","prefecture_code":14},"6208":{"zip_code":"2206208","prefecture":"神奈川県","prefecture_kana":"カナガワケン","city":"横浜市西区","city_kana":"ヨコハマシニシク","town":"みなとみらいクイーンズタワーＣ","town_kana":"ミナトミライクイーンズタワーC","prefecture_code":14},"6209":{"zip_code":"2206209","prefecture":"神奈川県","prefecture_kana":"カナガワケン","city":"横浜市西区","city_kana":"ヨコハマシニシク","town":"みなとみらいクイーンズタワーＣ","town_kana":"ミナトミライクイーンズタワーC","prefecture_code":14},"6210":{"zip_code":"2206210","prefecture":"神奈川県","prefecture_kana":"カナガワケン","city":"横浜市西区","city_kana":"ヨコハマシニシク","town":"みなとみらいクイーンズタワーＣ","town_kana":"ミナトミライクイーンズタワーC","prefecture_code":14},"6211":{"zip_code":"2206211","prefecture":"神奈川県","prefecture_kana":"カナガワケン","city":"横浜市西区","city_kana":"ヨコハマシニシク","town":"みなとみらいクイーンズタワーＣ","town_kana":"ミナトミライクイーンズタワーC","prefecture_code":14},"6212":{"zip_code":"2206212","prefecture":"神奈川県","prefecture_kana":"カナガワケン","city":"横浜市西区","city_kana":"ヨコハマシニシク","town":"みなとみらいクイーンズタワーＣ","town_kana":"ミナトミライクイーンズタワーC","prefecture_code":14},"6213":{"zip_code":"2206213","prefecture":"神奈川県","prefecture_kana":"カナガワケン","city":"横浜市西区","city_kana":"ヨコハマシニシク","town":"みなとみらいクイーンズタワーＣ","town_kana":"ミナトミライクイーンズタワーC","prefecture_code":14},"6214":{"zip_code":"2206214","prefecture":"神奈川県","prefecture_kana":"カナガワケン","city":"横浜市西区","city_kana":"ヨコハマシニシク","town":"みなとみらいクイーンズタワーＣ","town_kana":"ミナトミライクイーンズタワーC","prefecture_code":14},"6215":{"zip_code":"2206215","prefecture":"神奈川県","prefecture_kana":"カナガワケン","city":"横浜市西区","city_kana":"ヨコハマシニシク","town":"みなとみらいクイーンズタワーＣ","town_kana":"ミナトミライクイーンズタワーC","prefecture_code":14},"6216":{"zip_code":"2206216","prefecture":"神奈川県","prefecture_kana":"カナガワケン","city":"横浜市西区","city_kana":"ヨコハマシニシク","town":"みなとみらいクイーンズタワーＣ","town_kana":"ミナトミライクイーンズタワーC","prefecture_code":14},"6217":{"zip_code":"2206217","prefecture":"神奈川県","prefecture_kana":"カナガワケン","city":"横浜市西区","city_kana":"ヨコハマシニシク","town":"みなとみらいクイーンズタワーＣ","town_kana":"ミナトミライクイーンズタワーC","prefecture_code":14},"6218":{"zip_code":"2206218","prefecture":"神奈川県","prefecture_kana":"カナガワケン","city":"横浜市西区","city_kana":"ヨコハマシニシク","town":"みなとみらいクイーンズタワーＣ","town_kana":"ミナトミライクイーンズタワーC","prefecture_code":14},"6219":{"zip_code":"2206219","prefecture":"神奈川県","prefecture_kana":"カナガワケン","city":"横浜市西区","city_kana":"ヨコハマシニシク","town":"みなとみらいクイーンズタワーＣ","town_kana":"ミナトミライクイーンズタワーC","prefecture_code":14},"6220":{"zip_code":"2206220","prefecture":"神奈川県","prefecture_kana":"カナガワケン","city":"横浜市西区","city_kana":"ヨコハマシニシク","town":"みなとみらいクイーンズタワーＣ","town_kana":"ミナトミライクイーンズタワーC","prefecture_code":14},"6221":{"zip_code":"2206221","prefecture":"神奈川県","prefecture_kana":"カナガワケン","city":"横浜市西区","city_kana":"ヨコハマシニシク","town":"みなとみらいクイーンズタワーＣ","town_kana":"ミナトミライクイーンズタワーC","prefecture_code":14},"8190":{"zip_code":"2208190","prefecture":"神奈川県","prefecture_kana":"カナガワケン","city":"横浜市西区","city_kana":"ヨコハマシニシク","town":"みなとみらいランドマークタワー","town_kana":"ミナトミライランドマークタワー","prefecture_code":14},"8101":{"zip_code":"2208101","prefecture":"神奈川県","prefecture_kana":"カナガワケン","city":"横浜市西区","city_kana":"ヨコハマシニシク","town":"みなとみらいランドマークタワー","town_kana":"ミナトミライランドマークタワー","prefecture_code":14},"8102":{"zip_code":"2208102","prefecture":"神奈川県","prefecture_kana":"カナガワケン","city":"横浜市西区","city_kana":"ヨコハマシニシク","town":"みなとみらいランドマークタワー","town_kana":"ミナトミライランドマークタワー","prefecture_code":14},"8103":{"zip_code":"2208103","prefecture":"神奈川県","prefecture_kana":"カナガワケン","city":"横浜市西区","city_kana":"ヨコハマシニシク","town":"みなとみらいランドマークタワー","town_kana":"ミナトミライランドマークタワー","prefecture_code":14},"8104":{"zip_code":"2208104","prefecture":"神奈川県","prefecture_kana":"カナガワケン","city":"横浜市西区","city_kana":"ヨコハマシニシク","town":"みなとみらいランドマークタワー","town_kana":"ミナトミライランドマークタワー","prefecture_code":14},"8105":{"zip_code":"2208105","prefecture":"神奈川県","prefecture_kana":"カナガワケン","city":"横浜市西区","city_kana":"ヨコハマシニシク","town":"みなとみらいランドマークタワー","town_kana":"ミナトミライランドマークタワー","prefecture_code":14},"8106":{"zip_code":"2208106","prefecture":"神奈川県","prefecture_kana":"カナガワケン","city":"横浜市西区","city_kana":"ヨコハマシニシク","town":"みなとみらいランドマークタワー","town_kana":"ミナトミライランドマークタワー","prefecture_code":14},"8107":{"zip_code":"2208107","prefecture":"神奈川県","prefecture_kana":"カナガワケン","city":"横浜市西区","city_kana":"ヨコハマシニシク","town":"みなとみらいランドマークタワー","town_kana":"ミナトミライランドマークタワー","prefecture_code":14},"8108":{"zip_code":"2208108","prefecture":"神奈川県","prefecture_kana":"カナガワケン","city":"横浜市西区","city_kana":"ヨコハマシニシク","town":"みなとみらいランドマークタワー","town_kana":"ミナトミライランドマークタワー","prefecture_code":14},"8109":{"zip_code":"2208109","prefecture":"神奈川県","prefecture_kana":"カナガワケン","city":"横浜市西区","city_kana":"ヨコハマシニシク","town":"みなとみらいランドマークタワー","town_kana":"ミナトミライランドマークタワー","prefecture_code":14},"8110":{"zip_code":"2208110","prefecture":"神奈川県","prefecture_kana":"カナガワケン","city":"横浜市西区","city_kana":"ヨコハマシニシク","town":"みなとみらいランドマークタワー","town_kana":"ミナトミライランドマークタワー","prefecture_code":14},"8111":{"zip_code":"2208111","prefecture":"神奈川県","prefecture_kana":"カナガワケン","city":"横浜市西区","city_kana":"ヨコハマシニシク","town":"みなとみらいランドマークタワー","town_kana":"ミナトミライランドマークタワー","prefecture_code":14},"8112":{"zip_code":"2208112","prefecture":"神奈川県","prefecture_kana":"カナガワケン","city":"横浜市西区","city_kana":"ヨコハマシニシク","town":"みなとみらいランドマークタワー","town_kana":"ミナトミライランドマークタワー","prefecture_code":14},"8113":{"zip_code":"2208113","prefecture":"神奈川県","prefecture_kana":"カナガワケン","city":"横浜市西区","city_kana":"ヨコハマシニシク","town":"みなとみらいランドマークタワー","town_kana":"ミナトミライランドマークタワー","prefecture_code":14},"8114":{"zip_code":"2208114","prefecture":"神奈川県","prefecture_kana":"カナガワケン","city":"横浜市西区","city_kana":"ヨコハマシニシク","town":"みなとみらいランドマークタワー","town_kana":"ミナトミライランドマークタワー","prefecture_code":14},"8115":{"zip_code":"2208115","prefecture":"神奈川県","prefecture_kana":"カナガワケン","city":"横浜市西区","city_kana":"ヨコハマシニシク","town":"みなとみらいランドマークタワー","town_kana":"ミナトミライランドマークタワー","prefecture_code":14},"8116":{"zip_code":"2208116","prefecture":"神奈川県","prefecture_kana":"カナガワケン","city":"横浜市西区","city_kana":"ヨコハマシニシク","town":"みなとみらいランドマークタワー","town_kana":"ミナトミライランドマークタワー","prefecture_code":14},"8117":{"zip_code":"2208117","prefecture":"神奈川県","prefecture_kana":"カナガワケン","city":"横浜市西区","city_kana":"ヨコハマシニシク","town":"みなとみらいランドマークタワー","town_kana":"ミナトミライランドマークタワー","prefecture_code":14},"8118":{"zip_code":"2208118","prefecture":"神奈川県","prefecture_kana":"カナガワケン","city":"横浜市西区","city_kana":"ヨコハマシニシク","town":"みなとみらいランドマークタワー","town_kana":"ミナトミライランドマークタワー","prefecture_code":14},"8119":{"zip_code":"2208119","prefecture":"神奈川県","prefecture_kana":"カナガワケン","city":"横浜市西区","city_kana":"ヨコハマシニシク","town":"みなとみらいランドマークタワー","town_kana":"ミナトミライランドマークタワー","prefecture_code":14},"8120":{"zip_code":"2208120","prefecture":"神奈川県","prefecture_kana":"カナガワケン","city":"横浜市西区","city_kana":"ヨコハマシニシク","town":"みなとみらいランドマークタワー","town_kana":"ミナトミライランドマークタワー","prefecture_code":14},"8121":{"zip_code":"2208121","prefecture":"神奈川県","prefecture_kana":"カナガワケン","city":"横浜市西区","city_kana":"ヨコハマシニシク","town":"みなとみらいランドマークタワー","town_kana":"ミナトミライランドマークタワー","prefecture_code":14},"8122":{"zip_code":"2208122","prefecture":"神奈川県","prefecture_kana":"カナガワケン","city":"横浜市西区","city_kana":"ヨコハマシニシク","town":"みなとみらいランドマークタワー","town_kana":"ミナトミライランドマークタワー","prefecture_code":14},"8123":{"zip_code":"2208123","prefecture":"神奈川県","prefecture_kana":"カナガワケン","city":"横浜市西区","city_kana":"ヨコハマシニシク","town":"みなとみらいランドマークタワー","town_kana":"ミナトミライランドマークタワー","prefecture_code":14},"8124":{"zip_code":"2208124","prefecture":"神奈川県","prefecture_kana":"カナガワケン","city":"横浜市西区","city_kana":"ヨコハマシニシク","town":"みなとみらいランドマークタワー","town_kana":"ミナトミライランドマークタワー","prefecture_code":14},"8125":{"zip_code":"2208125","prefecture":"神奈川県","prefecture_kana":"カナガワケン","city":"横浜市西区","city_kana":"ヨコハマシニシク","town":"みなとみらいランドマークタワー","town_kana":"ミナトミライランドマークタワー","prefecture_code":14},"8126":{"zip_code":"2208126","prefecture":"神奈川県","prefecture_kana":"カナガワケン","city":"横浜市西区","city_kana":"ヨコハマシニシク","town":"みなとみらいランドマークタワー","town_kana":"ミナトミライランドマークタワー","prefecture_code":14},"8127":{"zip_code":"2208127","prefecture":"神奈川県","prefecture_kana":"カナガワケン","city":"横浜市西区","city_kana":"ヨコハマシニシク","town":"みなとみらいランドマークタワー","town_kana":"ミナトミライランドマークタワー","prefecture_code":14},"8128":{"zip_code":"2208128","prefecture":"神奈川県","prefecture_kana":"カナガワケン","city":"横浜市西区","city_kana":"ヨコハマシニシク","town":"みなとみらいランドマークタワー","town_kana":"ミナトミライランドマークタワー","prefecture_code":14},"8129":{"zip_code":"2208129","prefecture":"神奈川県","prefecture_kana":"カナガワケン","city":"横浜市西区","city_kana":"ヨコハマシニシク","town":"みなとみらいランドマークタワー","town_kana":"ミナトミライランドマークタワー","prefecture_code":14},"8130":{"zip_code":"2208130","prefecture":"神奈川県","prefecture_kana":"カナガワケン","city":"横浜市西区","city_kana":"ヨコハマシニシク","town":"みなとみらいランドマークタワー","town_kana":"ミナトミライランドマークタワー","prefecture_code":14},"8131":{"zip_code":"2208131","prefecture":"神奈川県","prefecture_kana":"カナガワケン","city":"横浜市西区","city_kana":"ヨコハマシニシク","town":"みなとみらいランドマークタワー","town_kana":"ミナトミライランドマークタワー","prefecture_code":14},"8132":{"zip_code":"2208132","prefecture":"神奈川県","prefecture_kana":"カナガワケン","city":"横浜市西区","city_kana":"ヨコハマシニシク","town":"みなとみらいランドマークタワー","town_kana":"ミナトミライランドマークタワー","prefecture_code":14},"8133":{"zip_code":"2208133","prefecture":"神奈川県","prefecture_kana":"カナガワケン","city":"横浜市西区","city_kana":"ヨコハマシニシク","town":"みなとみらいランドマークタワー","town_kana":"ミナトミライランドマークタワー","prefecture_code":14},"8134":{"zip_code":"2208134","prefecture":"神奈川県","prefecture_kana":"カナガワケン","city":"横浜市西区","city_kana":"ヨコハマシニシク","town":"みなとみらいランドマークタワー","town_kana":"ミナトミライランドマークタワー","prefecture_code":14},"8135":{"zip_code":"2208135","prefecture":"神奈川県","prefecture_kana":"カナガワケン","city":"横浜市西区","city_kana":"ヨコハマシニシク","town":"みなとみらいランドマークタワー","town_kana":"ミナトミライランドマークタワー","prefecture_code":14},"8136":{"zip_code":"2208136","prefecture":"神奈川県","prefecture_kana":"カナガワケン","city":"横浜市西区","city_kana":"ヨコハマシニシク","town":"みなとみらいランドマークタワー","town_kana":"ミナトミライランドマークタワー","prefecture_code":14},"8137":{"zip_code":"2208137","prefecture":"神奈川県","prefecture_kana":"カナガワケン","city":"横浜市西区","city_kana":"ヨコハマシニシク","town":"みなとみらいランドマークタワー","town_kana":"ミナトミライランドマークタワー","prefecture_code":14},"8138":{"zip_code":"2208138","prefecture":"神奈川県","prefecture_kana":"カナガワケン","city":"横浜市西区","city_kana":"ヨコハマシニシク","town":"みなとみらいランドマークタワー","town_kana":"ミナトミライランドマークタワー","prefecture_code":14},"8139":{"zip_code":"2208139","prefecture":"神奈川県","prefecture_kana":"カナガワケン","city":"横浜市西区","city_kana":"ヨコハマシニシク","town":"みなとみらいランドマークタワー","town_kana":"ミナトミライランドマークタワー","prefecture_code":14},"8140":{"zip_code":"2208140","prefecture":"神奈川県","prefecture_kana":"カナガワケン","city":"横浜市西区","city_kana":"ヨコハマシニシク","town":"みなとみらいランドマークタワー","town_kana":"ミナトミライランドマークタワー","prefecture_code":14},"8141":{"zip_code":"2208141","prefecture":"神奈川県","prefecture_kana":"カナガワケン","city":"横浜市西区","city_kana":"ヨコハマシニシク","town":"みなとみらいランドマークタワー","town_kana":"ミナトミライランドマークタワー","prefecture_code":14},"8142":{"zip_code":"2208142","prefecture":"神奈川県","prefecture_kana":"カナガワケン","city":"横浜市西区","city_kana":"ヨコハマシニシク","town":"みなとみらいランドマークタワー","town_kana":"ミナトミライランドマークタワー","prefecture_code":14},"8143":{"zip_code":"2208143","prefecture":"神奈川県","prefecture_kana":"カナガワケン","city":"横浜市西区","city_kana":"ヨコハマシニシク","town":"みなとみらいランドマークタワー","town_kana":"ミナトミライランドマークタワー","prefecture_code":14},"8144":{"zip_code":"2208144","prefecture":"神奈川県","prefecture_kana":"カナガワケン","city":"横浜市西区","city_kana":"ヨコハマシニシク","town":"みなとみらいランドマークタワー","town_kana":"ミナトミライランドマークタワー","prefecture_code":14},"8145":{"zip_code":"2208145","prefecture":"神奈川県","prefecture_kana":"カナガワケン","city":"横浜市西区","city_kana":"ヨコハマシニシク","town":"みなとみらいランドマークタワー","town_kana":"ミナトミライランドマークタワー","prefecture_code":14},"8146":{"zip_code":"2208146","prefecture":"神奈川県","prefecture_kana":"カナガワケン","city":"横浜市西区","city_kana":"ヨコハマシニシク","town":"みなとみらいランドマークタワー","town_kana":"ミナトミライランドマークタワー","prefecture_code":14},"8147":{"zip_code":"2208147","prefecture":"神奈川県","prefecture_kana":"カナガワケン","city":"横浜市西区","city_kana":"ヨコハマシニシク","town":"みなとみらいランドマークタワー","town_kana":"ミナトミライランドマークタワー","prefecture_code":14},"8148":{"zip_code":"2208148","prefecture":"神奈川県","prefecture_kana":"カナガワケン","city":"横浜市西区","city_kana":"ヨコハマシニシク","town":"みなとみらいランドマークタワー","town_kana":"ミナトミライランドマークタワー","prefecture_code":14},"8149":{"zip_code":"2208149","prefecture":"神奈川県","prefecture_kana":"カナガワケン","city":"横浜市西区","city_kana":"ヨコハマシニシク","town":"みなとみらいランドマークタワー","town_kana":"ミナトミライランドマークタワー","prefecture_code":14},"8150":{"zip_code":"2208150","prefecture":"神奈川県","prefecture_kana":"カナガワケン","city":"横浜市西区","city_kana":"ヨコハマシニシク","town":"みなとみらいランドマークタワー","town_kana":"ミナトミライランドマークタワー","prefecture_code":14},"8151":{"zip_code":"2208151","prefecture":"神奈川県","prefecture_kana":"カナガワケン","city":"横浜市西区","city_kana":"ヨコハマシニシク","town":"みなとみらいランドマークタワー","town_kana":"ミナトミライランドマークタワー","prefecture_code":14},"8152":{"zip_code":"2208152","prefecture":"神奈川県","prefecture_kana":"カナガワケン","city":"横浜市西区","city_kana":"ヨコハマシニシク","town":"みなとみらいランドマークタワー","town_kana":"ミナトミライランドマークタワー","prefecture_code":14},"8153":{"zip_code":"2208153","prefecture":"神奈川県","prefecture_kana":"カナガワケン","city":"横浜市西区","city_kana":"ヨコハマシニシク","town":"みなとみらいランドマークタワー","town_kana":"ミナトミライランドマークタワー","prefecture_code":14},"8154":{"zip_code":"2208154","prefecture":"神奈川県","prefecture_kana":"カナガワケン","city":"横浜市西区","city_kana":"ヨコハマシニシク","town":"みなとみらいランドマークタワー","town_kana":"ミナトミライランドマークタワー","prefecture_code":14},"8155":{"zip_code":"2208155","prefecture":"神奈川県","prefecture_kana":"カナガワケン","city":"横浜市西区","city_kana":"ヨコハマシニシク","town":"みなとみらいランドマークタワー","town_kana":"ミナトミライランドマークタワー","prefecture_code":14},"8156":{"zip_code":"2208156","prefecture":"神奈川県","prefecture_kana":"カナガワケン","city":"横浜市西区","city_kana":"ヨコハマシニシク","town":"みなとみらいランドマークタワー","town_kana":"ミナトミライランドマークタワー","prefecture_code":14},"8157":{"zip_code":"2208157","prefecture":"神奈川県","prefecture_kana":"カナガワケン","city":"横浜市西区","city_kana":"ヨコハマシニシク","town":"みなとみらいランドマークタワー","town_kana":"ミナトミライランドマークタワー","prefecture_code":14},"8158":{"zip_code":"2208158","prefecture":"神奈川県","prefecture_kana":"カナガワケン","city":"横浜市西区","city_kana":"ヨコハマシニシク","town":"みなとみらいランドマークタワー","town_kana":"ミナトミライランドマークタワー","prefecture_code":14},"8159":{"zip_code":"2208159","prefecture":"神奈川県","prefecture_kana":"カナガワケン","city":"横浜市西区","city_kana":"ヨコハマシニシク","town":"みなとみらいランドマークタワー","town_kana":"ミナトミライランドマークタワー","prefecture_code":14},"8160":{"zip_code":"2208160","prefecture":"神奈川県","prefecture_kana":"カナガワケン","city":"横浜市西区","city_kana":"ヨコハマシニシク","town":"みなとみらいランドマークタワー","town_kana":"ミナトミライランドマークタワー","prefecture_code":14},"8161":{"zip_code":"2208161","prefecture":"神奈川県","prefecture_kana":"カナガワケン","city":"横浜市西区","city_kana":"ヨコハマシニシク","town":"みなとみらいランドマークタワー","town_kana":"ミナトミライランドマークタワー","prefecture_code":14},"8162":{"zip_code":"2208162","prefecture":"神奈川県","prefecture_kana":"カナガワケン","city":"横浜市西区","city_kana":"ヨコハマシニシク","town":"みなとみらいランドマークタワー","town_kana":"ミナトミライランドマークタワー","prefecture_code":14},"8163":{"zip_code":"2208163","prefecture":"神奈川県","prefecture_kana":"カナガワケン","city":"横浜市西区","city_kana":"ヨコハマシニシク","town":"みなとみらいランドマークタワー","town_kana":"ミナトミライランドマークタワー","prefecture_code":14},"8164":{"zip_code":"2208164","prefecture":"神奈川県","prefecture_kana":"カナガワケン","city":"横浜市西区","city_kana":"ヨコハマシニシク","town":"みなとみらいランドマークタワー","town_kana":"ミナトミライランドマークタワー","prefecture_code":14},"8165":{"zip_code":"2208165","prefecture":"神奈川県","prefecture_kana":"カナガワケン","city":"横浜市西区","city_kana":"ヨコハマシニシク","town":"みなとみらいランドマークタワー","town_kana":"ミナトミライランドマークタワー","prefecture_code":14},"8166":{"zip_code":"2208166","prefecture":"神奈川県","prefecture_kana":"カナガワケン","city":"横浜市西区","city_kana":"ヨコハマシニシク","town":"みなとみらいランドマークタワー","town_kana":"ミナトミライランドマークタワー","prefecture_code":14},"8167":{"zip_code":"2208167","prefecture":"神奈川県","prefecture_kana":"カナガワケン","city":"横浜市西区","city_kana":"ヨコハマシニシク","town":"みなとみらいランドマークタワー","town_kana":"ミナトミライランドマークタワー","prefecture_code":14},"8168":{"zip_code":"2208168","prefecture":"神奈川県","prefecture_kana":"カナガワケン","city":"横浜市西区","city_kana":"ヨコハマシニシク","town":"みなとみらいランドマークタワー","town_kana":"ミナトミライランドマークタワー","prefecture_code":14},"8169":{"zip_code":"2208169","prefecture":"神奈川県","prefecture_kana":"カナガワケン","city":"横浜市西区","city_kana":"ヨコハマシニシク","town":"みなとみらいランドマークタワー","town_kana":"ミナトミライランドマークタワー","prefecture_code":14},"8170":{"zip_code":"2208170","prefecture":"神奈川県","prefecture_kana":"カナガワケン","city":"横浜市西区","city_kana":"ヨコハマシニシク","town":"みなとみらいランドマークタワー","town_kana":"ミナトミライランドマークタワー","prefecture_code":14},"0002":{"zip_code":"2200002","prefecture":"神奈川県","prefecture_kana":"カナガワケン","city":"横浜市西区","city_kana":"ヨコハマシニシク","town":"南軽井沢","town_kana":"ミナミカルイザワ","prefecture_code":14},"0005":{"zip_code":"2200005","prefecture":"神奈川県","prefecture_kana":"カナガワケン","city":"横浜市西区","city_kana":"ヨコハマシニシク","town":"南幸","town_kana":"ミナミサイワイ","prefecture_code":14},"0074":{"zip_code":"2200074","prefecture":"神奈川県","prefecture_kana":"カナガワケン","city":"横浜市西区","city_kana":"ヨコハマシニシク","town":"南浅間町","town_kana":"ミナミセンゲンチョウ","prefecture_code":14},"0006":{"zip_code":"2200006","prefecture":"神奈川県","prefecture_kana":"カナガワケン","city":"横浜市西区","city_kana":"ヨコハマシニシク","town":"宮ケ谷","town_kana":"ミヤガヤ","prefecture_code":14},"0031":{"zip_code":"2200031","prefecture":"神奈川県","prefecture_kana":"カナガワケン","city":"横浜市西区","city_kana":"ヨコハマシニシク","town":"宮崎町","town_kana":"ミヤザキチョウ","prefecture_code":14},"0063":{"zip_code":"2200063","prefecture":"神奈川県","prefecture_kana":"カナガワケン","city":"横浜市西区","city_kana":"ヨコハマシニシク","town":"元久保町","town_kana":"モトクボチョウ","prefecture_code":14},"0044":{"zip_code":"2200044","prefecture":"神奈川県","prefecture_kana":"カナガワケン","city":"横浜市西区","city_kana":"ヨコハマシニシク","town":"紅葉ケ丘","town_kana":"モミジガオカ","prefecture_code":14}}