{"0076":{"zip_code":"5310076","prefecture":"大阪府","prefecture_kana":"オオサカフ","city":"大阪市北区","city_kana":"オオサカシキタク","town":"大淀中","town_kana":"オオヨドナカ","prefecture_code":27},"6090":{"zip_code":"5316090","prefecture":"大阪府","prefecture_kana":"オオサカフ","city":"大阪市北区","city_kana":"オオサカシキタク","town":"大淀中梅田スカイビルタワーイースト","town_kana":"オオヨドナカウメダスカイビルタワーイースト","prefecture_code":27},"6001":{"zip_code":"5316001","prefecture":"大阪府","prefecture_kana":"オオサカフ","city":"大阪市北区","city_kana":"オオサカシキタク","town":"大淀中梅田スカイビルタワーイースト","town_kana":"オオヨドナカウメダスカイビルタワーイースト","prefecture_code":27},"6002":{"zip_code":"5316002","prefecture":"大阪府","prefecture_kana":"オオサカフ","city":"大阪市北区","city_kana":"オオサカシキタク","town":"大淀中梅田スカイビルタワーイースト","town_kana":"オオヨドナカウメダスカイビルタワーイースト","prefecture_code":27},"6003":{"zip_code":"5316003","prefecture":"大阪府","prefecture_kana":"オオサカフ","city":"大阪市北区","city_kana":"オオサカシキタク","town":"大淀中梅田スカイビルタワーイースト","town_kana":"オオヨドナカウメダスカイビルタワーイースト","prefecture_code":27},"6004":{"zip_code":"5316004","prefecture":"大阪府","prefecture_kana":"オオサカフ","city":"大阪市北区","city_kana":"オオサカシキタク","town":"大淀中梅田スカイビルタワーイースト","town_kana":"オオヨドナカウメダスカイビルタワーイースト","prefecture_code":27},"6005":{"zip_code":"5316005","prefecture":"大阪府","prefecture_kana":"オオサカフ","city":"大阪市北区","city_kana":"オオサカシキタク","town":"大淀中梅田スカイビルタワーイースト","town_kana":"オオヨドナカウメダスカイビルタワーイースト","prefecture_code":27},"6006":{"zip_code":"5316006","prefecture":"大阪府","prefecture_kana":"オオサカフ","city":"大阪市北区","city_kana":"オオサカシキタク","town":"大淀中梅田スカイビルタワーイースト","town_kana":"オオヨドナカウメダスカイビルタワーイースト","prefecture_code":27},"6007":{"zip_code":"5316007","prefecture":"大阪府","prefecture_kana":"オオサカフ","city":"大阪市北区","city_kana":"オオサカシキタク","town":"大淀中梅田スカイビルタワーイースト","town_kana":"オオヨドナカウメダスカイビルタワーイースト","prefecture_code":27},"6008":{"zip_code":"5316008","prefecture":"大阪府","prefecture_kana":"オオサカフ","city":"大阪市北区","city_kana":"オオサカシキタク","town":"大淀中梅田スカイビルタワーイースト","town_kana":"オオヨドナカウメダスカイビルタワーイースト","prefecture_code":27},"6009":{"zip_code":"5316009","prefecture":"大阪府","prefecture_kana":"オオサカフ","city":"大阪市北区","city_kana":"オオサカシキタク","town":"大淀中梅田スカイビルタワーイースト","town_kana":"オオヨドナカウメダスカイビルタワーイースト","prefecture_code":27},"6010":{"zip_code":"5316010","prefecture":"大阪府","prefecture_kana":"オオサカフ","city":"大阪市北区","city_kana":"オオサカシキタク","town":"大淀中梅田スカイビルタワーイースト","town_kana":"オオヨドナカウメダスカイビルタワーイースト","prefecture_code":27},"6011":{"zip_code":"5316011","prefecture":"大阪府","prefecture_kana":"オオサカフ","city":"大阪市北区","city_kana":"オオサカシキタク","town":"大淀中梅田スカイビルタワーイースト","town_kana":"オオヨドナカウメダスカイビルタワーイースト","prefecture_code":27},"6012":{"zip_code":"5316012","prefecture":"大阪府","prefecture_kana":"オオサカフ","city":"大阪市北区","city_kana":"オオサカシキタク","town":"大淀中梅田スカイビルタワーイースト","town_kana":"オオヨドナカウメダスカイビルタワーイースト","prefecture_code":27},"6013":{"zip_code":"5316013","prefecture":"大阪府","prefecture_kana":"オオサカフ","city":"大阪市北区","city_kana":"オオサカシキタク","town":"大淀中梅田スカイビルタワーイースト","town_kana":"オオヨドナカウメダスカイビルタワーイースト","prefecture_code":27},"6014":{"zip_code":"5316014","prefecture":"大阪府","prefecture_kana":"オオサカフ","city":"大阪市北区","city_kana":"オオサカシキタク","town":"大淀中梅田スカイビルタワーイースト","town_kana":"オオヨドナカウメダスカイビルタワーイースト","prefecture_code":27},"6015":{"zip_code":"5316015","prefecture":"大阪府","prefecture_kana":"オオサカフ","city":"大阪市北区","city_kana":"オオサカシキタク","town":"大淀中梅田スカイビルタワーイースト","town_kana":"オオヨドナカウメダスカイビルタワーイースト","prefecture_code":27},"6016":{"zip_code":"5316016","prefecture":"大阪府","prefecture_kana":"オオサカフ","city":"大阪市北区","city_kana":"オオサカシキタク","town":"大淀中梅田スカイビルタワーイースト","town_kana":"オオヨドナカウメダスカイビルタワーイースト","prefecture_code":27},"6017":{"zip_code":"5316017","prefecture":"大阪府","prefecture_kana":"オオサカフ","city":"大阪市北区","city_kana":"オオサカシキタク","town":"大淀中梅田スカイビルタワーイースト","town_kana":"オオヨドナカウメダスカイビルタワーイースト","prefecture_code":27},"6018":{"zip_code":"5316018","prefecture":"大阪府","prefecture_kana":"オオサカフ","city":"大阪市北区","city_kana":"オオサカシキタク","town":"大淀中梅田スカイビルタワーイースト","town_kana":"オオヨドナカウメダスカイビルタワーイースト","prefecture_code":27},"6019":{"zip_code":"5316019","prefecture":"大阪府","prefecture_kana":"オオサカフ","city":"大阪市北区","city_kana":"オオサカシキタク","town":"大淀中梅田スカイビルタワーイースト","town_kana":"オオヨドナカウメダスカイビルタワーイースト","prefecture_code":27},"6020":{"zip_code":"5316020","prefecture":"大阪府","prefecture_kana":"オオサカフ","city":"大阪市北区","city_kana":"オオサカシキタク","town":"大淀中梅田スカイビルタワーイースト","town_kana":"オオヨドナカウメダスカイビルタワーイースト","prefecture_code":27},"6021":{"zip_code":"5316021","prefecture":"大阪府","prefecture_kana":"オオサカフ","city":"大阪市北区","city_kana":"オオサカシキタク","town":"大淀中梅田スカイビルタワーイースト","town_kana":"オオヨドナカウメダスカイビルタワーイースト","prefecture_code":27},"6022":{"zip_code":"5316022","prefecture":"大阪府","prefecture_kana":"オオサカフ","city":"大阪市北区","city_kana":"オオサカシキタク","town":"大淀中梅田スカイビルタワーイースト","town_kana":"オオヨドナカウメダスカイビルタワーイースト","prefecture_code":27},"6023":{"zip_code":"5316023","prefecture":"大阪府","prefecture_kana":"オオサカフ","city":"大阪市北区","city_kana":"オオサカシキタク","town":"大淀中梅田スカイビルタワーイースト","town_kana":"オオヨドナカウメダスカイビルタワーイースト","prefecture_code":27},"6024":{"zip_code":"5316024","prefecture":"大阪府","prefecture_kana":"オオサカフ","city":"大阪市北区","city_kana":"オオサカシキタク","town":"大淀中梅田スカイビルタワーイースト","town_kana":"オオヨドナカウメダスカイビルタワーイースト","prefecture_code":27},"6025":{"zip_code":"5316025","prefecture":"大阪府","prefecture_kana":"オオサカフ","city":"大阪市北区","city_kana":"オオサカシキタク","town":"大淀中梅田スカイビルタワーイースト","town_kana":"オオヨドナカウメダスカイビルタワーイースト","prefecture_code":27},"6026":{"zip_code":"5316026","prefecture":"大阪府","prefecture_kana":"オオサカフ","city":"大阪市北区","city_kana":"オオサカシキタク","town":"大淀中梅田スカイビルタワーイースト","town_kana":"オオヨドナカウメダスカイビルタワーイースト","prefecture_code":27},"6027":{"zip_code":"5316027","prefecture":"大阪府","prefecture_kana":"オオサカフ","city":"大阪市北区","city_kana":"オオサカシキタク","town":"大淀中梅田スカイビルタワーイースト","town_kana":"オオヨドナカウメダスカイビルタワーイースト","prefecture_code":27},"6028":{"zip_code":"5316028","prefecture":"大阪府","prefecture_kana":"オオサカフ","city":"大阪市北区","city_kana":"オオサカシキタク","town":"大淀中梅田スカイビルタワーイースト","town_kana":"オオヨドナカウメダスカイビルタワーイースト","prefecture_code":27},"6029":{"zip_code":"5316029","prefecture":"大阪府","prefecture_kana":"オオサカフ","city":"大阪市北区","city_kana":"オオサカシキタク","town":"大淀中梅田スカイビルタワーイースト","town_kana":"オオヨドナカウメダスカイビルタワーイースト","prefecture_code":27},"6030":{"zip_code":"5316030","prefecture":"大阪府","prefecture_kana":"オオサカフ","city":"大阪市北区","city_kana":"オオサカシキタク","town":"大淀中梅田スカイビルタワーイースト","town_kana":"オオヨドナカウメダスカイビルタワーイースト","prefecture_code":27},"6031":{"zip_code":"5316031","prefecture":"大阪府","prefecture_kana":"オオサカフ","city":"大阪市北区","city_kana":"オオサカシキタク","town":"大淀中梅田スカイビルタワーイースト","town_kana":"オオヨドナカウメダスカイビルタワーイースト","prefecture_code":27},"6032":{"zip_code":"5316032","prefecture":"大阪府","prefecture_kana":"オオサカフ","city":"大阪市北区","city_kana":"オオサカシキタク","town":"大淀中梅田スカイビルタワーイースト","town_kana":"オオヨドナカウメダスカイビルタワーイースト","prefecture_code":27},"6033":{"zip_code":"5316033","prefecture":"大阪府","prefecture_kana":"オオサカフ","city":"大阪市北区","city_kana":"オオサカシキタク","town":"大淀中梅田スカイビルタワーイースト","town_kana":"オオヨドナカウメダスカイビルタワーイースト","prefecture_code":27},"6034":{"zip_code":"5316034","prefecture":"大阪府","prefecture_kana":"オオサカフ","city":"大阪市北区","city_kana":"オオサカシキタク","town":"大淀中梅田スカイビルタワーイースト","town_kana":"オオヨドナカウメダスカイビルタワーイースト","prefecture_code":27},"6035":{"zip_code":"5316035","prefecture":"大阪府","prefecture_kana":"オオサカフ","city":"大阪市北区","city_kana":"オオサカシキタク","town":"大淀中梅田スカイビルタワーイースト","town_kana":"オオヨドナカウメダスカイビルタワーイースト","prefecture_code":27},"6036":{"zip_code":"5316036","prefecture":"大阪府","prefecture_kana":"オオサカフ","city":"大阪市北区","city_kana":"オオサカシキタク","town":"大淀中梅田スカイビルタワーイースト","town_kana":"オオヨドナカウメダスカイビルタワーイースト","prefecture_code":27},"6037":{"zip_code":"5316037","prefecture":"大阪府","prefecture_kana":"オオサカフ","city":"大阪市北区","city_kana":"オオサカシキタク","town":"大淀中梅田スカイビルタワーイースト","town_kana":"オオヨドナカウメダスカイビルタワーイースト","prefecture_code":27},"6038":{"zip_code":"5316038","prefecture":"大阪府","prefecture_kana":"オオサカフ","city":"大阪市北区","city_kana":"オオサカシキタク","town":"大淀中梅田スカイビルタワーイースト","town_kana":"オオヨドナカウメダスカイビルタワーイースト","prefecture_code":27},"6039":{"zip_code":"5316039","prefecture":"大阪府","prefecture_kana":"オオサカフ","city":"大阪市北区","city_kana":"オオサカシキタク","town":"大淀中梅田スカイビルタワーイースト","town_kana":"オオヨドナカウメダスカイビルタワーイースト","prefecture_code":27},"6190":{"zip_code":"5316190","prefecture":"大阪府","prefecture_kana":"オオサカフ","city":"大阪市北区","city_kana":"オオサカシキタク","town":"大淀中梅田スカイビルタワーウエスト","town_kana":"オオヨドナカウメダスカイビルタワーウエスト","prefecture_code":27},"6101":{"zip_code":"5316101","prefecture":"大阪府","prefecture_kana":"オオサカフ","city":"大阪市北区","city_kana":"オオサカシキタク","town":"大淀中梅田スカイビルタワーウエスト","town_kana":"オオヨドナカウメダスカイビルタワーウエスト","prefecture_code":27},"6102":{"zip_code":"5316102","prefecture":"大阪府","prefecture_kana":"オオサカフ","city":"大阪市北区","city_kana":"オオサカシキタク","town":"大淀中梅田スカイビルタワーウエスト","town_kana":"オオヨドナカウメダスカイビルタワーウエスト","prefecture_code":27},"6103":{"zip_code":"5316103","prefecture":"大阪府","prefecture_kana":"オオサカフ","city":"大阪市北区","city_kana":"オオサカシキタク","town":"大淀中梅田スカイビルタワーウエスト","town_kana":"オオヨドナカウメダスカイビルタワーウエスト","prefecture_code":27},"6104":{"zip_code":"5316104","prefecture":"大阪府","prefecture_kana":"オオサカフ","city":"大阪市北区","city_kana":"オオサカシキタク","town":"大淀中梅田スカイビルタワーウエスト","town_kana":"オオヨドナカウメダスカイビルタワーウエスト","prefecture_code":27},"6105":{"zip_code":"5316105","prefecture":"大阪府","prefecture_kana":"オオサカフ","city":"大阪市北区","city_kana":"オオサカシキタク","town":"大淀中梅田スカイビルタワーウエスト","town_kana":"オオヨドナカウメダスカイビルタワーウエスト","prefecture_code":27},"6106":{"zip_code":"5316106","prefecture":"大阪府","prefecture_kana":"オオサカフ","city":"大阪市北区","city_kana":"オオサカシキタク","town":"大淀中梅田スカイビルタワーウエスト","town_kana":"オオヨドナカウメダスカイビルタワーウエスト","prefecture_code":27},"6107":{"zip_code":"5316107","prefecture":"大阪府","prefecture_kana":"オオサカフ","city":"大阪市北区","city_kana":"オオサカシキタク","town":"大淀中梅田スカイビルタワーウエスト","town_kana":"オオヨドナカウメダスカイビルタワーウエスト","prefecture_code":27},"6108":{"zip_code":"5316108","prefecture":"大阪府","prefecture_kana":"オオサカフ","city":"大阪市北区","city_kana":"オオサカシキタク","town":"大淀中梅田スカイビルタワーウエスト","town_kana":"オオヨドナカウメダスカイビルタワーウエスト","prefecture_code":27},"6109":{"zip_code":"5316109","prefecture":"大阪府","prefecture_kana":"オオサカフ","city":"大阪市北区","city_kana":"オオサカシキタク","town":"大淀中梅田スカイビルタワーウエスト","town_kana":"オオヨドナカウメダスカイビルタワーウエスト","prefecture_code":27},"6110":{"zip_code":"5316110","prefecture":"大阪府","prefecture_kana":"オオサカフ","city":"大阪市北区","city_kana":"オオサカシキタク","town":"大淀中梅田スカイビルタワーウエスト","town_kana":"オオヨドナカウメダスカイビルタワーウエスト","prefecture_code":27},"6111":{"zip_code":"5316111","prefecture":"大阪府","prefecture_kana":"オオサカフ","city":"大阪市北区","city_kana":"オオサカシキタク","town":"大淀中梅田スカイビルタワーウエスト","town_kana":"オオヨドナカウメダスカイビルタワーウエスト","prefecture_code":27},"6112":{"zip_code":"5316112","prefecture":"大阪府","prefecture_kana":"オオサカフ","city":"大阪市北区","city_kana":"オオサカシキタク","town":"大淀中梅田スカイビルタワーウエスト","town_kana":"オオヨドナカウメダスカイビルタワーウエスト","prefecture_code":27},"6113":{"zip_code":"5316113","prefecture":"大阪府","prefecture_kana":"オオサカフ","city":"大阪市北区","city_kana":"オオサカシキタク","town":"大淀中梅田スカイビルタワーウエスト","town_kana":"オオヨドナカウメダスカイビルタワーウエスト","prefecture_code":27},"6114":{"zip_code":"5316114","prefecture":"大阪府","prefecture_kana":"オオサカフ","city":"大阪市北区","city_kana":"オオサカシキタク","town":"大淀中梅田スカイビルタワーウエスト","town_kana":"オオヨドナカウメダスカイビルタワーウエスト","prefecture_code":27},"6115":{"zip_code":"5316115","prefecture":"大阪府","prefecture_kana":"オオサカフ","city":"大阪市北区","city_kana":"オオサカシキタク","town":"大淀中梅田スカイビルタワーウエスト","town_kana":"オオヨドナカウメダスカイビルタワーウエスト","prefecture_code":27},"6116":{"zip_code":"5316116","prefecture":"大阪府","prefecture_kana":"オオサカフ","city":"大阪市北区","city_kana":"オオサカシキタク","town":"大淀中梅田スカイビルタワーウエスト","town_kana":"オオヨドナカウメダスカイビルタワーウエスト","prefecture_code":27},"6117":{"zip_code":"5316117","prefecture":"大阪府","prefecture_kana":"オオサカフ","city":"大阪市北区","city_kana":"オオサカシキタク","town":"大淀中梅田スカイビルタワーウエスト","town_kana":"オオヨドナカウメダスカイビルタワーウエスト","prefecture_code":27},"6118":{"zip_code":"5316118","prefecture":"大阪府","prefecture_kana":"オオサカフ","city":"大阪市北区","city_kana":"オオサカシキタク","town":"大淀中梅田スカイビルタワーウエスト","town_kana":"オオヨドナカウメダスカイビルタワーウエスト","prefecture_code":27},"6119":{"zip_code":"5316119","prefecture":"大阪府","prefecture_kana":"オオサカフ","city":"大阪市北区","city_kana":"オオサカシキタク","town":"大淀中梅田スカイビルタワーウエスト","town_kana":"オオヨドナカウメダスカイビルタワーウエスト","prefecture_code":27},"6120":{"zip_code":"5316120","prefecture":"大阪府","prefecture_kana":"オオサカフ","city":"大阪市北区","city_kana":"オオサカシキタク","town":"大淀中梅田スカイビルタワーウエスト","town_kana":"オオヨドナカウメダスカイビルタワーウエスト","prefecture_code":27},"6121":{"zip_code":"5316121","prefecture":"大阪府","prefecture_kana":"オオサカフ","city":"大阪市北区","city_kana":"オオサカシキタク","town":"大淀中梅田スカイビルタワーウエスト","town_kana":"オオヨドナカウメダスカイビルタワーウエスト","prefecture_code":27},"6122":{"zip_code":"5316122","prefecture":"大阪府","prefecture_kana":"オオサカフ","city":"大阪市北区","city_kana":"オオサカシキタク","town":"大淀中梅田スカイビルタワーウエスト","town_kana":"オオヨドナカウメダスカイビルタワーウエスト","prefecture_code":27},"6123":{"zip_code":"5316123","prefecture":"大阪府","prefecture_kana":"オオサカフ","city":"大阪市北区","city_kana":"オオサカシキタク","town":"大淀中梅田スカイビルタワーウエスト","town_kana":"オオヨドナカウメダスカイビルタワーウエスト","prefecture_code":27},"6124":{"zip_code":"5316124","prefecture":"大阪府","prefecture_kana":"オオサカフ","city":"大阪市北区","city_kana":"オオサカシキタク","town":"大淀中梅田スカイビルタワーウエスト","town_kana":"オオヨドナカウメダスカイビルタワーウエスト","prefecture_code":27},"6125":{"zip_code":"5316125","prefecture":"大阪府","prefecture_kana":"オオサカフ","city":"大阪市北区","city_kana":"オオサカシキタク","town":"大淀中梅田スカイビルタワーウエスト","town_kana":"オオヨドナカウメダスカイビルタワーウエスト","prefecture_code":27},"6126":{"zip_code":"5316126","prefecture":"大阪府","prefecture_kana":"オオサカフ","city":"大阪市北区","city_kana":"オオサカシキタク","town":"大淀中梅田スカイビルタワーウエスト","town_kana":"オオヨドナカウメダスカイビルタワーウエスト","prefecture_code":27},"6127":{"zip_code":"5316127","prefecture":"大阪府","prefecture_kana":"オオサカフ","city":"大阪市北区","city_kana":"オオサカシキタク","town":"大淀中梅田スカイビルタワーウエスト","town_kana":"オオヨドナカウメダスカイビルタワーウエスト","prefecture_code":27},"6128":{"zip_code":"5316128","prefecture":"大阪府","prefecture_kana":"オオサカフ","city":"大阪市北区","city_kana":"オオサカシキタク","town":"大淀中梅田スカイビルタワーウエスト","town_kana":"オオヨドナカウメダスカイビルタワーウエスト","prefecture_code":27},"6129":{"zip_code":"5316129","prefecture":"大阪府","prefecture_kana":"オオサカフ","city":"大阪市北区","city_kana":"オオサカシキタク","town":"大淀中梅田スカイビルタワーウエスト","town_kana":"オオヨドナカウメダスカイビルタワーウエスト","prefecture_code":27},"6130":{"zip_code":"5316130","prefecture":"大阪府","prefecture_kana":"オオサカフ","city":"大阪市北区","city_kana":"オオサカシキタク","town":"大淀中梅田スカイビルタワーウエスト","town_kana":"オオヨドナカウメダスカイビルタワーウエスト","prefecture_code":27},"6131":{"zip_code":"5316131","prefecture":"大阪府","prefecture_kana":"オオサカフ","city":"大阪市北区","city_kana":"オオサカシキタク","town":"大淀中梅田スカイビルタワーウエスト","town_kana":"オオヨドナカウメダスカイビルタワーウエスト","prefecture_code":27},"6132":{"zip_code":"5316132","prefecture":"大阪府","prefecture_kana":"オオサカフ","city":"大阪市北区","city_kana":"オオサカシキタク","town":"大淀中梅田スカイビルタワーウエスト","town_kana":"オオヨドナカウメダスカイビルタワーウエスト","prefecture_code":27},"6133":{"zip_code":"5316133","prefecture":"大阪府","prefecture_kana":"オオサカフ","city":"大阪市北区","city_kana":"オオサカシキタク","town":"大淀中梅田スカイビルタワーウエスト","town_kana":"オオヨドナカウメダスカイビルタワーウエスト","prefecture_code":27},"6134":{"zip_code":"5316134","prefecture":"大阪府","prefecture_kana":"オオサカフ","city":"大阪市北区","city_kana":"オオサカシキタク","town":"大淀中梅田スカイビルタワーウエスト","town_kana":"オオヨドナカウメダスカイビルタワーウエスト","prefecture_code":27},"6135":{"zip_code":"5316135","prefecture":"大阪府","prefecture_kana":"オオサカフ","city":"大阪市北区","city_kana":"オオサカシキタク","town":"大淀中梅田スカイビルタワーウエスト","town_kana":"オオヨドナカウメダスカイビルタワーウエスト","prefecture_code":27},"6136":{"zip_code":"5316136","prefecture":"大阪府","prefecture_kana":"オオサカフ","city":"大阪市北区","city_kana":"オオサカシキタク","town":"大淀中梅田スカイビルタワーウエスト","town_kana":"オオヨドナカウメダスカイビルタワーウエスト","prefecture_code":27},"6137":{"zip_code":"5316137","prefecture":"大阪府","prefecture_kana":"オオサカフ","city":"大阪市北区","city_kana":"オオサカシキタク","town":"大淀中梅田スカイビルタワーウエスト","town_kana":"オオヨドナカウメダスカイビルタワーウエスト","prefecture_code":27},"6138":{"zip_code":"5316138","prefecture":"大阪府","prefecture_kana":"オオサカフ","city":"大阪市北区","city_kana":"オオサカシキタク","town":"大淀中梅田スカイビルタワーウエスト","town_kana":"オオヨドナカウメダスカイビルタワーウエスト","prefecture_code":27},"6139":{"zip_code":"5316139","prefecture":"大阪府","prefecture_kana":"オオサカフ","city":"大阪市北区","city_kana":"オオサカシキタク","town":"大淀中梅田スカイビルタワーウエスト","town_kana":"オオヨドナカウメダスカイビルタワーウエスト","prefecture_code":27},"0075":{"zip_code":"5310075","prefecture":"大阪府","prefecture_kana":"オオサカフ","city":"大阪市北区","city_kana":"オオサカシキタク","town":"大淀南","town_kana":"オオヨドミナミ","prefecture_code":27},"0077":{"zip_code":"5310077","prefecture":"大阪府","prefecture_kana":"オオサカフ","city":"大阪市北区","city_kana":"オオサカシキタク","town":"大淀北","town_kana":"オオヨドキタ","prefecture_code":27},"0064":{"zip_code":"5310064","prefecture":"大阪府","prefecture_kana":"オオサカフ","city":"大阪市北区","city_kana":"オオサカシキタク","town":"国分寺","town_kana":"コクブンジ","prefecture_code":27},"0041":{"zip_code":"5310041","prefecture":"大阪府","prefecture_kana":"オオサカフ","city":"大阪市北区","city_kana":"オオサカシキタク","town":"天神橋","town_kana":"テンジンバシ","prefecture_code":27},"0072":{"zip_code":"5310072","prefecture":"大阪府","prefecture_kana":"オオサカフ","city":"大阪市北区","city_kana":"オオサカシキタク","town":"豊崎","town_kana":"トヨサキ","prefecture_code":27},"0071":{"zip_code":"5310071","prefecture":"大阪府","prefecture_kana":"オオサカフ","city":"大阪市北区","city_kana":"オオサカシキタク","town":"中津","town_kana":"ナカツ","prefecture_code":27},"0062":{"zip_code":"5310062","prefecture":"大阪府","prefecture_kana":"オオサカフ","city":"大阪市北区","city_kana":"オオサカシキタク","town":"長柄中","town_kana":"ナガラナカ","prefecture_code":27},"0063":{"zip_code":"5310063","prefecture":"大阪府","prefecture_kana":"オオサカフ","city":"大阪市北区","city_kana":"オオサカシキタク","town":"長柄東","town_kana":"ナガラヒガシ","prefecture_code":27},"0061":{"zip_code":"5310061","prefecture":"大阪府","prefecture_kana":"オオサカフ","city":"大阪市北区","city_kana":"オオサカシキタク","town":"長柄西","town_kana":"ナガラニシ","prefecture_code":27},"0074":{"zip_code":"5310074","prefecture":"大阪府","prefecture_kana":"オオサカフ","city":"大阪市北区","city_kana":"オオサカシキタク","town":"本庄東","town_kana":"ホンジョウヒガシ","prefecture_code":27},"0073":{"zip_code":"5310073","prefecture":"大阪府","prefecture_kana":"オオサカフ","city":"大阪市北区","city_kana":"オオサカシキタク","town":"本庄西","town_kana":"ホンジョウニシ","prefecture_code":27}}