{"0019":{"zip_code":"5400019","prefecture":"大阪府","prefecture_kana":"オオサカフ","city":"大阪市中央区","city_kana":"オオサカシチュウオウク","town":"和泉町","town_kana":"イズミマチ","prefecture_code":27},"0022":{"zip_code":"5400022","prefecture":"大阪府","prefecture_kana":"オオサカフ","city":"大阪市中央区","city_kana":"オオサカシチュウオウク","town":"糸屋町","town_kana":"イトヤマチ","prefecture_code":27},"0005":{"zip_code":"5400005","prefecture":"大阪府","prefecture_kana":"オオサカフ","city":"大阪市中央区","city_kana":"オオサカシチュウオウク","town":"上町","town_kana":"ウエマチ","prefecture_code":27},"0038":{"zip_code":"5400038","prefecture":"大阪府","prefecture_kana":"オオサカフ","city":"大阪市中央区","city_kana":"オオサカシチュウオウク","town":"内淡路町","town_kana":"ウチアワジマチ","prefecture_code":27},"0013":{"zip_code":"5400013","prefecture":"大阪府","prefecture_kana":"オオサカフ","city":"大阪市中央区","city_kana":"オオサカシチュウオウク","town":"内久宝寺町","town_kana":"ウチキュウホウジマチ","prefecture_code":27},"0037":{"zip_code":"5400037","prefecture":"大阪府","prefecture_kana":"オオサカフ","city":"大阪市中央区","city_kana":"オオサカシチュウオウク","town":"内平野町","town_kana":"ウチヒラノマチ","prefecture_code":27},"0026":{"zip_code":"5400026","prefecture":"大阪府","prefecture_kana":"オオサカフ","city":"大阪市中央区","city_kana":"オオサカシチュウオウク","town":"内本町","town_kana":"ウチホンマチ","prefecture_code":27},"0002":{"zip_code":"5400002","prefecture":"大阪府","prefecture_kana":"オオサカフ","city":"大阪市中央区","city_kana":"オオサカシチュウオウク","town":"大阪城","town_kana":"オオサカジョウ","prefecture_code":27},"0021":{"zip_code":"5400021","prefecture":"大阪府","prefecture_kana":"オオサカフ","city":"大阪市中央区","city_kana":"オオサカシチュウオウク","town":"大手通","town_kana":"オオテドオリ","prefecture_code":27},"0008":{"zip_code":"5400008","prefecture":"大阪府","prefecture_kana":"オオサカフ","city":"大阪市中央区","city_kana":"オオサカシチュウオウク","town":"大手前","town_kana":"オオテマエ","prefecture_code":27},"0016":{"zip_code":"5400016","prefecture":"大阪府","prefecture_kana":"オオサカフ","city":"大阪市中央区","city_kana":"オオサカシチュウオウク","town":"神崎町","town_kana":"カンザキチョウ","prefecture_code":27},"0023":{"zip_code":"5400023","prefecture":"大阪府","prefecture_kana":"オオサカフ","city":"大阪市中央区","city_kana":"オオサカシチュウオウク","town":"北新町","town_kana":"キタシンマチ","prefecture_code":27},"0031":{"zip_code":"5400031","prefecture":"大阪府","prefecture_kana":"オオサカフ","city":"大阪市中央区","city_kana":"オオサカシチュウオウク","town":"北浜東","town_kana":"キタハマヒガシ","prefecture_code":27},"0018":{"zip_code":"5400018","prefecture":"大阪府","prefecture_kana":"オオサカフ","city":"大阪市中央区","city_kana":"オオサカシチュウオウク","town":"粉川町","town_kana":"コカワチョウ","prefecture_code":27},"0033":{"zip_code":"5400033","prefecture":"大阪府","prefecture_kana":"オオサカフ","city":"大阪市中央区","city_kana":"オオサカシチュウオウク","town":"石町","town_kana":"コクマチ","prefecture_code":27},"0010":{"zip_code":"5400010","prefecture":"大阪府","prefecture_kana":"オオサカフ","city":"大阪市中央区","city_kana":"オオサカシチュウオウク","town":"材木町","town_kana":"ザイモクチョウ","prefecture_code":27},"0034":{"zip_code":"5400034","prefecture":"大阪府","prefecture_kana":"オオサカフ","city":"大阪市中央区","city_kana":"オオサカシチュウオウク","town":"島町","town_kana":"シママチ","prefecture_code":27},"0015":{"zip_code":"5400015","prefecture":"大阪府","prefecture_kana":"オオサカフ","city":"大阪市中央区","city_kana":"オオサカシチュウオウク","town":"十二軒町","town_kana":"ジュウニケンチョウ","prefecture_code":27},"0001":{"zip_code":"5400001","prefecture":"大阪府","prefecture_kana":"オオサカフ","city":"大阪市中央区","city_kana":"オオサカシチュウオウク","town":"城見","town_kana":"シロミ","prefecture_code":27},"6190":{"zip_code":"5406190","prefecture":"大阪府","prefecture_kana":"オオサカフ","city":"大阪市中央区","city_kana":"オオサカシチュウオウク","town":"城見ＭＩＤタワー","town_kana":"シロミエムアイディタワー","prefecture_code":27},"6101":{"zip_code":"5406101","prefecture":"大阪府","prefecture_kana":"オオサカフ","city":"大阪市中央区","city_kana":"オオサカシチュウオウク","town":"城見ＭＩＤタワー","town_kana":"シロミエムアイディタワー","prefecture_code":27},"6102":{"zip_code":"5406102","prefecture":"大阪府","prefecture_kana":"オオサカフ","city":"大阪市中央区","city_kana":"オオサカシチュウオウク","town":"城見ＭＩＤタワー","town_kana":"シロミエムアイディタワー","prefecture_code":27},"6103":{"zip_code":"5406103","prefecture":"大阪府","prefecture_kana":"オオサカフ","city":"大阪市中央区","city_kana":"オオサカシチュウオウク","town":"城見ＭＩＤタワー","town_kana":"シロミエムアイディタワー","prefecture_code":27},"6104":{"zip_code":"5406104","prefecture":"大阪府","prefecture_kana":"オオサカフ","city":"大阪市中央区","city_kana":"オオサカシチュウオウク","town":"城見ＭＩＤタワー","town_kana":"シロミエムアイディタワー","prefecture_code":27},"6105":{"zip_code":"5406105","prefecture":"大阪府","prefecture_kana":"オオサカフ","city":"大阪市中央区","city_kana":"オオサカシチュウオウク","town":"城見ＭＩＤタワー","town_kana":"シロミエムアイディタワー","prefecture_code":27},"6106":{"zip_code":"5406106","prefecture":"大阪府","prefecture_kana":"オオサカフ","city":"大阪市中央区","city_kana":"オオサカシチュウオウク","town":"城見ＭＩＤタワー","town_kana":"シロミエムアイディタワー","prefecture_code":27},"6107":{"zip_code":"5406107","prefecture":"大阪府","prefecture_kana":"オオサカフ","city":"大阪市中央区","city_kana":"オオサカシチュウオウク","town":"城見ＭＩＤタワー","town_kana":"シロミエムアイディタワー","prefecture_code":27},"6108":{"zip_code":"5406108","prefecture":"大阪府","prefecture_kana":"オオサカフ","city":"大阪市中央区","city_kana":"オオサカシチュウオウク","town":"城見ＭＩＤタワー","town_kana":"シロミエムアイディタワー","prefecture_code":27},"6109":{"zip_code":"5406109","prefecture":"大阪府","prefecture_kana":"オオサカフ","city":"大阪市中央区","city_kana":"オオサカシチュウオウク","town":"城見ＭＩＤタワー","town_kana":"シロミエムアイディタワー","prefecture_code":27},"6110":{"zip_code":"5406110","prefecture":"大阪府","prefecture_kana":"オオサカフ","city":"大阪市中央区","city_kana":"オオサカシチュウオウク","town":"城見ＭＩＤタワー","town_kana":"シロミエムアイディタワー","prefecture_code":27},"6111":{"zip_code":"5406111","prefecture":"大阪府","prefecture_kana":"オオサカフ","city":"大阪市中央区","city_kana":"オオサカシチュウオウク","town":"城見ＭＩＤタワー","town_kana":"シロミエムアイディタワー","prefecture_code":27},"6112":{"zip_code":"5406112","prefecture":"大阪府","prefecture_kana":"オオサカフ","city":"大阪市中央区","city_kana":"オオサカシチュウオウク","town":"城見ＭＩＤタワー","town_kana":"シロミエムアイディタワー","prefecture_code":27},"6113":{"zip_code":"5406113","prefecture":"大阪府","prefecture_kana":"オオサカフ","city":"大阪市中央区","city_kana":"オオサカシチュウオウク","town":"城見ＭＩＤタワー","town_kana":"シロミエムアイディタワー","prefecture_code":27},"6114":{"zip_code":"5406114","prefecture":"大阪府","prefecture_kana":"オオサカフ","city":"大阪市中央区","city_kana":"オオサカシチュウオウク","town":"城見ＭＩＤタワー","town_kana":"シロミエムアイディタワー","prefecture_code":27},"6115":{"zip_code":"5406115","prefecture":"大阪府","prefecture_kana":"オオサカフ","city":"大阪市中央区","city_kana":"オオサカシチュウオウク","town":"城見ＭＩＤタワー","town_kana":"シロミエムアイディタワー","prefecture_code":27},"6116":{"zip_code":"5406116","prefecture":"大阪府","prefecture_kana":"オオサカフ","city":"大阪市中央区","city_kana":"オオサカシチュウオウク","town":"城見ＭＩＤタワー","town_kana":"シロミエムアイディタワー","prefecture_code":27},"6117":{"zip_code":"5406117","prefecture":"大阪府","prefecture_kana":"オオサカフ","city":"大阪市中央区","city_kana":"オオサカシチュウオウク","town":"城見ＭＩＤタワー","town_kana":"シロミエムアイディタワー","prefecture_code":27},"6118":{"zip_code":"5406118","prefecture":"大阪府","prefecture_kana":"オオサカフ","city":"大阪市中央区","city_kana":"オオサカシチュウオウク","town":"城見ＭＩＤタワー","town_kana":"シロミエムアイディタワー","prefecture_code":27},"6119":{"zip_code":"5406119","prefecture":"大阪府","prefecture_kana":"オオサカフ","city":"大阪市中央区","city_kana":"オオサカシチュウオウク","town":"城見ＭＩＤタワー","town_kana":"シロミエムアイディタワー","prefecture_code":27},"6120":{"zip_code":"5406120","prefecture":"大阪府","prefecture_kana":"オオサカフ","city":"大阪市中央区","city_kana":"オオサカシチュウオウク","town":"城見ＭＩＤタワー","town_kana":"シロミエムアイディタワー","prefecture_code":27},"6121":{"zip_code":"5406121","prefecture":"大阪府","prefecture_kana":"オオサカフ","city":"大阪市中央区","city_kana":"オオサカシチュウオウク","town":"城見ＭＩＤタワー","town_kana":"シロミエムアイディタワー","prefecture_code":27},"6122":{"zip_code":"5406122","prefecture":"大阪府","prefecture_kana":"オオサカフ","city":"大阪市中央区","city_kana":"オオサカシチュウオウク","town":"城見ＭＩＤタワー","town_kana":"シロミエムアイディタワー","prefecture_code":27},"6123":{"zip_code":"5406123","prefecture":"大阪府","prefecture_kana":"オオサカフ","city":"大阪市中央区","city_kana":"オオサカシチュウオウク","town":"城見ＭＩＤタワー","town_kana":"シロミエムアイディタワー","prefecture_code":27},"6124":{"zip_code":"5406124","prefecture":"大阪府","prefecture_kana":"オオサカフ","city":"大阪市中央区","city_kana":"オオサカシチュウオウク","town":"城見ＭＩＤタワー","town_kana":"シロミエムアイディタワー","prefecture_code":27},"6125":{"zip_code":"5406125","prefecture":"大阪府","prefecture_kana":"オオサカフ","city":"大阪市中央区","city_kana":"オオサカシチュウオウク","town":"城見ＭＩＤタワー","town_kana":"シロミエムアイディタワー","prefecture_code":27},"6126":{"zip_code":"5406126","prefecture":"大阪府","prefecture_kana":"オオサカフ","city":"大阪市中央区","city_kana":"オオサカシチュウオウク","town":"城見ＭＩＤタワー","town_kana":"シロミエムアイディタワー","prefecture_code":27},"6127":{"zip_code":"5406127","prefecture":"大阪府","prefecture_kana":"オオサカフ","city":"大阪市中央区","city_kana":"オオサカシチュウオウク","town":"城見ＭＩＤタワー","town_kana":"シロミエムアイディタワー","prefecture_code":27},"6128":{"zip_code":"5406128","prefecture":"大阪府","prefecture_kana":"オオサカフ","city":"大阪市中央区","city_kana":"オオサカシチュウオウク","town":"城見ＭＩＤタワー","town_kana":"シロミエムアイディタワー","prefecture_code":27},"6129":{"zip_code":"5406129","prefecture":"大阪府","prefecture_kana":"オオサカフ","city":"大阪市中央区","city_kana":"オオサカシチュウオウク","town":"城見ＭＩＤタワー","town_kana":"シロミエムアイディタワー","prefecture_code":27},"6130":{"zip_code":"5406130","prefecture":"大阪府","prefecture_kana":"オオサカフ","city":"大阪市中央区","city_kana":"オオサカシチュウオウク","town":"城見ＭＩＤタワー","town_kana":"シロミエムアイディタワー","prefecture_code":27},"6131":{"zip_code":"5406131","prefecture":"大阪府","prefecture_kana":"オオサカフ","city":"大阪市中央区","city_kana":"オオサカシチュウオウク","town":"城見ＭＩＤタワー","town_kana":"シロミエムアイディタワー","prefecture_code":27},"6132":{"zip_code":"5406132","prefecture":"大阪府","prefecture_kana":"オオサカフ","city":"大阪市中央区","city_kana":"オオサカシチュウオウク","town":"城見ＭＩＤタワー","town_kana":"シロミエムアイディタワー","prefecture_code":27},"6133":{"zip_code":"5406133","prefecture":"大阪府","prefecture_kana":"オオサカフ","city":"大阪市中央区","city_kana":"オオサカシチュウオウク","town":"城見ＭＩＤタワー","town_kana":"シロミエムアイディタワー","prefecture_code":27},"6134":{"zip_code":"5406134","prefecture":"大阪府","prefecture_kana":"オオサカフ","city":"大阪市中央区","city_kana":"オオサカシチュウオウク","town":"城見ＭＩＤタワー","town_kana":"シロミエムアイディタワー","prefecture_code":27},"6135":{"zip_code":"5406135","prefecture":"大阪府","prefecture_kana":"オオサカフ","city":"大阪市中央区","city_kana":"オオサカシチュウオウク","town":"城見ＭＩＤタワー","town_kana":"シロミエムアイディタワー","prefecture_code":27},"6136":{"zip_code":"5406136","prefecture":"大阪府","prefecture_kana":"オオサカフ","city":"大阪市中央区","city_kana":"オオサカシチュウオウク","town":"城見ＭＩＤタワー","town_kana":"シロミエムアイディタワー","prefecture_code":27},"6137":{"zip_code":"5406137","prefecture":"大阪府","prefecture_kana":"オオサカフ","city":"大阪市中央区","city_kana":"オオサカシチュウオウク","town":"城見ＭＩＤタワー","town_kana":"シロミエムアイディタワー","prefecture_code":27},"6138":{"zip_code":"5406138","prefecture":"大阪府","prefecture_kana":"オオサカフ","city":"大阪市中央区","city_kana":"オオサカシチュウオウク","town":"城見ＭＩＤタワー","town_kana":"シロミエムアイディタワー","prefecture_code":27},"6090":{"zip_code":"5406090","prefecture":"大阪府","prefecture_kana":"オオサカフ","city":"大阪市中央区","city_kana":"オオサカシチュウオウク","town":"城見クリスタルタワー","town_kana":"シロミクリスタルタワー","prefecture_code":27},"6001":{"zip_code":"5406001","prefecture":"大阪府","prefecture_kana":"オオサカフ","city":"大阪市中央区","city_kana":"オオサカシチュウオウク","town":"城見クリスタルタワー","town_kana":"シロミクリスタルタワー","prefecture_code":27},"6002":{"zip_code":"5406002","prefecture":"大阪府","prefecture_kana":"オオサカフ","city":"大阪市中央区","city_kana":"オオサカシチュウオウク","town":"城見クリスタルタワー","town_kana":"シロミクリスタルタワー","prefecture_code":27},"6003":{"zip_code":"5406003","prefecture":"大阪府","prefecture_kana":"オオサカフ","city":"大阪市中央区","city_kana":"オオサカシチュウオウク","town":"城見クリスタルタワー","town_kana":"シロミクリスタルタワー","prefecture_code":27},"6004":{"zip_code":"5406004","prefecture":"大阪府","prefecture_kana":"オオサカフ","city":"大阪市中央区","city_kana":"オオサカシチュウオウク","town":"城見クリスタルタワー","town_kana":"シロミクリスタルタワー","prefecture_code":27},"6005":{"zip_code":"5406005","prefecture":"大阪府","prefecture_kana":"オオサカフ","city":"大阪市中央区","city_kana":"オオサカシチュウオウク","town":"城見クリスタルタワー","town_kana":"シロミクリスタルタワー","prefecture_code":27},"6006":{"zip_code":"5406006","prefecture":"大阪府","prefecture_kana":"オオサカフ","city":"大阪市中央区","city_kana":"オオサカシチュウオウク","town":"城見クリスタルタワー","town_kana":"シロミクリスタルタワー","prefecture_code":27},"6007":{"zip_code":"5406007","prefecture":"大阪府","prefecture_kana":"オオサカフ","city":"大阪市中央区","city_kana":"オオサカシチュウオウク","town":"城見クリスタルタワー","town_kana":"シロミクリスタルタワー","prefecture_code":27},"6008":{"zip_code":"5406008","prefecture":"大阪府","prefecture_kana":"オオサカフ","city":"大阪市中央区","city_kana":"オオサカシチュウオウク","town":"城見クリスタルタワー","town_kana":"シロミクリスタルタワー","prefecture_code":27},"6009":{"zip_code":"5406009","prefecture":"大阪府","prefecture_kana":"オオサカフ","city":"大阪市中央区","city_kana":"オオサカシチュウオウク","town":"城見クリスタルタワー","town_kana":"シロミクリスタルタワー","prefecture_code":27},"6010":{"zip_code":"5406010","prefecture":"大阪府","prefecture_kana":"オオサカフ","city":"大阪市中央区","city_kana":"オオサカシチュウオウク","town":"城見クリスタルタワー","town_kana":"シロミクリスタルタワー","prefecture_code":27},"6011":{"zip_code":"5406011","prefecture":"大阪府","prefecture_kana":"オオサカフ","city":"大阪市中央区","city_kana":"オオサカシチュウオウク","town":"城見クリスタルタワー","town_kana":"シロミクリスタルタワー","prefecture_code":27},"6012":{"zip_code":"5406012","prefecture":"大阪府","prefecture_kana":"オオサカフ","city":"大阪市中央区","city_kana":"オオサカシチュウオウク","town":"城見クリスタルタワー","town_kana":"シロミクリスタルタワー","prefecture_code":27},"6013":{"zip_code":"5406013","prefecture":"大阪府","prefecture_kana":"オオサカフ","city":"大阪市中央区","city_kana":"オオサカシチュウオウク","town":"城見クリスタルタワー","town_kana":"シロミクリスタルタワー","prefecture_code":27},"6014":{"zip_code":"5406014","prefecture":"大阪府","prefecture_kana":"オオサカフ","city":"大阪市中央区","city_kana":"オオサカシチュウオウク","town":"城見クリスタルタワー","town_kana":"シロミクリスタルタワー","prefecture_code":27},"6015":{"zip_code":"5406015","prefecture":"大阪府","prefecture_kana":"オオサカフ","city":"大阪市中央区","city_kana":"オオサカシチュウオウク","town":"城見クリスタルタワー","town_kana":"シロミクリスタルタワー","prefecture_code":27},"6016":{"zip_code":"5406016","prefecture":"大阪府","prefecture_kana":"オオサカフ","city":"大阪市中央区","city_kana":"オオサカシチュウオウク","town":"城見クリスタルタワー","town_kana":"シロミクリスタルタワー","prefecture_code":27},"6017":{"zip_code":"5406017","prefecture":"大阪府","prefecture_kana":"オオサカフ","city":"大阪市中央区","city_kana":"オオサカシチュウオウク","town":"城見クリスタルタワー","town_kana":"シロミクリスタルタワー","prefecture_code":27},"6018":{"zip_code":"5406018","prefecture":"大阪府","prefecture_kana":"オオサカフ","city":"大阪市中央区","city_kana":"オオサカシチュウオウク","town":"城見クリスタルタワー","town_kana":"シロミクリスタルタワー","prefecture_code":27},"6019":{"zip_code":"5406019","prefecture":"大阪府","prefecture_kana":"オオサカフ","city":"大阪市中央区","city_kana":"オオサカシチュウオウク","town":"城見クリスタルタワー","town_kana":"シロミクリスタルタワー","prefecture_code":27},"6020":{"zip_code":"5406020","prefecture":"大阪府","prefecture_kana":"オオサカフ","city":"大阪市中央区","city_kana":"オオサカシチュウオウク","town":"城見クリスタルタワー","town_kana":"シロミクリスタルタワー","prefecture_code":27},"6021":{"zip_code":"5406021","prefecture":"大阪府","prefecture_kana":"オオサカフ","city":"大阪市中央区","city_kana":"オオサカシチュウオウク","town":"城見クリスタルタワー","town_kana":"シロミクリスタルタワー","prefecture_code":27},"6022":{"zip_code":"5406022","prefecture":"大阪府","prefecture_kana":"オオサカフ","city":"大阪市中央区","city_kana":"オオサカシチュウオウク","town":"城見クリスタルタワー","town_kana":"シロミクリスタルタワー","prefecture_code":27},"6023":{"zip_code":"5406023","prefecture":"大阪府","prefecture_kana":"オオサカフ","city":"大阪市中央区","city_kana":"オオサカシチュウオウク","town":"城見クリスタルタワー","town_kana":"シロミクリスタルタワー","prefecture_code":27},"6024":{"zip_code":"5406024","prefecture":"大阪府","prefecture_kana":"オオサカフ","city":"大阪市中央区","city_kana":"オオサカシチュウオウク","town":"城見クリスタルタワー","town_kana":"シロミクリスタルタワー","prefecture_code":27},"6025":{"zip_code":"5406025","prefecture":"大阪府","prefecture_kana":"オオサカフ","city":"大阪市中央区","city_kana":"オオサカシチュウオウク","town":"城見クリスタルタワー","town_kana":"シロミクリスタルタワー","prefecture_code":27},"6026":{"zip_code":"5406026","prefecture":"大阪府","prefecture_kana":"オオサカフ","city":"大阪市中央区","city_kana":"オオサカシチュウオウク","town":"城見クリスタルタワー","town_kana":"シロミクリスタルタワー","prefecture_code":27},"6027":{"zip_code":"5406027","prefecture":"大阪府","prefecture_kana":"オオサカフ","city":"大阪市中央区","city_kana":"オオサカシチュウオウク","town":"城見クリスタルタワー","town_kana":"シロミクリスタルタワー","prefecture_code":27},"6028":{"zip_code":"5406028","prefecture":"大阪府","prefecture_kana":"オオサカフ","city":"大阪市中央区","city_kana":"オオサカシチュウオウク","town":"城見クリスタルタワー","town_kana":"シロミクリスタルタワー","prefecture_code":27},"6029":{"zip_code":"5406029","prefecture":"大阪府","prefecture_kana":"オオサカフ","city":"大阪市中央区","city_kana":"オオサカシチュウオウク","town":"城見クリスタルタワー","town_kana":"シロミクリスタルタワー","prefecture_code":27},"6030":{"zip_code":"5406030","prefecture":"大阪府","prefecture_kana":"オオサカフ","city":"大阪市中央区","city_kana":"オオサカシチュウオウク","town":"城見クリスタルタワー","town_kana":"シロミクリスタルタワー","prefecture_code":27},"6031":{"zip_code":"5406031","prefecture":"大阪府","prefecture_kana":"オオサカフ","city":"大阪市中央区","city_kana":"オオサカシチュウオウク","town":"城見クリスタルタワー","town_kana":"シロミクリスタルタワー","prefecture_code":27},"6032":{"zip_code":"5406032","prefecture":"大阪府","prefecture_kana":"オオサカフ","city":"大阪市中央区","city_kana":"オオサカシチュウオウク","town":"城見クリスタルタワー","town_kana":"シロミクリスタルタワー","prefecture_code":27},"6033":{"zip_code":"5406033","prefecture":"大阪府","prefecture_kana":"オオサカフ","city":"大阪市中央区","city_kana":"オオサカシチュウオウク","town":"城見クリスタルタワー","town_kana":"シロミクリスタルタワー","prefecture_code":27},"6034":{"zip_code":"5406034","prefecture":"大阪府","prefecture_kana":"オオサカフ","city":"大阪市中央区","city_kana":"オオサカシチュウオウク","town":"城見クリスタルタワー","town_kana":"シロミクリスタルタワー","prefecture_code":27},"6035":{"zip_code":"5406035","prefecture":"大阪府","prefecture_kana":"オオサカフ","city":"大阪市中央区","city_kana":"オオサカシチュウオウク","town":"城見クリスタルタワー","town_kana":"シロミクリスタルタワー","prefecture_code":27},"6036":{"zip_code":"5406036","prefecture":"大阪府","prefecture_kana":"オオサカフ","city":"大阪市中央区","city_kana":"オオサカシチュウオウク","town":"城見クリスタルタワー","town_kana":"シロミクリスタルタワー","prefecture_code":27},"6037":{"zip_code":"5406037","prefecture":"大阪府","prefecture_kana":"オオサカフ","city":"大阪市中央区","city_kana":"オオサカシチュウオウク","town":"城見クリスタルタワー","town_kana":"シロミクリスタルタワー","prefecture_code":27},"6290":{"zip_code":"5406290","prefecture":"大阪府","prefecture_kana":"オオサカフ","city":"大阪市中央区","city_kana":"オオサカシチュウオウク","town":"城見パナソニックタワー","town_kana":"シロミパナソニックタワー","prefecture_code":27},"6201":{"zip_code":"5406201","prefecture":"大阪府","prefecture_kana":"オオサカフ","city":"大阪市中央区","city_kana":"オオサカシチュウオウク","town":"城見パナソニックタワー","town_kana":"シロミパナソニックタワー","prefecture_code":27},"6202":{"zip_code":"5406202","prefecture":"大阪府","prefecture_kana":"オオサカフ","city":"大阪市中央区","city_kana":"オオサカシチュウオウク","town":"城見パナソニックタワー","town_kana":"シロミパナソニックタワー","prefecture_code":27},"6203":{"zip_code":"5406203","prefecture":"大阪府","prefecture_kana":"オオサカフ","city":"大阪市中央区","city_kana":"オオサカシチュウオウク","town":"城見パナソニックタワー","town_kana":"シロミパナソニックタワー","prefecture_code":27},"6204":{"zip_code":"5406204","prefecture":"大阪府","prefecture_kana":"オオサカフ","city":"大阪市中央区","city_kana":"オオサカシチュウオウク","town":"城見パナソニックタワー","town_kana":"シロミパナソニックタワー","prefecture_code":27},"6205":{"zip_code":"5406205","prefecture":"大阪府","prefecture_kana":"オオサカフ","city":"大阪市中央区","city_kana":"オオサカシチュウオウク","town":"城見パナソニックタワー","town_kana":"シロミパナソニックタワー","prefecture_code":27},"6206":{"zip_code":"5406206","prefecture":"大阪府","prefecture_kana":"オオサカフ","city":"大阪市中央区","city_kana":"オオサカシチュウオウク","town":"城見パナソニックタワー","town_kana":"シロミパナソニックタワー","prefecture_code":27},"6207":{"zip_code":"5406207","prefecture":"大阪府","prefecture_kana":"オオサカフ","city":"大阪市中央区","city_kana":"オオサカシチュウオウク","town":"城見パナソニックタワー","town_kana":"シロミパナソニックタワー","prefecture_code":27},"6208":{"zip_code":"5406208","prefecture":"大阪府","prefecture_kana":"オオサカフ","city":"大阪市中央区","city_kana":"オオサカシチュウオウク","town":"城見パナソニックタワー","town_kana":"シロミパナソニックタワー","prefecture_code":27},"6209":{"zip_code":"5406209","prefecture":"大阪府","prefecture_kana":"オオサカフ","city":"大阪市中央区","city_kana":"オオサカシチュウオウク","town":"城見パナソニックタワー","town_kana":"シロミパナソニックタワー","prefecture_code":27},"6210":{"zip_code":"5406210","prefecture":"大阪府","prefecture_kana":"オオサカフ","city":"大阪市中央区","city_kana":"オオサカシチュウオウク","town":"城見パナソニックタワー","town_kana":"シロミパナソニックタワー","prefecture_code":27},"6211":{"zip_code":"5406211","prefecture":"大阪府","prefecture_kana":"オオサカフ","city":"大阪市中央区","city_kana":"オオサカシチュウオウク","town":"城見パナソニックタワー","town_kana":"シロミパナソニックタワー","prefecture_code":27},"6212":{"zip_code":"5406212","prefecture":"大阪府","prefecture_kana":"オオサカフ","city":"大阪市中央区","city_kana":"オオサカシチュウオウク","town":"城見パナソニックタワー","town_kana":"シロミパナソニックタワー","prefecture_code":27},"6213":{"zip_code":"5406213","prefecture":"大阪府","prefecture_kana":"オオサカフ","city":"大阪市中央区","city_kana":"オオサカシチュウオウク","town":"城見パナソニックタワー","town_kana":"シロミパナソニックタワー","prefecture_code":27},"6214":{"zip_code":"5406214","prefecture":"大阪府","prefecture_kana":"オオサカフ","city":"大阪市中央区","city_kana":"オオサカシチュウオウク","town":"城見パナソニックタワー","town_kana":"シロミパナソニックタワー","prefecture_code":27},"6215":{"zip_code":"5406215","prefecture":"大阪府","prefecture_kana":"オオサカフ","city":"大阪市中央区","city_kana":"オオサカシチュウオウク","town":"城見パナソニックタワー","town_kana":"シロミパナソニックタワー","prefecture_code":27},"6216":{"zip_code":"5406216","prefecture":"大阪府","prefecture_kana":"オオサカフ","city":"大阪市中央区","city_kana":"オオサカシチュウオウク","town":"城見パナソニックタワー","town_kana":"シロミパナソニックタワー","prefecture_code":27},"6217":{"zip_code":"5406217","prefecture":"大阪府","prefecture_kana":"オオサカフ","city":"大阪市中央区","city_kana":"オオサカシチュウオウク","town":"城見パナソニックタワー","town_kana":"シロミパナソニックタワー","prefecture_code":27},"6218":{"zip_code":"5406218","prefecture":"大阪府","prefecture_kana":"オオサカフ","city":"大阪市中央区","city_kana":"オオサカシチュウオウク","town":"城見パナソニックタワー","town_kana":"シロミパナソニックタワー","prefecture_code":27},"6219":{"zip_code":"5406219","prefecture":"大阪府","prefecture_kana":"オオサカフ","city":"大阪市中央区","city_kana":"オオサカシチュウオウク","town":"城見パナソニックタワー","town_kana":"シロミパナソニックタワー","prefecture_code":27},"6220":{"zip_code":"5406220","prefecture":"大阪府","prefecture_kana":"オオサカフ","city":"大阪市中央区","city_kana":"オオサカシチュウオウク","town":"城見パナソニックタワー","town_kana":"シロミパナソニックタワー","prefecture_code":27},"6221":{"zip_code":"5406221","prefecture":"大阪府","prefecture_kana":"オオサカフ","city":"大阪市中央区","city_kana":"オオサカシチュウオウク","town":"城見パナソニックタワー","town_kana":"シロミパナソニックタワー","prefecture_code":27},"6222":{"zip_code":"5406222","prefecture":"大阪府","prefecture_kana":"オオサカフ","city":"大阪市中央区","city_kana":"オオサカシチュウオウク","town":"城見パナソニックタワー","town_kana":"シロミパナソニックタワー","prefecture_code":27},"6223":{"zip_code":"5406223","prefecture":"大阪府","prefecture_kana":"オオサカフ","city":"大阪市中央区","city_kana":"オオサカシチュウオウク","town":"城見パナソニックタワー","town_kana":"シロミパナソニックタワー","prefecture_code":27},"6224":{"zip_code":"5406224","prefecture":"大阪府","prefecture_kana":"オオサカフ","city":"大阪市中央区","city_kana":"オオサカシチュウオウク","town":"城見パナソニックタワー","town_kana":"シロミパナソニックタワー","prefecture_code":27},"6225":{"zip_code":"5406225","prefecture":"大阪府","prefecture_kana":"オオサカフ","city":"大阪市中央区","city_kana":"オオサカシチュウオウク","town":"城見パナソニックタワー","town_kana":"シロミパナソニックタワー","prefecture_code":27},"6226":{"zip_code":"5406226","prefecture":"大阪府","prefecture_kana":"オオサカフ","city":"大阪市中央区","city_kana":"オオサカシチュウオウク","town":"城見パナソニックタワー","town_kana":"シロミパナソニックタワー","prefecture_code":27},"6227":{"zip_code":"5406227","prefecture":"大阪府","prefecture_kana":"オオサカフ","city":"大阪市中央区","city_kana":"オオサカシチュウオウク","town":"城見パナソニックタワー","town_kana":"シロミパナソニックタワー","prefecture_code":27},"6228":{"zip_code":"5406228","prefecture":"大阪府","prefecture_kana":"オオサカフ","city":"大阪市中央区","city_kana":"オオサカシチュウオウク","town":"城見パナソニックタワー","town_kana":"シロミパナソニックタワー","prefecture_code":27},"6229":{"zip_code":"5406229","prefecture":"大阪府","prefecture_kana":"オオサカフ","city":"大阪市中央区","city_kana":"オオサカシチュウオウク","town":"城見パナソニックタワー","town_kana":"シロミパナソニックタワー","prefecture_code":27},"6230":{"zip_code":"5406230","prefecture":"大阪府","prefecture_kana":"オオサカフ","city":"大阪市中央区","city_kana":"オオサカシチュウオウク","town":"城見パナソニックタワー","town_kana":"シロミパナソニックタワー","prefecture_code":27},"6231":{"zip_code":"5406231","prefecture":"大阪府","prefecture_kana":"オオサカフ","city":"大阪市中央区","city_kana":"オオサカシチュウオウク","town":"城見パナソニックタワー","town_kana":"シロミパナソニックタワー","prefecture_code":27},"6232":{"zip_code":"5406232","prefecture":"大阪府","prefecture_kana":"オオサカフ","city":"大阪市中央区","city_kana":"オオサカシチュウオウク","town":"城見パナソニックタワー","town_kana":"シロミパナソニックタワー","prefecture_code":27},"6233":{"zip_code":"5406233","prefecture":"大阪府","prefecture_kana":"オオサカフ","city":"大阪市中央区","city_kana":"オオサカシチュウオウク","town":"城見パナソニックタワー","town_kana":"シロミパナソニックタワー","prefecture_code":27},"6234":{"zip_code":"5406234","prefecture":"大阪府","prefecture_kana":"オオサカフ","city":"大阪市中央区","city_kana":"オオサカシチュウオウク","town":"城見パナソニックタワー","town_kana":"シロミパナソニックタワー","prefecture_code":27},"6235":{"zip_code":"5406235","prefecture":"大阪府","prefecture_kana":"オオサカフ","city":"大阪市中央区","city_kana":"オオサカシチュウオウク","town":"城見パナソニックタワー","town_kana":"シロミパナソニックタワー","prefecture_code":27},"6236":{"zip_code":"5406236","prefecture":"大阪府","prefecture_kana":"オオサカフ","city":"大阪市中央区","city_kana":"オオサカシチュウオウク","town":"城見パナソニックタワー","town_kana":"シロミパナソニックタワー","prefecture_code":27},"6237":{"zip_code":"5406237","prefecture":"大阪府","prefecture_kana":"オオサカフ","city":"大阪市中央区","city_kana":"オオサカシチュウオウク","town":"城見パナソニックタワー","town_kana":"シロミパナソニックタワー","prefecture_code":27},"6238":{"zip_code":"5406238","prefecture":"大阪府","prefecture_kana":"オオサカフ","city":"大阪市中央区","city_kana":"オオサカシチュウオウク","town":"城見パナソニックタワー","town_kana":"シロミパナソニックタワー","prefecture_code":27},"6390":{"zip_code":"5406390","prefecture":"大阪府","prefecture_kana":"オオサカフ","city":"大阪市中央区","city_kana":"オオサカシチュウオウク","town":"城見松下ＩＭＰビル","town_kana":"シロミマツシタアイエムピービル","prefecture_code":27},"6301":{"zip_code":"5406301","prefecture":"大阪府","prefecture_kana":"オオサカフ","city":"大阪市中央区","city_kana":"オオサカシチュウオウク","town":"城見松下ＩＭＰビル","town_kana":"シロミマツシタアイエムピービル","prefecture_code":27},"6302":{"zip_code":"5406302","prefecture":"大阪府","prefecture_kana":"オオサカフ","city":"大阪市中央区","city_kana":"オオサカシチュウオウク","town":"城見松下ＩＭＰビル","town_kana":"シロミマツシタアイエムピービル","prefecture_code":27},"6303":{"zip_code":"5406303","prefecture":"大阪府","prefecture_kana":"オオサカフ","city":"大阪市中央区","city_kana":"オオサカシチュウオウク","town":"城見松下ＩＭＰビル","town_kana":"シロミマツシタアイエムピービル","prefecture_code":27},"6304":{"zip_code":"5406304","prefecture":"大阪府","prefecture_kana":"オオサカフ","city":"大阪市中央区","city_kana":"オオサカシチュウオウク","town":"城見松下ＩＭＰビル","town_kana":"シロミマツシタアイエムピービル","prefecture_code":27},"6305":{"zip_code":"5406305","prefecture":"大阪府","prefecture_kana":"オオサカフ","city":"大阪市中央区","city_kana":"オオサカシチュウオウク","town":"城見松下ＩＭＰビル","town_kana":"シロミマツシタアイエムピービル","prefecture_code":27},"6306":{"zip_code":"5406306","prefecture":"大阪府","prefecture_kana":"オオサカフ","city":"大阪市中央区","city_kana":"オオサカシチュウオウク","town":"城見松下ＩＭＰビル","town_kana":"シロミマツシタアイエムピービル","prefecture_code":27},"6307":{"zip_code":"5406307","prefecture":"大阪府","prefecture_kana":"オオサカフ","city":"大阪市中央区","city_kana":"オオサカシチュウオウク","town":"城見松下ＩＭＰビル","town_kana":"シロミマツシタアイエムピービル","prefecture_code":27},"6308":{"zip_code":"5406308","prefecture":"大阪府","prefecture_kana":"オオサカフ","city":"大阪市中央区","city_kana":"オオサカシチュウオウク","town":"城見松下ＩＭＰビル","town_kana":"シロミマツシタアイエムピービル","prefecture_code":27},"6309":{"zip_code":"5406309","prefecture":"大阪府","prefecture_kana":"オオサカフ","city":"大阪市中央区","city_kana":"オオサカシチュウオウク","town":"城見松下ＩＭＰビル","town_kana":"シロミマツシタアイエムピービル","prefecture_code":27},"6310":{"zip_code":"5406310","prefecture":"大阪府","prefecture_kana":"オオサカフ","city":"大阪市中央区","city_kana":"オオサカシチュウオウク","town":"城見松下ＩＭＰビル","town_kana":"シロミマツシタアイエムピービル","prefecture_code":27},"6311":{"zip_code":"5406311","prefecture":"大阪府","prefecture_kana":"オオサカフ","city":"大阪市中央区","city_kana":"オオサカシチュウオウク","town":"城見松下ＩＭＰビル","town_kana":"シロミマツシタアイエムピービル","prefecture_code":27},"6312":{"zip_code":"5406312","prefecture":"大阪府","prefecture_kana":"オオサカフ","city":"大阪市中央区","city_kana":"オオサカシチュウオウク","town":"城見松下ＩＭＰビル","town_kana":"シロミマツシタアイエムピービル","prefecture_code":27},"6313":{"zip_code":"5406313","prefecture":"大阪府","prefecture_kana":"オオサカフ","city":"大阪市中央区","city_kana":"オオサカシチュウオウク","town":"城見松下ＩＭＰビル","town_kana":"シロミマツシタアイエムピービル","prefecture_code":27},"6314":{"zip_code":"5406314","prefecture":"大阪府","prefecture_kana":"オオサカフ","city":"大阪市中央区","city_kana":"オオサカシチュウオウク","town":"城見松下ＩＭＰビル","town_kana":"シロミマツシタアイエムピービル","prefecture_code":27},"6315":{"zip_code":"5406315","prefecture":"大阪府","prefecture_kana":"オオサカフ","city":"大阪市中央区","city_kana":"オオサカシチュウオウク","town":"城見松下ＩＭＰビル","town_kana":"シロミマツシタアイエムピービル","prefecture_code":27},"6316":{"zip_code":"5406316","prefecture":"大阪府","prefecture_kana":"オオサカフ","city":"大阪市中央区","city_kana":"オオサカシチュウオウク","town":"城見松下ＩＭＰビル","town_kana":"シロミマツシタアイエムピービル","prefecture_code":27},"6317":{"zip_code":"5406317","prefecture":"大阪府","prefecture_kana":"オオサカフ","city":"大阪市中央区","city_kana":"オオサカシチュウオウク","town":"城見松下ＩＭＰビル","town_kana":"シロミマツシタアイエムピービル","prefecture_code":27},"6318":{"zip_code":"5406318","prefecture":"大阪府","prefecture_kana":"オオサカフ","city":"大阪市中央区","city_kana":"オオサカシチュウオウク","town":"城見松下ＩＭＰビル","town_kana":"シロミマツシタアイエムピービル","prefecture_code":27},"6319":{"zip_code":"5406319","prefecture":"大阪府","prefecture_kana":"オオサカフ","city":"大阪市中央区","city_kana":"オオサカシチュウオウク","town":"城見松下ＩＭＰビル","town_kana":"シロミマツシタアイエムピービル","prefecture_code":27},"6320":{"zip_code":"5406320","prefecture":"大阪府","prefecture_kana":"オオサカフ","city":"大阪市中央区","city_kana":"オオサカシチュウオウク","town":"城見松下ＩＭＰビル","town_kana":"シロミマツシタアイエムピービル","prefecture_code":27},"6321":{"zip_code":"5406321","prefecture":"大阪府","prefecture_kana":"オオサカフ","city":"大阪市中央区","city_kana":"オオサカシチュウオウク","town":"城見松下ＩＭＰビル","town_kana":"シロミマツシタアイエムピービル","prefecture_code":27},"6322":{"zip_code":"5406322","prefecture":"大阪府","prefecture_kana":"オオサカフ","city":"大阪市中央区","city_kana":"オオサカシチュウオウク","town":"城見松下ＩＭＰビル","town_kana":"シロミマツシタアイエムピービル","prefecture_code":27},"6323":{"zip_code":"5406323","prefecture":"大阪府","prefecture_kana":"オオサカフ","city":"大阪市中央区","city_kana":"オオサカシチュウオウク","town":"城見松下ＩＭＰビル","town_kana":"シロミマツシタアイエムピービル","prefecture_code":27},"6324":{"zip_code":"5406324","prefecture":"大阪府","prefecture_kana":"オオサカフ","city":"大阪市中央区","city_kana":"オオサカシチュウオウク","town":"城見松下ＩＭＰビル","town_kana":"シロミマツシタアイエムピービル","prefecture_code":27},"6325":{"zip_code":"5406325","prefecture":"大阪府","prefecture_kana":"オオサカフ","city":"大阪市中央区","city_kana":"オオサカシチュウオウク","town":"城見松下ＩＭＰビル","town_kana":"シロミマツシタアイエムピービル","prefecture_code":27},"6326":{"zip_code":"5406326","prefecture":"大阪府","prefecture_kana":"オオサカフ","city":"大阪市中央区","city_kana":"オオサカシチュウオウク","town":"城見松下ＩＭＰビル","town_kana":"シロミマツシタアイエムピービル","prefecture_code":27},"0012":{"zip_code":"5400012","prefecture":"大阪府","prefecture_kana":"オオサカフ","city":"大阪市中央区","city_kana":"オオサカシチュウオウク","town":"谷町","town_kana":"タニマチ","prefecture_code":27},"0004":{"zip_code":"5400004","prefecture":"大阪府","prefecture_kana":"オオサカフ","city":"大阪市中央区","city_kana":"オオサカシチュウオウク","town":"玉造","town_kana":"タマツクリ","prefecture_code":27},"0035":{"zip_code":"5400035","prefecture":"大阪府","prefecture_kana":"オオサカフ","city":"大阪市中央区","city_kana":"オオサカシチュウオウク","town":"釣鐘町","town_kana":"ツリガネチョウ","prefecture_code":27},"0032":{"zip_code":"5400032","prefecture":"大阪府","prefecture_kana":"オオサカフ","city":"大阪市中央区","city_kana":"オオサカシチュウオウク","town":"天満橋京町","town_kana":"テンマバシキョウマチ","prefecture_code":27},"0028":{"zip_code":"5400028","prefecture":"大阪府","prefecture_kana":"オオサカフ","city":"大阪市中央区","city_kana":"オオサカシチュウオウク","town":"常盤町","town_kana":"トキワマチ","prefecture_code":27},"0025":{"zip_code":"5400025","prefecture":"大阪府","prefecture_kana":"オオサカフ","city":"大阪市中央区","city_kana":"オオサカシチュウオウク","town":"徳井町","town_kana":"トクイチョウ","prefecture_code":27},"0011":{"zip_code":"5400011","prefecture":"大阪府","prefecture_kana":"オオサカフ","city":"大阪市中央区","city_kana":"オオサカシチュウオウク","town":"農人橋","town_kana":"ノウニンバシ","prefecture_code":27},"0007":{"zip_code":"5400007","prefecture":"大阪府","prefecture_kana":"オオサカフ","city":"大阪市中央区","city_kana":"オオサカシチュウオウク","town":"馬場町","town_kana":"バンバチョウ","prefecture_code":27},"0039":{"zip_code":"5400039","prefecture":"大阪府","prefecture_kana":"オオサカフ","city":"大阪市中央区","city_kana":"オオサカシチュウオウク","town":"東高麗橋","town_kana":"ヒガシコウライバシ","prefecture_code":27},"0036":{"zip_code":"5400036","prefecture":"大阪府","prefecture_kana":"オオサカフ","city":"大阪市中央区","city_kana":"オオサカシチュウオウク","town":"船越町","town_kana":"フナコシチョウ","prefecture_code":27},"0006":{"zip_code":"5400006","prefecture":"大阪府","prefecture_kana":"オオサカフ","city":"大阪市中央区","city_kana":"オオサカシチュウオウク","town":"法円坂","town_kana":"ホウエンザカ","prefecture_code":27},"0029":{"zip_code":"5400029","prefecture":"大阪府","prefecture_kana":"オオサカフ","city":"大阪市中央区","city_kana":"オオサカシチュウオウク","town":"本町橋","town_kana":"ホンマチバシ","prefecture_code":27},"0017":{"zip_code":"5400017","prefecture":"大阪府","prefecture_kana":"オオサカフ","city":"大阪市中央区","city_kana":"オオサカシチュウオウク","town":"松屋町住吉","town_kana":"マツヤマチスミヨシ","prefecture_code":27},"0024":{"zip_code":"5400024","prefecture":"大阪府","prefecture_kana":"オオサカフ","city":"大阪市中央区","city_kana":"オオサカシチュウオウク","town":"南新町","town_kana":"ミナミシンマチ","prefecture_code":27},"0003":{"zip_code":"5400003","prefecture":"大阪府","prefecture_kana":"オオサカフ","city":"大阪市中央区","city_kana":"オオサカシチュウオウク","town":"森ノ宮中央","town_kana":"モリノミヤチュウオウ","prefecture_code":27},"0027":{"zip_code":"5400027","prefecture":"大阪府","prefecture_kana":"オオサカフ","city":"大阪市中央区","city_kana":"オオサカシチュウオウク","town":"鎗屋町","town_kana":"ヤリヤマチ","prefecture_code":27},"0014":{"zip_code":"5400014","prefecture":"大阪府","prefecture_kana":"オオサカフ","city":"大阪市中央区","city_kana":"オオサカシチュウオウク","town":"龍造寺町","town_kana":"リュウゾウジチョウ","prefecture_code":27}}