{"0000":{"zip_code":"7440000","prefecture":"山口県","prefecture_kana":"ヤマグチケン","city":"下松市","city_kana":"クダマツシ","town":"","town_kana":"","prefecture_code":35},"0004":{"zip_code":"7440004","prefecture":"山口県","prefecture_kana":"ヤマグチケン","city":"下松市","city_kana":"クダマツシ","town":"青柳","town_kana":"アオヤギ","prefecture_code":35},"0031":{"zip_code":"7440031","prefecture":"山口県","prefecture_kana":"ヤマグチケン","city":"下松市","city_kana":"クダマツシ","town":"生野屋","town_kana":"イクノヤ","prefecture_code":35},"0032":{"zip_code":"7440032","prefecture":"山口県","prefecture_kana":"ヤマグチケン","city":"下松市","city_kana":"クダマツシ","town":"生野屋西","town_kana":"イクノヤニシ","prefecture_code":35},"0033":{"zip_code":"7440033","prefecture":"山口県","prefecture_kana":"ヤマグチケン","city":"下松市","city_kana":"クダマツシ","town":"生野屋南","town_kana":"イクノヤミナミ","prefecture_code":35},"0007":{"zip_code":"7440007","prefecture":"山口県","prefecture_kana":"ヤマグチケン","city":"下松市","city_kana":"クダマツシ","town":"駅南","town_kana":"エキミナミ","prefecture_code":35},"0015":{"zip_code":"7440015","prefecture":"山口県","prefecture_kana":"ヤマグチケン","city":"下松市","city_kana":"クダマツシ","town":"大手町","town_kana":"オオテマチ","prefecture_code":35},"0272":{"zip_code":"7440272","prefecture":"山口県","prefecture_kana":"ヤマグチケン","city":"下松市","city_kana":"クダマツシ","town":"大藤谷","town_kana":"オオフジダニ","prefecture_code":35},"0001":{"zip_code":"7440001","prefecture":"山口県","prefecture_kana":"ヤマグチケン","city":"下松市","city_kana":"クダマツシ","town":"笠戸島","town_kana":"カサドシマ","prefecture_code":35},"0071":{"zip_code":"7440071","prefecture":"山口県","prefecture_kana":"ヤマグチケン","city":"下松市","city_kana":"クダマツシ","town":"清瀬町","town_kana":"キヨセチョウ","prefecture_code":35},"0042":{"zip_code":"7440042","prefecture":"山口県","prefecture_kana":"ヤマグチケン","city":"下松市","city_kana":"クダマツシ","town":"切山","town_kana":"キリヤマ","prefecture_code":35},"0029":{"zip_code":"7440029","prefecture":"山口県","prefecture_kana":"ヤマグチケン","city":"下松市","city_kana":"クダマツシ","town":"楠木町","town_kana":"クスノキチョウ","prefecture_code":35},"0271":{"zip_code":"7440271","prefecture":"山口県","prefecture_kana":"ヤマグチケン","city":"下松市","city_kana":"クダマツシ","town":"下谷","town_kana":"クダタニ","prefecture_code":35},"0051":{"zip_code":"7440051","prefecture":"山口県","prefecture_kana":"ヤマグチケン","city":"下松市","city_kana":"クダマツシ","town":"来巻","town_kana":"クルマキ","prefecture_code":35},"0061":{"zip_code":"7440061","prefecture":"山口県","prefecture_kana":"ヤマグチケン","city":"下松市","city_kana":"クダマツシ","town":"河内","town_kana":"コウチ","prefecture_code":35},"0003":{"zip_code":"7440003","prefecture":"山口県","prefecture_kana":"ヤマグチケン","city":"下松市","city_kana":"クダマツシ","town":"琴平町","town_kana":"コトヒラチョウ","prefecture_code":35},"0013":{"zip_code":"7440013","prefecture":"山口県","prefecture_kana":"ヤマグチケン","city":"下松市","city_kana":"クダマツシ","town":"栄町","town_kana":"サカエマチ","prefecture_code":35},"0019":{"zip_code":"7440019","prefecture":"山口県","prefecture_kana":"ヤマグチケン","city":"下松市","city_kana":"クダマツシ","town":"桜町","town_kana":"サクラチョウ","prefecture_code":35},"0074":{"zip_code":"7440074","prefecture":"山口県","prefecture_kana":"ヤマグチケン","city":"下松市","city_kana":"クダマツシ","town":"潮音町","town_kana":"シオネチョウ","prefecture_code":35},"0062":{"zip_code":"7440062","prefecture":"山口県","prefecture_kana":"ヤマグチケン","city":"下松市","city_kana":"クダマツシ","town":"昭和町","town_kana":"ショウワマチ","prefecture_code":35},"0008":{"zip_code":"7440008","prefecture":"山口県","prefecture_kana":"ヤマグチケン","city":"下松市","city_kana":"クダマツシ","town":"新川","town_kana":"シンカワ","prefecture_code":35},"0024":{"zip_code":"7440024","prefecture":"山口県","prefecture_kana":"ヤマグチケン","city":"下松市","city_kana":"クダマツシ","town":"末武上","town_kana":"スエタケカミ","prefecture_code":35},"0022":{"zip_code":"7440022","prefecture":"山口県","prefecture_kana":"ヤマグチケン","city":"下松市","city_kana":"クダマツシ","town":"末武下","town_kana":"スエタケシモ","prefecture_code":35},"0023":{"zip_code":"7440023","prefecture":"山口県","prefecture_kana":"ヤマグチケン","city":"下松市","city_kana":"クダマツシ","town":"末武中","town_kana":"スエタケナカ","prefecture_code":35},"0273":{"zip_code":"7440273","prefecture":"山口県","prefecture_kana":"ヤマグチケン","city":"下松市","city_kana":"クダマツシ","town":"瀬戸","town_kana":"セト","prefecture_code":35},"0025":{"zip_code":"7440025","prefecture":"山口県","prefecture_kana":"ヤマグチケン","city":"下松市","city_kana":"クダマツシ","town":"中央町","town_kana":"チュウオウチョウ","prefecture_code":35},"0028":{"zip_code":"7440028","prefecture":"山口県","prefecture_kana":"ヤマグチケン","city":"下松市","city_kana":"クダマツシ","town":"藤光町","town_kana":"トウミツチョウ","prefecture_code":35},"0043":{"zip_code":"7440043","prefecture":"山口県","prefecture_kana":"ヤマグチケン","city":"下松市","city_kana":"クダマツシ","town":"東陽","town_kana":"トウヨウ","prefecture_code":35},"0053":{"zip_code":"7440053","prefecture":"山口県","prefecture_kana":"ヤマグチケン","city":"下松市","city_kana":"クダマツシ","town":"東和","town_kana":"トウワ","prefecture_code":35},"0014":{"zip_code":"7440014","prefecture":"山口県","prefecture_kana":"ヤマグチケン","city":"下松市","city_kana":"クダマツシ","town":"中市","town_kana":"ナカイチ","prefecture_code":35},"0275":{"zip_code":"7440275","prefecture":"山口県","prefecture_kana":"ヤマグチケン","city":"下松市","city_kana":"クダマツシ","town":"中須南","town_kana":"ナカスミナミ","prefecture_code":35},"0011":{"zip_code":"7440011","prefecture":"山口県","prefecture_kana":"ヤマグチケン","city":"下松市","city_kana":"クダマツシ","town":"西豊井","town_kana":"ニシトヨイ","prefecture_code":35},"0018":{"zip_code":"7440018","prefecture":"山口県","prefecture_kana":"ヤマグチケン","city":"下松市","city_kana":"クダマツシ","town":"西柳","town_kana":"ニシヤナギ","prefecture_code":35},"0274":{"zip_code":"7440274","prefecture":"山口県","prefecture_kana":"ヤマグチケン","city":"下松市","city_kana":"クダマツシ","town":"温見","town_kana":"ヌクミ","prefecture_code":35},"0072":{"zip_code":"7440072","prefecture":"山口県","prefecture_kana":"ヤマグチケン","city":"下松市","city_kana":"クダマツシ","town":"望町","town_kana":"ノゾミチョウ","prefecture_code":35},"0006":{"zip_code":"7440006","prefecture":"山口県","prefecture_kana":"ヤマグチケン","city":"下松市","city_kana":"クダマツシ","town":"旗岡","town_kana":"ハタオカ","prefecture_code":35},"0002":{"zip_code":"7440002","prefecture":"山口県","prefecture_kana":"ヤマグチケン","city":"下松市","city_kana":"クダマツシ","town":"東豊井","town_kana":"ヒガシトヨイ","prefecture_code":35},"0017":{"zip_code":"7440017","prefecture":"山口県","prefecture_kana":"ヤマグチケン","city":"下松市","city_kana":"クダマツシ","town":"東柳","town_kana":"ヒガシヤナギ","prefecture_code":35},"0021":{"zip_code":"7440021","prefecture":"山口県","prefecture_kana":"ヤマグチケン","city":"下松市","city_kana":"クダマツシ","town":"平田","town_kana":"ヒラタ","prefecture_code":35},"0005":{"zip_code":"7440005","prefecture":"山口県","prefecture_kana":"ヤマグチケン","city":"下松市","city_kana":"クダマツシ","town":"古川町","town_kana":"フルカワチョウ","prefecture_code":35},"0012":{"zip_code":"7440012","prefecture":"山口県","prefecture_kana":"ヤマグチケン","city":"下松市","city_kana":"クダマツシ","town":"北斗町","town_kana":"ホクトチョウ","prefecture_code":35},"0065":{"zip_code":"7440065","prefecture":"山口県","prefecture_kana":"ヤマグチケン","city":"下松市","city_kana":"クダマツシ","town":"星が丘","town_kana":"ホシガオカ","prefecture_code":35},"0073":{"zip_code":"7440073","prefecture":"山口県","prefecture_kana":"ヤマグチケン","city":"下松市","city_kana":"クダマツシ","town":"美里町","town_kana":"ミサトチョウ","prefecture_code":35},"0075":{"zip_code":"7440075","prefecture":"山口県","prefecture_kana":"ヤマグチケン","city":"下松市","city_kana":"クダマツシ","town":"瑞穂町","town_kana":"ミズホチョウ","prefecture_code":35},"0027":{"zip_code":"7440027","prefecture":"山口県","prefecture_kana":"ヤマグチケン","city":"下松市","city_kana":"クダマツシ","town":"南花岡","town_kana":"ミナミハナオカ","prefecture_code":35},"0052":{"zip_code":"7440052","prefecture":"山口県","prefecture_kana":"ヤマグチケン","city":"下松市","city_kana":"クダマツシ","town":"桃山町","town_kana":"モモヤマチョウ","prefecture_code":35},"0041":{"zip_code":"7440041","prefecture":"山口県","prefecture_kana":"ヤマグチケン","city":"下松市","city_kana":"クダマツシ","town":"山田","town_kana":"ヤマダ","prefecture_code":35},"0276":{"zip_code":"7440276","prefecture":"山口県","prefecture_kana":"ヤマグチケン","city":"下松市","city_kana":"クダマツシ","town":"米川","town_kana":"ヨネガワ","prefecture_code":35},"0063":{"zip_code":"7440063","prefecture":"山口県","prefecture_kana":"ヤマグチケン","city":"下松市","city_kana":"クダマツシ","town":"若宮町","town_kana":"ワカミヤチョウ","prefecture_code":35}}