{"4265":{"zip_code":"7714265","prefecture":"徳島県","prefecture_kana":"トクシマケン","city":"徳島市","city_kana":"トクシマシ","town":"飯谷町","town_kana":"イイタニチョウ","prefecture_code":36},"1156":{"zip_code":"7711156","prefecture":"徳島県","prefecture_kana":"トクシマケン","city":"徳島市","city_kana":"トクシマシ","town":"応神町応神産業団地","town_kana":"オウジンチョウオウジンサンギョウダンチ","prefecture_code":36},"1152":{"zip_code":"7711152","prefecture":"徳島県","prefecture_kana":"トクシマケン","city":"徳島市","city_kana":"トクシマシ","town":"応神町中原","town_kana":"オウジンチョウナカハラ","prefecture_code":36},"1154":{"zip_code":"7711154","prefecture":"徳島県","prefecture_kana":"トクシマケン","city":"徳島市","city_kana":"トクシマシ","town":"応神町東貞方","town_kana":"オウジンチョウヒガシサダカタ","prefecture_code":36},"1155":{"zip_code":"7711155","prefecture":"徳島県","prefecture_kana":"トクシマケン","city":"徳島市","city_kana":"トクシマシ","town":"応神町西貞方","town_kana":"オウジンチョウニシサダカタ","prefecture_code":36},"1151":{"zip_code":"7711151","prefecture":"徳島県","prefecture_kana":"トクシマケン","city":"徳島市","city_kana":"トクシマシ","town":"応神町古川","town_kana":"オウジンチョウフルカワ","prefecture_code":36},"1153":{"zip_code":"7711153","prefecture":"徳島県","prefecture_kana":"トクシマケン","city":"徳島市","city_kana":"トクシマシ","town":"応神町吉成","town_kana":"オウジンチョウヨシナリ","prefecture_code":36},"0101":{"zip_code":"7710101","prefecture":"徳島県","prefecture_kana":"トクシマケン","city":"徳島市","city_kana":"トクシマシ","town":"川内町","town_kana":"カワウチチョウ","prefecture_code":36},"0144":{"zip_code":"7710144","prefecture":"徳島県","prefecture_kana":"トクシマケン","city":"徳島市","city_kana":"トクシマシ","town":"川内町","town_kana":"カワウチチョウ","prefecture_code":36},"0131":{"zip_code":"7710131","prefecture":"徳島県","prefecture_kana":"トクシマケン","city":"徳島市","city_kana":"トクシマシ","town":"川内町","town_kana":"カワウチチョウ","prefecture_code":36},"0142":{"zip_code":"7710142","prefecture":"徳島県","prefecture_kana":"トクシマケン","city":"徳島市","city_kana":"トクシマシ","town":"川内町","town_kana":"カワウチチョウ","prefecture_code":36},"0130":{"zip_code":"7710130","prefecture":"徳島県","prefecture_kana":"トクシマケン","city":"徳島市","city_kana":"トクシマシ","town":"川内町","town_kana":"カワウチチョウ","prefecture_code":36},"0125":{"zip_code":"7710125","prefecture":"徳島県","prefecture_kana":"トクシマケン","city":"徳島市","city_kana":"トクシマシ","town":"川内町","town_kana":"カワウチチョウ","prefecture_code":36},"0126":{"zip_code":"7710126","prefecture":"徳島県","prefecture_kana":"トクシマケン","city":"徳島市","city_kana":"トクシマシ","town":"川内町","town_kana":"カワウチチョウ","prefecture_code":36},"0127":{"zip_code":"7710127","prefecture":"徳島県","prefecture_kana":"トクシマケン","city":"徳島市","city_kana":"トクシマシ","town":"川内町","town_kana":"カワウチチョウ","prefecture_code":36},"0128":{"zip_code":"7710128","prefecture":"徳島県","prefecture_kana":"トクシマケン","city":"徳島市","city_kana":"トクシマシ","town":"川内町","town_kana":"カワウチチョウ","prefecture_code":36},"0129":{"zip_code":"7710129","prefecture":"徳島県","prefecture_kana":"トクシマケン","city":"徳島市","city_kana":"トクシマシ","town":"川内町","town_kana":"カワウチチョウ","prefecture_code":36},"0103":{"zip_code":"7710103","prefecture":"徳島県","prefecture_kana":"トクシマケン","city":"徳島市","city_kana":"トクシマシ","town":"川内町","town_kana":"カワウチチョウ","prefecture_code":36},"0104":{"zip_code":"7710104","prefecture":"徳島県","prefecture_kana":"トクシマケン","city":"徳島市","city_kana":"トクシマシ","town":"川内町","town_kana":"カワウチチョウ","prefecture_code":36},"0102":{"zip_code":"7710102","prefecture":"徳島県","prefecture_kana":"トクシマケン","city":"徳島市","city_kana":"トクシマシ","town":"川内町","town_kana":"カワウチチョウ","prefecture_code":36},"0106":{"zip_code":"7710106","prefecture":"徳島県","prefecture_kana":"トクシマケン","city":"徳島市","city_kana":"トクシマシ","town":"川内町","town_kana":"カワウチチョウ","prefecture_code":36},"0105":{"zip_code":"7710105","prefecture":"徳島県","prefecture_kana":"トクシマケン","city":"徳島市","city_kana":"トクシマシ","town":"川内町","town_kana":"カワウチチョウ","prefecture_code":36},"0121":{"zip_code":"7710121","prefecture":"徳島県","prefecture_kana":"トクシマケン","city":"徳島市","city_kana":"トクシマシ","town":"川内町","town_kana":"カワウチチョウ","prefecture_code":36},"0122":{"zip_code":"7710122","prefecture":"徳島県","prefecture_kana":"トクシマケン","city":"徳島市","city_kana":"トクシマシ","town":"川内町","town_kana":"カワウチチョウ","prefecture_code":36},"0124":{"zip_code":"7710124","prefecture":"徳島県","prefecture_kana":"トクシマケン","city":"徳島市","city_kana":"トクシマシ","town":"川内町","town_kana":"カワウチチョウ","prefecture_code":36},"0123":{"zip_code":"7710123","prefecture":"徳島県","prefecture_kana":"トクシマケン","city":"徳島市","city_kana":"トクシマシ","town":"川内町","town_kana":"カワウチチョウ","prefecture_code":36},"0141":{"zip_code":"7710141","prefecture":"徳島県","prefecture_kana":"トクシマケン","city":"徳島市","city_kana":"トクシマシ","town":"川内町","town_kana":"カワウチチョウ","prefecture_code":36},"0117":{"zip_code":"7710117","prefecture":"徳島県","prefecture_kana":"トクシマケン","city":"徳島市","city_kana":"トクシマシ","town":"川内町","town_kana":"カワウチチョウ","prefecture_code":36},"0111":{"zip_code":"7710111","prefecture":"徳島県","prefecture_kana":"トクシマケン","city":"徳島市","city_kana":"トクシマシ","town":"川内町","town_kana":"カワウチチョウ","prefecture_code":36},"0112":{"zip_code":"7710112","prefecture":"徳島県","prefecture_kana":"トクシマケン","city":"徳島市","city_kana":"トクシマシ","town":"川内町","town_kana":"カワウチチョウ","prefecture_code":36},"0143":{"zip_code":"7710143","prefecture":"徳島県","prefecture_kana":"トクシマケン","city":"徳島市","city_kana":"トクシマシ","town":"川内町","town_kana":"カワウチチョウ","prefecture_code":36},"0132":{"zip_code":"7710132","prefecture":"徳島県","prefecture_kana":"トクシマケン","city":"徳島市","city_kana":"トクシマシ","town":"川内町","town_kana":"カワウチチョウ","prefecture_code":36},"0133":{"zip_code":"7710133","prefecture":"徳島県","prefecture_kana":"トクシマケン","city":"徳島市","city_kana":"トクシマシ","town":"川内町","town_kana":"カワウチチョウ","prefecture_code":36},"0136":{"zip_code":"7710136","prefecture":"徳島県","prefecture_kana":"トクシマケン","city":"徳島市","city_kana":"トクシマシ","town":"川内町","town_kana":"カワウチチョウ","prefecture_code":36},"0134":{"zip_code":"7710134","prefecture":"徳島県","prefecture_kana":"トクシマケン","city":"徳島市","city_kana":"トクシマシ","town":"川内町","town_kana":"カワウチチョウ","prefecture_code":36},"0138":{"zip_code":"7710138","prefecture":"徳島県","prefecture_kana":"トクシマケン","city":"徳島市","city_kana":"トクシマシ","town":"川内町","town_kana":"カワウチチョウ","prefecture_code":36},"0135":{"zip_code":"7710135","prefecture":"徳島県","prefecture_kana":"トクシマケン","city":"徳島市","city_kana":"トクシマシ","town":"川内町","town_kana":"カワウチチョウ","prefecture_code":36},"0137":{"zip_code":"7710137","prefecture":"徳島県","prefecture_kana":"トクシマケン","city":"徳島市","city_kana":"トクシマシ","town":"川内町","town_kana":"カワウチチョウ","prefecture_code":36},"0113":{"zip_code":"7710113","prefecture":"徳島県","prefecture_kana":"トクシマケン","city":"徳島市","city_kana":"トクシマシ","town":"川内町","town_kana":"カワウチチョウ","prefecture_code":36},"0116":{"zip_code":"7710116","prefecture":"徳島県","prefecture_kana":"トクシマケン","city":"徳島市","city_kana":"トクシマシ","town":"川内町","town_kana":"カワウチチョウ","prefecture_code":36},"0115":{"zip_code":"7710115","prefecture":"徳島県","prefecture_kana":"トクシマケン","city":"徳島市","city_kana":"トクシマシ","town":"川内町","town_kana":"カワウチチョウ","prefecture_code":36},"0114":{"zip_code":"7710114","prefecture":"徳島県","prefecture_kana":"トクシマケン","city":"徳島市","city_kana":"トクシマシ","town":"川内町","town_kana":"カワウチチョウ","prefecture_code":36},"0139":{"zip_code":"7710139","prefecture":"徳島県","prefecture_kana":"トクシマケン","city":"徳島市","city_kana":"トクシマシ","town":"川内町","town_kana":"カワウチチョウ","prefecture_code":36},"4267":{"zip_code":"7714267","prefecture":"徳島県","prefecture_kana":"トクシマケン","city":"徳島市","city_kana":"トクシマシ","town":"渋野町","town_kana":"シブノチョウ","prefecture_code":36},"4263":{"zip_code":"7714263","prefecture":"徳島県","prefecture_kana":"トクシマケン","city":"徳島市","city_kana":"トクシマシ","town":"丈六町","town_kana":"ジョウロクチョウ","prefecture_code":36},"4262":{"zip_code":"7714262","prefecture":"徳島県","prefecture_kana":"トクシマケン","city":"徳島市","city_kana":"トクシマシ","town":"丈六町","town_kana":"ジョウロクチョウ","prefecture_code":36},"4261":{"zip_code":"7714261","prefecture":"徳島県","prefecture_kana":"トクシマケン","city":"徳島市","city_kana":"トクシマシ","town":"丈六町","town_kana":"ジョウロクチョウ","prefecture_code":36},"4264":{"zip_code":"7714264","prefecture":"徳島県","prefecture_kana":"トクシマケン","city":"徳島市","city_kana":"トクシマシ","town":"多家良町","town_kana":"タカラチョウ","prefecture_code":36},"4266":{"zip_code":"7714266","prefecture":"徳島県","prefecture_kana":"トクシマケン","city":"徳島市","city_kana":"トクシマシ","town":"八多町","town_kana":"ハタチョウ","prefecture_code":36},"0372":{"zip_code":"7710372","prefecture":"徳島県","prefecture_kana":"トクシマケン","city":"鳴門市","city_kana":"ナルトシ","town":"北灘町粟田","town_kana":"キタナダチョウアワタ","prefecture_code":36},"0373":{"zip_code":"7710373","prefecture":"徳島県","prefecture_kana":"トクシマケン","city":"鳴門市","city_kana":"ナルトシ","town":"北灘町大浦","town_kana":"キタナダチョウオオウラ","prefecture_code":36},"0377":{"zip_code":"7710377","prefecture":"徳島県","prefecture_kana":"トクシマケン","city":"鳴門市","city_kana":"ナルトシ","town":"北灘町大須","town_kana":"キタナダチョウオオズ","prefecture_code":36},"0376":{"zip_code":"7710376","prefecture":"徳島県","prefecture_kana":"トクシマケン","city":"鳴門市","city_kana":"ナルトシ","town":"北灘町折野","town_kana":"キタナダチョウオリノ","prefecture_code":36},"0371":{"zip_code":"7710371","prefecture":"徳島県","prefecture_kana":"トクシマケン","city":"鳴門市","city_kana":"ナルトシ","town":"北灘町櫛木","town_kana":"キタナダチョウクシキ","prefecture_code":36},"0378":{"zip_code":"7710378","prefecture":"徳島県","prefecture_kana":"トクシマケン","city":"鳴門市","city_kana":"ナルトシ","town":"北灘町碁浦","town_kana":"キタナダチョウゴノウラ","prefecture_code":36},"0374":{"zip_code":"7710374","prefecture":"徳島県","prefecture_kana":"トクシマケン","city":"鳴門市","city_kana":"ナルトシ","town":"北灘町宿毛谷","town_kana":"キタナダチョウシュクモダニ","prefecture_code":36},"0375":{"zip_code":"7710375","prefecture":"徳島県","prefecture_kana":"トクシマケン","city":"鳴門市","city_kana":"ナルトシ","town":"北灘町鳥ケ丸","town_kana":"キタナダチョウトリガマル","prefecture_code":36},"0360":{"zip_code":"7710360","prefecture":"徳島県","prefecture_kana":"トクシマケン","city":"鳴門市","city_kana":"ナルトシ","town":"瀬戸町明神","town_kana":"セトチョウアキノカミ","prefecture_code":36},"0362":{"zip_code":"7710362","prefecture":"徳島県","prefecture_kana":"トクシマケン","city":"鳴門市","city_kana":"ナルトシ","town":"瀬戸町北泊","town_kana":"セトチョウキタドマリ","prefecture_code":36},"0364":{"zip_code":"7710364","prefecture":"徳島県","prefecture_kana":"トクシマケン","city":"鳴門市","city_kana":"ナルトシ","town":"瀬戸町北泊","town_kana":"セトチョウキタドマリ","prefecture_code":36},"0367":{"zip_code":"7710367","prefecture":"徳島県","prefecture_kana":"トクシマケン","city":"鳴門市","city_kana":"ナルトシ","town":"瀬戸町大島田","town_kana":"セトチョウオオシマダ","prefecture_code":36},"0366":{"zip_code":"7710366","prefecture":"徳島県","prefecture_kana":"トクシマケン","city":"鳴門市","city_kana":"ナルトシ","town":"瀬戸町中島田","town_kana":"セトチョウナカシマダ","prefecture_code":36},"0365":{"zip_code":"7710365","prefecture":"徳島県","prefecture_kana":"トクシマケン","city":"鳴門市","city_kana":"ナルトシ","town":"瀬戸町小島田","town_kana":"セトチョウコシマダ","prefecture_code":36},"0361":{"zip_code":"7710361","prefecture":"徳島県","prefecture_kana":"トクシマケン","city":"鳴門市","city_kana":"ナルトシ","town":"瀬戸町堂浦","town_kana":"セトチョウドウノウラ","prefecture_code":36},"0363":{"zip_code":"7710363","prefecture":"徳島県","prefecture_kana":"トクシマケン","city":"鳴門市","city_kana":"ナルトシ","town":"瀬戸町湊谷","town_kana":"セトチョウミナトダニ","prefecture_code":36},"0369":{"zip_code":"7710369","prefecture":"徳島県","prefecture_kana":"トクシマケン","city":"鳴門市","city_kana":"ナルトシ","town":"瀬戸町撫佐","town_kana":"セトチョウムサ","prefecture_code":36},"0368":{"zip_code":"7710368","prefecture":"徳島県","prefecture_kana":"トクシマケン","city":"鳴門市","city_kana":"ナルトシ","town":"瀬戸町室","town_kana":"セトチョウムロ","prefecture_code":36},"5177":{"zip_code":"7715177","prefecture":"徳島県","prefecture_kana":"トクシマケン","city":"阿南市","city_kana":"アナンシ","town":"大井町","town_kana":"オオイチョウ","prefecture_code":36},"5176":{"zip_code":"7715176","prefecture":"徳島県","prefecture_kana":"トクシマケン","city":"阿南市","city_kana":"アナンシ","town":"大田井町","town_kana":"オオタイチョウ","prefecture_code":36},"5173":{"zip_code":"7715173","prefecture":"徳島県","prefecture_kana":"トクシマケン","city":"阿南市","city_kana":"アナンシ","town":"加茂町","town_kana":"カモチョウ","prefecture_code":36},"5170":{"zip_code":"7715170","prefecture":"徳島県","prefecture_kana":"トクシマケン","city":"阿南市","city_kana":"アナンシ","town":"楠根町","town_kana":"クスネチョウ","prefecture_code":36},"5171":{"zip_code":"7715171","prefecture":"徳島県","prefecture_kana":"トクシマケン","city":"阿南市","city_kana":"アナンシ","town":"熊谷町","town_kana":"クマダニチョウ","prefecture_code":36},"5178":{"zip_code":"7715178","prefecture":"徳島県","prefecture_kana":"トクシマケン","city":"阿南市","city_kana":"アナンシ","town":"十八女町","town_kana":"サカリチョウ","prefecture_code":36},"5174":{"zip_code":"7715174","prefecture":"徳島県","prefecture_kana":"トクシマケン","city":"阿南市","city_kana":"アナンシ","town":"水井町","town_kana":"スイイチョウ","prefecture_code":36},"5179":{"zip_code":"7715179","prefecture":"徳島県","prefecture_kana":"トクシマケン","city":"阿南市","city_kana":"アナンシ","town":"深瀬町","town_kana":"フカセチョウ","prefecture_code":36},"5175":{"zip_code":"7715175","prefecture":"徳島県","prefecture_kana":"トクシマケン","city":"阿南市","city_kana":"アナンシ","town":"細野町","town_kana":"ホソノチョウ","prefecture_code":36},"5172":{"zip_code":"7715172","prefecture":"徳島県","prefecture_kana":"トクシマケン","city":"阿南市","city_kana":"アナンシ","town":"吉井町","town_kana":"ヨシイチョウ","prefecture_code":36},"1700":{"zip_code":"7711700","prefecture":"徳島県","prefecture_kana":"トクシマケン","city":"阿波市","city_kana":"アワシ","town":"","town_kana":"","prefecture_code":36},"1705":{"zip_code":"7711705","prefecture":"徳島県","prefecture_kana":"トクシマケン","city":"阿波市","city_kana":"アワシ","town":"阿波町松川内","town_kana":"アワチョウマツカワウチ","prefecture_code":36},"1701":{"zip_code":"7711701","prefecture":"徳島県","prefecture_kana":"トクシマケン","city":"阿波市","city_kana":"アワシ","town":"阿波町南谷島","town_kana":"アワチョウミナミタニジマ","prefecture_code":36},"1703":{"zip_code":"7711703","prefecture":"徳島県","prefecture_kana":"トクシマケン","city":"阿波市","city_kana":"アワシ","town":"阿波町南柴生","town_kana":"アワチョウミナミシボウ","prefecture_code":36},"1704":{"zip_code":"7711704","prefecture":"徳島県","prefecture_kana":"トクシマケン","city":"阿波市","city_kana":"アワシ","town":"阿波町山ノ神","town_kana":"アワチョウヤマノカミ","prefecture_code":36},"1702":{"zip_code":"7711702","prefecture":"徳島県","prefecture_kana":"トクシマケン","city":"阿波市","city_kana":"アワシ","town":"阿波町早田","town_kana":"アワチョウワサダ","prefecture_code":36},"1706":{"zip_code":"7711706","prefecture":"徳島県","prefecture_kana":"トクシマケン","city":"阿波市","city_kana":"アワシ","town":"阿波町南西谷","town_kana":"アワチョウミナミニシダニ","prefecture_code":36},"1602":{"zip_code":"7711602","prefecture":"徳島県","prefecture_kana":"トクシマケン","city":"阿波市","city_kana":"アワシ","town":"市場町市場","town_kana":"イチバチョウイチバ","prefecture_code":36},"1603":{"zip_code":"7711603","prefecture":"徳島県","prefecture_kana":"トクシマケン","city":"阿波市","city_kana":"アワシ","town":"市場町市場","town_kana":"イチバチョウイチバ","prefecture_code":36},"1601":{"zip_code":"7711601","prefecture":"徳島県","prefecture_kana":"トクシマケン","city":"阿波市","city_kana":"アワシ","town":"市場町市場","town_kana":"イチバチョウイチバ","prefecture_code":36},"1604":{"zip_code":"7711604","prefecture":"徳島県","prefecture_kana":"トクシマケン","city":"阿波市","city_kana":"アワシ","town":"市場町市場","town_kana":"イチバチョウイチバ","prefecture_code":36},"1626":{"zip_code":"7711626","prefecture":"徳島県","prefecture_kana":"トクシマケン","city":"阿波市","city_kana":"アワシ","town":"市場町伊月","town_kana":"イチバチョウイツキ","prefecture_code":36},"1714":{"zip_code":"7711714","prefecture":"徳島県","prefecture_kana":"トクシマケン","city":"阿波市","city_kana":"アワシ","town":"市場町犬墓","town_kana":"イチバチョウイヌノハカ","prefecture_code":36},"1614":{"zip_code":"7711614","prefecture":"徳島県","prefecture_kana":"トクシマケン","city":"阿波市","city_kana":"アワシ","town":"市場町犬墓","town_kana":"イチバチョウイヌノハカ","prefecture_code":36},"1615":{"zip_code":"7711615","prefecture":"徳島県","prefecture_kana":"トクシマケン","city":"阿波市","city_kana":"アワシ","town":"市場町大影","town_kana":"イチバチョウオオカゲ","prefecture_code":36},"1627":{"zip_code":"7711627","prefecture":"徳島県","prefecture_kana":"トクシマケン","city":"阿波市","city_kana":"アワシ","town":"市場町大野島","town_kana":"イチバチョウオオノジマ","prefecture_code":36},"1613":{"zip_code":"7711613","prefecture":"徳島県","prefecture_kana":"トクシマケン","city":"阿波市","city_kana":"アワシ","town":"市場町大俣","town_kana":"イチバチョウオオマタ","prefecture_code":36},"1621":{"zip_code":"7711621","prefecture":"徳島県","prefecture_kana":"トクシマケン","city":"阿波市","city_kana":"アワシ","town":"市場町尾開","town_kana":"イチバチョウオバリ","prefecture_code":36},"1611":{"zip_code":"7711611","prefecture":"徳島県","prefecture_kana":"トクシマケン","city":"阿波市","city_kana":"アワシ","town":"市場町香美","town_kana":"イチバチョウカガミ","prefecture_code":36},"1610":{"zip_code":"7711610","prefecture":"徳島県","prefecture_kana":"トクシマケン","city":"阿波市","city_kana":"アワシ","town":"市場町香美","town_kana":"イチバチョウカガミ","prefecture_code":36},"1612":{"zip_code":"7711612","prefecture":"徳島県","prefecture_kana":"トクシマケン","city":"阿波市","city_kana":"アワシ","town":"市場町上喜来","town_kana":"イチバチョウカミギライ","prefecture_code":36},"1623":{"zip_code":"7711623","prefecture":"徳島県","prefecture_kana":"トクシマケン","city":"阿波市","city_kana":"アワシ","town":"市場町切幡","town_kana":"イチバチョウキリハタ","prefecture_code":36},"1622":{"zip_code":"7711622","prefecture":"徳島県","prefecture_kana":"トクシマケン","city":"阿波市","city_kana":"アワシ","town":"市場町興崎","town_kana":"イチバチョウコウザキ","prefecture_code":36},"1616":{"zip_code":"7711616","prefecture":"徳島県","prefecture_kana":"トクシマケン","city":"阿波市","city_kana":"アワシ","town":"市場町日開谷","town_kana":"イチバチョウヒガイダニ","prefecture_code":36},"1624":{"zip_code":"7711624","prefecture":"徳島県","prefecture_kana":"トクシマケン","city":"阿波市","city_kana":"アワシ","town":"市場町山野上","town_kana":"イチバチョウヤマノウエ","prefecture_code":36},"1625":{"zip_code":"7711625","prefecture":"徳島県","prefecture_kana":"トクシマケン","city":"阿波市","city_kana":"アワシ","town":"市場町八幡","town_kana":"イチバチョウヤワタ","prefecture_code":36},"1501":{"zip_code":"7711501","prefecture":"徳島県","prefecture_kana":"トクシマケン","city":"阿波市","city_kana":"アワシ","town":"土成町秋月","town_kana":"ドナリチョウアキヅキ","prefecture_code":36},"1503":{"zip_code":"7711503","prefecture":"徳島県","prefecture_kana":"トクシマケン","city":"阿波市","city_kana":"アワシ","town":"土成町浦池","town_kana":"ドナリチョウウラノイケ","prefecture_code":36},"1505":{"zip_code":"7711505","prefecture":"徳島県","prefecture_kana":"トクシマケン","city":"阿波市","city_kana":"アワシ","town":"土成町郡","town_kana":"ドナリチョウコオリ","prefecture_code":36},"1509":{"zip_code":"7711509","prefecture":"徳島県","prefecture_kana":"トクシマケン","city":"阿波市","city_kana":"アワシ","town":"土成町高尾","town_kana":"ドナリチョウタカオ","prefecture_code":36},"1506":{"zip_code":"7711506","prefecture":"徳島県","prefecture_kana":"トクシマケン","city":"阿波市","city_kana":"アワシ","town":"土成町土成","town_kana":"ドナリチョウドナリ","prefecture_code":36},"1504":{"zip_code":"7711504","prefecture":"徳島県","prefecture_kana":"トクシマケン","city":"阿波市","city_kana":"アワシ","town":"土成町成当","town_kana":"ドナリチョウナリトウ","prefecture_code":36},"1502":{"zip_code":"7711502","prefecture":"徳島県","prefecture_kana":"トクシマケン","city":"阿波市","city_kana":"アワシ","town":"土成町水田","town_kana":"ドナリチョウミズタ","prefecture_code":36},"1508":{"zip_code":"7711508","prefecture":"徳島県","prefecture_kana":"トクシマケン","city":"阿波市","city_kana":"アワシ","town":"土成町宮川内","town_kana":"ドナリチョウミヤガワウチ","prefecture_code":36},"1507":{"zip_code":"7711507","prefecture":"徳島県","prefecture_kana":"トクシマケン","city":"阿波市","city_kana":"アワシ","town":"土成町吉田","town_kana":"ドナリチョウヨシダ","prefecture_code":36},"1401":{"zip_code":"7711401","prefecture":"徳島県","prefecture_kana":"トクシマケン","city":"阿波市","city_kana":"アワシ","town":"吉野町柿原","town_kana":"ヨシノチョウカキハラ","prefecture_code":36},"1403":{"zip_code":"7711403","prefecture":"徳島県","prefecture_kana":"トクシマケン","city":"阿波市","city_kana":"アワシ","town":"吉野町五条","town_kana":"ヨシノチョウゴジョウ","prefecture_code":36},"1402":{"zip_code":"7711402","prefecture":"徳島県","prefecture_kana":"トクシマケン","city":"阿波市","city_kana":"アワシ","town":"吉野町西条","town_kana":"ヨシノチョウサイジョウ","prefecture_code":36},"2107":{"zip_code":"7712107","prefecture":"徳島県","prefecture_kana":"トクシマケン","city":"美馬市","city_kana":"ミマシ","town":"山夏蕨、吉水）","town_kana":"ヤマナツワラビ、ヨシミズ)","prefecture_code":36},"2106":{"zip_code":"7712106","prefecture":"徳島県","prefecture_kana":"トクシマケン","city":"美馬市","city_kana":"ミマシ","town":"西荒川、沼田島、東荒川、南荒川、南東原、妙見、山嫁坂）","town_kana":"ニシアラカワ、ヌマダジマ、ヒガシアラカワ、ミナミアラカワ、ミナミヒガシバラ、ミョウケン、ヤマヨメザカ)","prefecture_code":36},"2102":{"zip_code":"7712102","prefecture":"徳島県","prefecture_kana":"トクシマケン","city":"美馬市","city_kana":"ミマシ","town":"山橋谷、横尾）","town_kana":"ヤマハシダニ、ヨコオ)","prefecture_code":36},"2105":{"zip_code":"7712105","prefecture":"徳島県","prefecture_kana":"トクシマケン","city":"美馬市","city_kana":"ミマシ","town":"北土ケ久保、喜入道、滝宮、土ケ久保、西段、宮東、宮西、宮南、養泉）","town_kana":"キタツチガクボ、キニュウドウ、タキノミヤ、ツチガクボ、ニシダン、ミヤヒガシ、ミヤニシ、ミヤミナミ、ヨウセン)","prefecture_code":36},"2103":{"zip_code":"7712103","prefecture":"徳島県","prefecture_kana":"トクシマケン","city":"美馬市","city_kana":"ミマシ","town":"坊ケ谷、水久保、宗ノ分、屋内）","town_kana":"ボウガタニ、ミズクボ、ムネノブン、ヤナイ)","prefecture_code":36},"2101":{"zip_code":"7712101","prefecture":"徳島県","prefecture_kana":"トクシマケン","city":"美馬市","city_kana":"ミマシ","town":"美馬町","town_kana":"ミマチョウ","prefecture_code":36},"2104":{"zip_code":"7712104","prefecture":"徳島県","prefecture_kana":"トクシマケン","city":"美馬市","city_kana":"ミマシ","town":"宗重、薬師）","town_kana":"ムネシゲ、ヤクシ)","prefecture_code":36},"2302":{"zip_code":"7712302","prefecture":"徳島県","prefecture_kana":"トクシマケン","city":"三好市","city_kana":"ミヨシシ","town":"三野町加茂野宮","town_kana":"ミノチョウカモノミヤ","prefecture_code":36},"2304":{"zip_code":"7712304","prefecture":"徳島県","prefecture_kana":"トクシマケン","city":"三好市","city_kana":"ミヨシシ","town":"三野町芝生","town_kana":"ミノチョウシボウ","prefecture_code":36},"2301":{"zip_code":"7712301","prefecture":"徳島県","prefecture_kana":"トクシマケン","city":"三好市","city_kana":"ミヨシシ","town":"三野町清水","town_kana":"ミノチョウシミズ","prefecture_code":36},"2303":{"zip_code":"7712303","prefecture":"徳島県","prefecture_kana":"トクシマケン","city":"三好市","city_kana":"ミヨシシ","town":"三野町勢力","town_kana":"ミノチョウセイリキ","prefecture_code":36},"2305":{"zip_code":"7712305","prefecture":"徳島県","prefecture_kana":"トクシマケン","city":"三好市","city_kana":"ミヨシシ","town":"三野町太刀野","town_kana":"ミノチョウタチノ","prefecture_code":36},"2306":{"zip_code":"7712306","prefecture":"徳島県","prefecture_kana":"トクシマケン","city":"三好市","city_kana":"ミヨシシ","town":"三野町太刀野山","town_kana":"ミノチョウタチノヤマ","prefecture_code":36},"4300":{"zip_code":"7714300","prefecture":"徳島県","prefecture_kana":"トクシマケン","city":"勝浦郡勝浦町","city_kana":"カツウラグンカツウラチョウ","town":"","town_kana":"","prefecture_code":36},"4303":{"zip_code":"7714303","prefecture":"徳島県","prefecture_kana":"トクシマケン","city":"勝浦郡勝浦町","city_kana":"カツウラグンカツウラチョウ","town":"生名","town_kana":"イクナ","prefecture_code":36},"4308":{"zip_code":"7714308","prefecture":"徳島県","prefecture_kana":"トクシマケン","city":"勝浦郡勝浦町","city_kana":"カツウラグンカツウラチョウ","town":"坂本","town_kana":"サカモト","prefecture_code":36},"4306":{"zip_code":"7714306","prefecture":"徳島県","prefecture_kana":"トクシマケン","city":"勝浦郡勝浦町","city_kana":"カツウラグンカツウラチョウ","town":"棚野","town_kana":"タナノ","prefecture_code":36},"4302":{"zip_code":"7714302","prefecture":"徳島県","prefecture_kana":"トクシマケン","city":"勝浦郡勝浦町","city_kana":"カツウラグンカツウラチョウ","town":"中角","town_kana":"ナカツノ","prefecture_code":36},"4301":{"zip_code":"7714301","prefecture":"徳島県","prefecture_kana":"トクシマケン","city":"勝浦郡勝浦町","city_kana":"カツウラグンカツウラチョウ","town":"沼江","town_kana":"ヌエ","prefecture_code":36},"4305":{"zip_code":"7714305","prefecture":"徳島県","prefecture_kana":"トクシマケン","city":"勝浦郡勝浦町","city_kana":"カツウラグンカツウラチョウ","town":"久国","town_kana":"ヒサクニ","prefecture_code":36},"4304":{"zip_code":"7714304","prefecture":"徳島県","prefecture_kana":"トクシマケン","city":"勝浦郡勝浦町","city_kana":"カツウラグンカツウラチョウ","town":"星谷","town_kana":"ホシタニ","prefecture_code":36},"4307":{"zip_code":"7714307","prefecture":"徳島県","prefecture_kana":"トクシマケン","city":"勝浦郡勝浦町","city_kana":"カツウラグンカツウラチョウ","town":"三渓","town_kana":"ミタニ","prefecture_code":36},"4500":{"zip_code":"7714500","prefecture":"徳島県","prefecture_kana":"トクシマケン","city":"勝浦郡上勝町","city_kana":"カツウラグンカミカツチョウ","town":"","town_kana":"","prefecture_code":36},"4502":{"zip_code":"7714502","prefecture":"徳島県","prefecture_kana":"トクシマケン","city":"勝浦郡上勝町","city_kana":"カツウラグンカミカツチョウ","town":"旭","town_kana":"アサヒ","prefecture_code":36},"4503":{"zip_code":"7714503","prefecture":"徳島県","prefecture_kana":"トクシマケン","city":"勝浦郡上勝町","city_kana":"カツウラグンカミカツチョウ","town":"生実","town_kana":"イクミ","prefecture_code":36},"4501":{"zip_code":"7714501","prefecture":"徳島県","prefecture_kana":"トクシマケン","city":"勝浦郡上勝町","city_kana":"カツウラグンカミカツチョウ","town":"福原","town_kana":"フクハラ","prefecture_code":36},"4504":{"zip_code":"7714504","prefecture":"徳島県","prefecture_kana":"トクシマケン","city":"勝浦郡上勝町","city_kana":"カツウラグンカミカツチョウ","town":"傍示","town_kana":"ホウジ","prefecture_code":36},"4505":{"zip_code":"7714505","prefecture":"徳島県","prefecture_kana":"トクシマケン","city":"勝浦郡上勝町","city_kana":"カツウラグンカミカツチョウ","town":"正木","town_kana":"マサキ","prefecture_code":36},"4100":{"zip_code":"7714100","prefecture":"徳島県","prefecture_kana":"トクシマケン","city":"名東郡佐那河内村","city_kana":"ミョウドウグンサナゴウチソン","town":"","town_kana":"","prefecture_code":36},"4102":{"zip_code":"7714102","prefecture":"徳島県","prefecture_kana":"トクシマケン","city":"名東郡佐那河内村","city_kana":"ミョウドウグンサナゴウチソン","town":"上","town_kana":"カミ","prefecture_code":36},"4101":{"zip_code":"7714101","prefecture":"徳島県","prefecture_kana":"トクシマケン","city":"名東郡佐那河内村","city_kana":"ミョウドウグンサナゴウチソン","town":"下","town_kana":"シモ","prefecture_code":36},"3200":{"zip_code":"7713200","prefecture":"徳島県","prefecture_kana":"トクシマケン","city":"名西郡神山町","city_kana":"ミョウザイグンカミヤマチョウ","town":"","town_kana":"","prefecture_code":36},"3202":{"zip_code":"7713202","prefecture":"徳島県","prefecture_kana":"トクシマケン","city":"名西郡神山町","city_kana":"ミョウザイグンカミヤマチョウ","town":"阿野","town_kana":"アノ","prefecture_code":36},"3201":{"zip_code":"7713201","prefecture":"徳島県","prefecture_kana":"トクシマケン","city":"名西郡神山町","city_kana":"ミョウザイグンカミヤマチョウ","town":"阿野","town_kana":"アノ","prefecture_code":36},"3203":{"zip_code":"7713203","prefecture":"徳島県","prefecture_kana":"トクシマケン","city":"名西郡神山町","city_kana":"ミョウザイグンカミヤマチョウ","town":"鬼籠野","town_kana":"オロノ","prefecture_code":36},"3422":{"zip_code":"7713422","prefecture":"徳島県","prefecture_kana":"トクシマケン","city":"名西郡神山町","city_kana":"ミョウザイグンカミヤマチョウ","town":"上分","town_kana":"カミブン","prefecture_code":36},"3421":{"zip_code":"7713421","prefecture":"徳島県","prefecture_kana":"トクシマケン","city":"名西郡神山町","city_kana":"ミョウザイグンカミヤマチョウ","town":"下分","town_kana":"シモブン","prefecture_code":36},"3311":{"zip_code":"7713311","prefecture":"徳島県","prefecture_kana":"トクシマケン","city":"名西郡神山町","city_kana":"ミョウザイグンカミヤマチョウ","town":"神領","town_kana":"ジンリョウ","prefecture_code":36},"3310":{"zip_code":"7713310","prefecture":"徳島県","prefecture_kana":"トクシマケン","city":"名西郡神山町","city_kana":"ミョウザイグンカミヤマチョウ","town":"神領","town_kana":"ジンリョウ","prefecture_code":36},"5200":{"zip_code":"7715200","prefecture":"徳島県","prefecture_kana":"トクシマケン","city":"那賀郡那賀町","city_kana":"ナカグンナカチョウ","town":"","town_kana":"","prefecture_code":36},"5207":{"zip_code":"7715207","prefecture":"徳島県","prefecture_kana":"トクシマケン","city":"那賀郡那賀町","city_kana":"ナカグンナカチョウ","town":"阿井","town_kana":"アイ","prefecture_code":36},"5403":{"zip_code":"7715403","prefecture":"徳島県","prefecture_kana":"トクシマケン","city":"那賀郡那賀町","city_kana":"ナカグンナカチョウ","town":"鮎川","town_kana":"アイカワ","prefecture_code":36},"5323":{"zip_code":"7715323","prefecture":"徳島県","prefecture_kana":"トクシマケン","city":"那賀郡那賀町","city_kana":"ナカグンナカチョウ","town":"相名","town_kana":"アイナ","prefecture_code":36},"5401":{"zip_code":"7715401","prefecture":"徳島県","prefecture_kana":"トクシマケン","city":"那賀郡那賀町","city_kana":"ナカグンナカチョウ","town":"朝生","town_kana":"アソウ","prefecture_code":36},"6101":{"zip_code":"7716101","prefecture":"徳島県","prefecture_kana":"トクシマケン","city":"那賀郡那賀町","city_kana":"ナカグンナカチョウ","town":"阿津江","town_kana":"アヅエ","prefecture_code":36},"6103":{"zip_code":"7716103","prefecture":"徳島県","prefecture_kana":"トクシマケン","city":"那賀郡那賀町","city_kana":"ナカグンナカチョウ","town":"出羽","town_kana":"イズリハ","prefecture_code":36},"5324":{"zip_code":"7715324","prefecture":"徳島県","prefecture_kana":"トクシマケン","city":"那賀郡那賀町","city_kana":"ナカグンナカチョウ","town":"井ノ谷","town_kana":"イノタニ","prefecture_code":36},"5405":{"zip_code":"7715405","prefecture":"徳島県","prefecture_kana":"トクシマケン","city":"那賀郡那賀町","city_kana":"ナカグンナカチョウ","town":"入野","town_kana":"イリノ","prefecture_code":36},"6118":{"zip_code":"7716118","prefecture":"徳島県","prefecture_kana":"トクシマケン","city":"那賀郡那賀町","city_kana":"ナカグンナカチョウ","town":"岩倉","town_kana":"イワクラ","prefecture_code":36},"5328":{"zip_code":"7715328","prefecture":"徳島県","prefecture_kana":"トクシマケン","city":"那賀郡那賀町","city_kana":"ナカグンナカチョウ","town":"請ノ谷","town_kana":"ウケノタニ","prefecture_code":36},"5404":{"zip_code":"7715404","prefecture":"徳島県","prefecture_kana":"トクシマケン","city":"那賀郡那賀町","city_kana":"ナカグンナカチョウ","town":"牛輪","town_kana":"ウシワ","prefecture_code":36},"5504":{"zip_code":"7715504","prefecture":"徳島県","prefecture_kana":"トクシマケン","city":"那賀郡那賀町","city_kana":"ナカグンナカチョウ","town":"臼ケ谷","town_kana":"ウスガタニ","prefecture_code":36},"5326":{"zip_code":"7715326","prefecture":"徳島県","prefecture_kana":"トクシマケン","city":"那賀郡那賀町","city_kana":"ナカグンナカチョウ","town":"内山","town_kana":"ウチヤマ","prefecture_code":36},"5321":{"zip_code":"7715321","prefecture":"徳島県","prefecture_kana":"トクシマケン","city":"那賀郡那賀町","city_kana":"ナカグンナカチョウ","town":"馬路","town_kana":"ウマジ","prefecture_code":36},"5320":{"zip_code":"7715320","prefecture":"徳島県","prefecture_kana":"トクシマケン","city":"那賀郡那賀町","city_kana":"ナカグンナカチョウ","town":"榎谷","town_kana":"エノキダニ","prefecture_code":36},"5410":{"zip_code":"7715410","prefecture":"徳島県","prefecture_kana":"トクシマケン","city":"那賀郡那賀町","city_kana":"ナカグンナカチョウ","town":"大久保","town_kana":"オオクボ","prefecture_code":36},"5516":{"zip_code":"7715516","prefecture":"徳島県","prefecture_kana":"トクシマケン","city":"那賀郡那賀町","city_kana":"ナカグンナカチョウ","town":"大戸","town_kana":"オオト","prefecture_code":36},"6322":{"zip_code":"7716322","prefecture":"徳島県","prefecture_kana":"トクシマケン","city":"那賀郡那賀町","city_kana":"ナカグンナカチョウ","town":"大殿","town_kana":"オオトノ","prefecture_code":36},"6115":{"zip_code":"7716115","prefecture":"徳島県","prefecture_kana":"トクシマケン","city":"那賀郡那賀町","city_kana":"ナカグンナカチョウ","town":"小畠","town_kana":"オバタケ","prefecture_code":36},"5501":{"zip_code":"7715501","prefecture":"徳島県","prefecture_kana":"トクシマケン","city":"那賀郡那賀町","city_kana":"ナカグンナカチョウ","town":"音谷","town_kana":"オンダニ","prefecture_code":36},"5407":{"zip_code":"7715407","prefecture":"徳島県","prefecture_kana":"トクシマケン","city":"那賀郡那賀町","city_kana":"ナカグンナカチョウ","town":"雄","town_kana":"オンドリ","prefecture_code":36},"6328":{"zip_code":"7716328","prefecture":"徳島県","prefecture_kana":"トクシマケン","city":"那賀郡那賀町","city_kana":"ナカグンナカチョウ","town":"海川","town_kana":"カイカワ","prefecture_code":36},"5413":{"zip_code":"7715413","prefecture":"徳島県","prefecture_kana":"トクシマケン","city":"那賀郡那賀町","city_kana":"ナカグンナカチョウ","town":"蔭谷","town_kana":"カゲダニ","prefecture_code":36},"6107":{"zip_code":"7716107","prefecture":"徳島県","prefecture_kana":"トクシマケン","city":"那賀郡那賀町","city_kana":"ナカグンナカチョウ","town":"掛盤","town_kana":"カケバン","prefecture_code":36},"6117":{"zip_code":"7716117","prefecture":"徳島県","prefecture_kana":"トクシマケン","city":"那賀郡那賀町","city_kana":"ナカグンナカチョウ","town":"川成","town_kana":"カワナリ","prefecture_code":36},"5515":{"zip_code":"7715515","prefecture":"徳島県","prefecture_kana":"トクシマケン","city":"那賀郡那賀町","city_kana":"ナカグンナカチョウ","town":"川俣","town_kana":"カワマタ","prefecture_code":36},"6105":{"zip_code":"7716105","prefecture":"徳島県","prefecture_kana":"トクシマケン","city":"那賀郡那賀町","city_kana":"ナカグンナカチョウ","town":"木頭","town_kana":"キトウ","prefecture_code":36},"6402":{"zip_code":"7716402","prefecture":"徳島県","prefecture_kana":"トクシマケン","city":"那賀郡那賀町","city_kana":"ナカグンナカチョウ","town":"木頭出原","town_kana":"キトウイズハラ","prefecture_code":36},"6511":{"zip_code":"7716511","prefecture":"徳島県","prefecture_kana":"トクシマケン","city":"那賀郡那賀町","city_kana":"ナカグンナカチョウ","town":"木頭折宇","town_kana":"キトウオリウ","prefecture_code":36},"6512":{"zip_code":"7716512","prefecture":"徳島県","prefecture_kana":"トクシマケン","city":"那賀郡那賀町","city_kana":"ナカグンナカチョウ","town":"木頭北川","town_kana":"キトウキタガワ","prefecture_code":36},"6401":{"zip_code":"7716401","prefecture":"徳島県","prefecture_kana":"トクシマケン","city":"那賀郡那賀町","city_kana":"ナカグンナカチョウ","town":"木頭助","town_kana":"キトウスケ","prefecture_code":36},"6405":{"zip_code":"7716405","prefecture":"徳島県","prefecture_kana":"トクシマケン","city":"那賀郡那賀町","city_kana":"ナカグンナカチョウ","town":"木頭西宇","town_kana":"キトウニシウ","prefecture_code":36},"6404":{"zip_code":"7716404","prefecture":"徳島県","prefecture_kana":"トクシマケン","city":"那賀郡那賀町","city_kana":"ナカグンナカチョウ","town":"木頭南宇","town_kana":"キトウミナミウ","prefecture_code":36},"6403":{"zip_code":"7716403","prefecture":"徳島県","prefecture_kana":"トクシマケン","city":"那賀郡那賀町","city_kana":"ナカグンナカチョウ","town":"木頭和無田","town_kana":"キトウワムダ","prefecture_code":36},"6102":{"zip_code":"7716102","prefecture":"徳島県","prefecture_kana":"トクシマケン","city":"那賀郡那賀町","city_kana":"ナカグンナカチョウ","town":"木頭名","town_kana":"キトウミョウ","prefecture_code":36},"6111":{"zip_code":"7716111","prefecture":"徳島県","prefecture_kana":"トクシマケン","city":"那賀郡那賀町","city_kana":"ナカグンナカチョウ","town":"小泉","town_kana":"コイズミ","prefecture_code":36},"6324":{"zip_code":"7716324","prefecture":"徳島県","prefecture_kana":"トクシマケン","city":"那賀郡那賀町","city_kana":"ナカグンナカチョウ","town":"御所谷","town_kana":"ゴショダニ","prefecture_code":36},"5209":{"zip_code":"7715209","prefecture":"徳島県","prefecture_kana":"トクシマケン","city":"那賀郡那賀町","city_kana":"ナカグンナカチョウ","town":"小仁宇","town_kana":"コニウ","prefecture_code":36},"5512":{"zip_code":"7715512","prefecture":"徳島県","prefecture_kana":"トクシマケン","city":"那賀郡那賀町","city_kana":"ナカグンナカチョウ","town":"小計","town_kana":"コバカリ","prefecture_code":36},"5503":{"zip_code":"7715503","prefecture":"徳島県","prefecture_kana":"トクシマケン","city":"那賀郡那賀町","city_kana":"ナカグンナカチョウ","town":"小浜","town_kana":"コハマ","prefecture_code":36},"6106":{"zip_code":"7716106","prefecture":"徳島県","prefecture_kana":"トクシマケン","city":"那賀郡那賀町","city_kana":"ナカグンナカチョウ","town":"坂州","town_kana":"サカシュウ","prefecture_code":36},"5502":{"zip_code":"7715502","prefecture":"徳島県","prefecture_kana":"トクシマケン","city":"那賀郡那賀町","city_kana":"ナカグンナカチョウ","town":"桜谷","town_kana":"サクラダニ","prefecture_code":36},"6114":{"zip_code":"7716114","prefecture":"徳島県","prefecture_kana":"トクシマケン","city":"那賀郡那賀町","city_kana":"ナカグンナカチョウ","town":"沢谷","town_kana":"サワダニ","prefecture_code":36},"6325":{"zip_code":"7716325","prefecture":"徳島県","prefecture_kana":"トクシマケン","city":"那賀郡那賀町","city_kana":"ナカグンナカチョウ","town":"丈ケ谷","town_kana":"ジョウガタニ","prefecture_code":36},"5507":{"zip_code":"7715507","prefecture":"徳島県","prefecture_kana":"トクシマケン","city":"那賀郡那賀町","city_kana":"ナカグンナカチョウ","town":"菖蒲","town_kana":"ショウブ","prefecture_code":36},"6323":{"zip_code":"7716323","prefecture":"徳島県","prefecture_kana":"トクシマケン","city":"那賀郡那賀町","city_kana":"ナカグンナカチョウ","town":"白石","town_kana":"シライシ","prefecture_code":36},"6112":{"zip_code":"7716112","prefecture":"徳島県","prefecture_kana":"トクシマケン","city":"那賀郡那賀町","city_kana":"ナカグンナカチョウ","town":"高野","town_kana":"タカノ","prefecture_code":36},"5329":{"zip_code":"7715329","prefecture":"徳島県","prefecture_kana":"トクシマケン","city":"那賀郡那賀町","city_kana":"ナカグンナカチョウ","town":"竹ケ谷","town_kana":"タケガタニ","prefecture_code":36},"5322":{"zip_code":"7715322","prefecture":"徳島県","prefecture_kana":"トクシマケン","city":"那賀郡那賀町","city_kana":"ナカグンナカチョウ","town":"谷内","town_kana":"タニウチ","prefecture_code":36},"6113":{"zip_code":"7716113","prefecture":"徳島県","prefecture_kana":"トクシマケン","city":"那賀郡那賀町","city_kana":"ナカグンナカチョウ","town":"寺内","town_kana":"テラウチ","prefecture_code":36},"6104":{"zip_code":"7716104","prefecture":"徳島県","prefecture_kana":"トクシマケン","city":"那賀郡那賀町","city_kana":"ナカグンナカチョウ","town":"当山","town_kana":"トウヤマ","prefecture_code":36},"5202":{"zip_code":"7715202","prefecture":"徳島県","prefecture_kana":"トクシマケン","city":"那賀郡那賀町","city_kana":"ナカグンナカチョウ","town":"土佐","town_kana":"トサ","prefecture_code":36},"5505":{"zip_code":"7715505","prefecture":"徳島県","prefecture_kana":"トクシマケン","city":"那賀郡那賀町","city_kana":"ナカグンナカチョウ","town":"長安","town_kana":"ナガヤス","prefecture_code":36},"5204":{"zip_code":"7715204","prefecture":"徳島県","prefecture_kana":"トクシマケン","city":"那賀郡那賀町","city_kana":"ナカグンナカチョウ","town":"中山","town_kana":"ナカヤマ","prefecture_code":36},"6327":{"zip_code":"7716327","prefecture":"徳島県","prefecture_kana":"トクシマケン","city":"那賀郡那賀町","city_kana":"ナカグンナカチョウ","town":"成瀬","town_kana":"ナルセ","prefecture_code":36},"5208":{"zip_code":"7715208","prefecture":"徳島県","prefecture_kana":"トクシマケン","city":"那賀郡那賀町","city_kana":"ナカグンナカチョウ","town":"仁宇","town_kana":"ニウ","prefecture_code":36},"5327":{"zip_code":"7715327","prefecture":"徳島県","prefecture_kana":"トクシマケン","city":"那賀郡那賀町","city_kana":"ナカグンナカチョウ","town":"西納","town_kana":"ニシノ","prefecture_code":36},"5406":{"zip_code":"7715406","prefecture":"徳島県","prefecture_kana":"トクシマケン","city":"那賀郡那賀町","city_kana":"ナカグンナカチョウ","town":"延野","town_kana":"ノブノ","prefecture_code":36},"5518":{"zip_code":"7715518","prefecture":"徳島県","prefecture_kana":"トクシマケン","city":"那賀郡那賀町","city_kana":"ナカグンナカチョウ","town":"拝宮","town_kana":"ハイギュウ","prefecture_code":36},"5409":{"zip_code":"7715409","prefecture":"徳島県","prefecture_kana":"トクシマケン","city":"那賀郡那賀町","city_kana":"ナカグンナカチョウ","town":"鉢","town_kana":"ハチ","prefecture_code":36},"5532":{"zip_code":"7715532","prefecture":"徳島県","prefecture_kana":"トクシマケン","city":"那賀郡那賀町","city_kana":"ナカグンナカチョウ","town":"花瀬","town_kana":"ハナゼ","prefecture_code":36},"5531":{"zip_code":"7715531","prefecture":"徳島県","prefecture_kana":"トクシマケン","city":"那賀郡那賀町","city_kana":"ナカグンナカチョウ","town":"日浦","town_kana":"ヒウラ","prefecture_code":36},"5508":{"zip_code":"7715508","prefecture":"徳島県","prefecture_kana":"トクシマケン","city":"那賀郡那賀町","city_kana":"ナカグンナカチョウ","town":"東尾","town_kana":"ヒガシオ","prefecture_code":36},"5506":{"zip_code":"7715506","prefecture":"徳島県","prefecture_kana":"トクシマケン","city":"那賀郡那賀町","city_kana":"ナカグンナカチョウ","town":"桧曽根","town_kana":"ヒソネ","prefecture_code":36},"5517":{"zip_code":"7715517","prefecture":"徳島県","prefecture_kana":"トクシマケン","city":"那賀郡那賀町","city_kana":"ナカグンナカチョウ","town":"日真","town_kana":"ヒマ","prefecture_code":36},"6321":{"zip_code":"7716321","prefecture":"徳島県","prefecture_kana":"トクシマケン","city":"那賀郡那賀町","city_kana":"ナカグンナカチョウ","town":"平谷","town_kana":"ヒラダニ","prefecture_code":36},"5325":{"zip_code":"7715325","prefecture":"徳島県","prefecture_kana":"トクシマケン","city":"那賀郡那賀町","city_kana":"ナカグンナカチョウ","town":"平野","town_kana":"ヒラノ","prefecture_code":36},"5514":{"zip_code":"7715514","prefecture":"徳島県","prefecture_kana":"トクシマケン","city":"那賀郡那賀町","city_kana":"ナカグンナカチョウ","town":"深森","town_kana":"フカモリ","prefecture_code":36},"6326":{"zip_code":"7716326","prefecture":"徳島県","prefecture_kana":"トクシマケン","city":"那賀郡那賀町","city_kana":"ナカグンナカチョウ","town":"府殿","town_kana":"フドノ","prefecture_code":36},"5513":{"zip_code":"7715513","prefecture":"徳島県","prefecture_kana":"トクシマケン","city":"那賀郡那賀町","city_kana":"ナカグンナカチョウ","town":"古屋","town_kana":"フルヤ","prefecture_code":36},"5412":{"zip_code":"7715412","prefecture":"徳島県","prefecture_kana":"トクシマケン","city":"那賀郡那賀町","city_kana":"ナカグンナカチョウ","town":"朴野","town_kana":"ホオノ","prefecture_code":36},"5511":{"zip_code":"7715511","prefecture":"徳島県","prefecture_kana":"トクシマケン","city":"那賀郡那賀町","city_kana":"ナカグンナカチョウ","town":"水崎","town_kana":"ミサキ","prefecture_code":36},"5206":{"zip_code":"7715206","prefecture":"徳島県","prefecture_kana":"トクシマケン","city":"那賀郡那賀町","city_kana":"ナカグンナカチョウ","town":"百合","town_kana":"モマエ","prefecture_code":36},"5205":{"zip_code":"7715205","prefecture":"徳島県","prefecture_kana":"トクシマケン","city":"那賀郡那賀町","city_kana":"ナカグンナカチョウ","town":"百合谷","town_kana":"モマエダニ","prefecture_code":36},"5402":{"zip_code":"7715402","prefecture":"徳島県","prefecture_kana":"トクシマケン","city":"那賀郡那賀町","city_kana":"ナカグンナカチョウ","town":"簗ノ上","town_kana":"ヤナノウエ","prefecture_code":36},"5411":{"zip_code":"7715411","prefecture":"徳島県","prefecture_kana":"トクシマケン","city":"那賀郡那賀町","city_kana":"ナカグンナカチョウ","town":"横石","town_kana":"ヨコイシ","prefecture_code":36},"6116":{"zip_code":"7716116","prefecture":"徳島県","prefecture_kana":"トクシマケン","city":"那賀郡那賀町","city_kana":"ナカグンナカチョウ","town":"横谷","town_kana":"ヨコダニ","prefecture_code":36},"5408":{"zip_code":"7715408","prefecture":"徳島県","prefecture_kana":"トクシマケン","city":"那賀郡那賀町","city_kana":"ナカグンナカチョウ","town":"吉野","town_kana":"ヨシノ","prefecture_code":36},"5201":{"zip_code":"7715201","prefecture":"徳島県","prefecture_kana":"トクシマケン","city":"那賀郡那賀町","city_kana":"ナカグンナカチョウ","town":"和食","town_kana":"ワジキ","prefecture_code":36},"5203":{"zip_code":"7715203","prefecture":"徳島県","prefecture_kana":"トクシマケン","city":"那賀郡那賀町","city_kana":"ナカグンナカチョウ","town":"和食郷","town_kana":"ワジキゴウ","prefecture_code":36},"0200":{"zip_code":"7710200","prefecture":"徳島県","prefecture_kana":"トクシマケン","city":"板野郡北島町","city_kana":"イタノグンキタジマチョウ","town":"","town_kana":"","prefecture_code":36},"0219":{"zip_code":"7710219","prefecture":"徳島県","prefecture_kana":"トクシマケン","city":"板野郡松茂町","city_kana":"イタノグンマツシゲチョウ","town":"笹木野","town_kana":"ササギノ","prefecture_code":36},"0218":{"zip_code":"7710218","prefecture":"徳島県","prefecture_kana":"トクシマケン","city":"板野郡松茂町","city_kana":"イタノグンマツシゲチョウ","town":"住吉","town_kana":"スミヨシ","prefecture_code":36},"0215":{"zip_code":"7710215","prefecture":"徳島県","prefecture_kana":"トクシマケン","city":"板野郡松茂町","city_kana":"イタノグンマツシゲチョウ","town":"豊岡","town_kana":"トヨオカ","prefecture_code":36},"0217":{"zip_code":"7710217","prefecture":"徳島県","prefecture_kana":"トクシマケン","city":"板野郡松茂町","city_kana":"イタノグンマツシゲチョウ","town":"豊中","town_kana":"トヨナカ","prefecture_code":36},"0213":{"zip_code":"7710213","prefecture":"徳島県","prefecture_kana":"トクシマケン","city":"板野郡松茂町","city_kana":"イタノグンマツシゲチョウ","town":"豊久","town_kana":"トヨヒサ","prefecture_code":36},"0212":{"zip_code":"7710212","prefecture":"徳島県","prefecture_kana":"トクシマケン","city":"板野郡松茂町","city_kana":"イタノグンマツシゲチョウ","town":"中喜来","town_kana":"ナカギライ","prefecture_code":36},"0211":{"zip_code":"7710211","prefecture":"徳島県","prefecture_kana":"トクシマケン","city":"板野郡松茂町","city_kana":"イタノグンマツシゲチョウ","town":"長岸","town_kana":"ナガギシ","prefecture_code":36},"0216":{"zip_code":"7710216","prefecture":"徳島県","prefecture_kana":"トクシマケン","city":"板野郡松茂町","city_kana":"イタノグンマツシゲチョウ","town":"長原","town_kana":"ナガハラ","prefecture_code":36},"0220":{"zip_code":"7710220","prefecture":"徳島県","prefecture_kana":"トクシマケン","city":"板野郡松茂町","city_kana":"イタノグンマツシゲチョウ","town":"広島","town_kana":"ヒロシマ","prefecture_code":36},"0214":{"zip_code":"7710214","prefecture":"徳島県","prefecture_kana":"トクシマケン","city":"板野郡松茂町","city_kana":"イタノグンマツシゲチョウ","town":"満穂","town_kana":"ミツホ","prefecture_code":36},"0205":{"zip_code":"7710205","prefecture":"徳島県","prefecture_kana":"トクシマケン","city":"板野郡北島町","city_kana":"イタノグンキタジマチョウ","town":"江尻","town_kana":"エジリ","prefecture_code":36},"0201":{"zip_code":"7710201","prefecture":"徳島県","prefecture_kana":"トクシマケン","city":"板野郡北島町","city_kana":"イタノグンキタジマチョウ","town":"北村","town_kana":"キタムラ","prefecture_code":36},"0207":{"zip_code":"7710207","prefecture":"徳島県","prefecture_kana":"トクシマケン","city":"板野郡北島町","city_kana":"イタノグンキタジマチョウ","town":"新喜来","town_kana":"シンキライ","prefecture_code":36},"0204":{"zip_code":"7710204","prefecture":"徳島県","prefecture_kana":"トクシマケン","city":"板野郡北島町","city_kana":"イタノグンキタジマチョウ","town":"鯛浜","town_kana":"タイノハマ","prefecture_code":36},"0206":{"zip_code":"7710206","prefecture":"徳島県","prefecture_kana":"トクシマケン","city":"板野郡北島町","city_kana":"イタノグンキタジマチョウ","town":"高房","town_kana":"タカボウ","prefecture_code":36},"0202":{"zip_code":"7710202","prefecture":"徳島県","prefecture_kana":"トクシマケン","city":"板野郡北島町","city_kana":"イタノグンキタジマチョウ","town":"太郎八須","town_kana":"タロウハチズ","prefecture_code":36},"0203":{"zip_code":"7710203","prefecture":"徳島県","prefecture_kana":"トクシマケン","city":"板野郡北島町","city_kana":"イタノグンキタジマチョウ","town":"中村","town_kana":"ナカムラ","prefecture_code":36},"1200":{"zip_code":"7711200","prefecture":"徳島県","prefecture_kana":"トクシマケン","city":"板野郡藍住町","city_kana":"イタノグンアイズミチョウ","town":"","town_kana":"","prefecture_code":36},"1202":{"zip_code":"7711202","prefecture":"徳島県","prefecture_kana":"トクシマケン","city":"板野郡藍住町","city_kana":"イタノグンアイズミチョウ","town":"奥野","town_kana":"オクノ","prefecture_code":36},"1203":{"zip_code":"7711203","prefecture":"徳島県","prefecture_kana":"トクシマケン","city":"板野郡藍住町","city_kana":"イタノグンアイズミチョウ","town":"奥野","town_kana":"オクノ","prefecture_code":36},"1201":{"zip_code":"7711201","prefecture":"徳島県","prefecture_kana":"トクシマケン","city":"板野郡藍住町","city_kana":"イタノグンアイズミチョウ","town":"奥野","town_kana":"オクノ","prefecture_code":36},"1240":{"zip_code":"7711240","prefecture":"徳島県","prefecture_kana":"トクシマケン","city":"板野郡藍住町","city_kana":"イタノグンアイズミチョウ","town":"乙瀬","town_kana":"オトゼ","prefecture_code":36},"1262":{"zip_code":"7711262","prefecture":"徳島県","prefecture_kana":"トクシマケン","city":"板野郡藍住町","city_kana":"イタノグンアイズミチョウ","town":"笠木","town_kana":"カサギ","prefecture_code":36},"1261":{"zip_code":"7711261","prefecture":"徳島県","prefecture_kana":"トクシマケン","city":"板野郡藍住町","city_kana":"イタノグンアイズミチョウ","town":"笠木","town_kana":"カサギ","prefecture_code":36},"1260":{"zip_code":"7711260","prefecture":"徳島県","prefecture_kana":"トクシマケン","city":"板野郡藍住町","city_kana":"イタノグンアイズミチョウ","town":"笠木","town_kana":"カサギ","prefecture_code":36},"1271":{"zip_code":"7711271","prefecture":"徳島県","prefecture_kana":"トクシマケン","city":"板野郡藍住町","city_kana":"イタノグンアイズミチョウ","town":"勝瑞","town_kana":"ショウズイ","prefecture_code":36},"1273":{"zip_code":"7711273","prefecture":"徳島県","prefecture_kana":"トクシマケン","city":"板野郡藍住町","city_kana":"イタノグンアイズミチョウ","town":"勝瑞","town_kana":"ショウズイ","prefecture_code":36},"1272":{"zip_code":"7711272","prefecture":"徳島県","prefecture_kana":"トクシマケン","city":"板野郡藍住町","city_kana":"イタノグンアイズミチョウ","town":"勝瑞","town_kana":"ショウズイ","prefecture_code":36},"1270":{"zip_code":"7711270","prefecture":"徳島県","prefecture_kana":"トクシマケン","city":"板野郡藍住町","city_kana":"イタノグンアイズミチョウ","town":"勝瑞","town_kana":"ショウズイ","prefecture_code":36},"1267":{"zip_code":"7711267","prefecture":"徳島県","prefecture_kana":"トクシマケン","city":"板野郡藍住町","city_kana":"イタノグンアイズミチョウ","town":"住吉","town_kana":"スミヨシ","prefecture_code":36},"1265":{"zip_code":"7711265","prefecture":"徳島県","prefecture_kana":"トクシマケン","city":"板野郡藍住町","city_kana":"イタノグンアイズミチョウ","town":"住吉","town_kana":"スミヨシ","prefecture_code":36},"1266":{"zip_code":"7711266","prefecture":"徳島県","prefecture_kana":"トクシマケン","city":"板野郡藍住町","city_kana":"イタノグンアイズミチョウ","town":"住吉","town_kana":"スミヨシ","prefecture_code":36},"1264":{"zip_code":"7711264","prefecture":"徳島県","prefecture_kana":"トクシマケン","city":"板野郡藍住町","city_kana":"イタノグンアイズミチョウ","town":"住吉","town_kana":"スミヨシ","prefecture_code":36},"1212":{"zip_code":"7711212","prefecture":"徳島県","prefecture_kana":"トクシマケン","city":"板野郡藍住町","city_kana":"イタノグンアイズミチョウ","town":"徳命","town_kana":"トクメイ","prefecture_code":36},"1211":{"zip_code":"7711211","prefecture":"徳島県","prefecture_kana":"トクシマケン","city":"板野郡藍住町","city_kana":"イタノグンアイズミチョウ","town":"徳命","town_kana":"トクメイ","prefecture_code":36},"1210":{"zip_code":"7711210","prefecture":"徳島県","prefecture_kana":"トクシマケン","city":"板野郡藍住町","city_kana":"イタノグンアイズミチョウ","town":"徳命","town_kana":"トクメイ","prefecture_code":36},"1232":{"zip_code":"7711232","prefecture":"徳島県","prefecture_kana":"トクシマケン","city":"板野郡藍住町","city_kana":"イタノグンアイズミチョウ","town":"富吉","town_kana":"トミヨシ","prefecture_code":36},"1231":{"zip_code":"7711231","prefecture":"徳島県","prefecture_kana":"トクシマケン","city":"板野郡藍住町","city_kana":"イタノグンアイズミチョウ","town":"富吉","town_kana":"トミヨシ","prefecture_code":36},"1230":{"zip_code":"7711230","prefecture":"徳島県","prefecture_kana":"トクシマケン","city":"板野郡藍住町","city_kana":"イタノグンアイズミチョウ","town":"富吉","town_kana":"トミヨシ","prefecture_code":36},"1224":{"zip_code":"7711224","prefecture":"徳島県","prefecture_kana":"トクシマケン","city":"板野郡藍住町","city_kana":"イタノグンアイズミチョウ","town":"東中富","town_kana":"ヒガシナカトミ","prefecture_code":36},"1222":{"zip_code":"7711222","prefecture":"徳島県","prefecture_kana":"トクシマケン","city":"板野郡藍住町","city_kana":"イタノグンアイズミチョウ","town":"東中富","town_kana":"ヒガシナカトミ","prefecture_code":36},"1223":{"zip_code":"7711223","prefecture":"徳島県","prefecture_kana":"トクシマケン","city":"板野郡藍住町","city_kana":"イタノグンアイズミチョウ","town":"東中富","town_kana":"ヒガシナカトミ","prefecture_code":36},"1221":{"zip_code":"7711221","prefecture":"徳島県","prefecture_kana":"トクシマケン","city":"板野郡藍住町","city_kana":"イタノグンアイズミチョウ","town":"東中富","town_kana":"ヒガシナカトミ","prefecture_code":36},"1220":{"zip_code":"7711220","prefecture":"徳島県","prefecture_kana":"トクシマケン","city":"板野郡藍住町","city_kana":"イタノグンアイズミチョウ","town":"東中富","town_kana":"ヒガシナカトミ","prefecture_code":36},"1253":{"zip_code":"7711253","prefecture":"徳島県","prefecture_kana":"トクシマケン","city":"板野郡藍住町","city_kana":"イタノグンアイズミチョウ","town":"矢上","town_kana":"ヤカミ","prefecture_code":36},"1252":{"zip_code":"7711252","prefecture":"徳島県","prefecture_kana":"トクシマケン","city":"板野郡藍住町","city_kana":"イタノグンアイズミチョウ","town":"矢上","town_kana":"ヤカミ","prefecture_code":36},"1251":{"zip_code":"7711251","prefecture":"徳島県","prefecture_kana":"トクシマケン","city":"板野郡藍住町","city_kana":"イタノグンアイズミチョウ","town":"矢上","town_kana":"ヤカミ","prefecture_code":36},"1250":{"zip_code":"7711250","prefecture":"徳島県","prefecture_kana":"トクシマケン","city":"板野郡藍住町","city_kana":"イタノグンアイズミチョウ","town":"矢上","town_kana":"ヤカミ","prefecture_code":36},"1300":{"zip_code":"7711300","prefecture":"徳島県","prefecture_kana":"トクシマケン","city":"板野郡上板町","city_kana":"イタノグンカミイタチョウ","town":"","town_kana":"","prefecture_code":36},"1310":{"zip_code":"7711310","prefecture":"徳島県","prefecture_kana":"トクシマケン","city":"板野郡上板町","city_kana":"イタノグンカミイタチョウ","town":"泉谷","town_kana":"イズミダニ","prefecture_code":36},"1301":{"zip_code":"7711301","prefecture":"徳島県","prefecture_kana":"トクシマケン","city":"板野郡上板町","city_kana":"イタノグンカミイタチョウ","town":"鍛冶屋原","town_kana":"カジヤバラ","prefecture_code":36},"1345":{"zip_code":"7711345","prefecture":"徳島県","prefecture_kana":"トクシマケン","city":"板野郡上板町","city_kana":"イタノグンカミイタチョウ","town":"上六條","town_kana":"カミロクジョウ","prefecture_code":36},"1320":{"zip_code":"7711320","prefecture":"徳島県","prefecture_kana":"トクシマケン","city":"板野郡上板町","city_kana":"イタノグンカミイタチョウ","town":"神宅","town_kana":"カンヤケ","prefecture_code":36},"1342":{"zip_code":"7711342","prefecture":"徳島県","prefecture_kana":"トクシマケン","city":"板野郡上板町","city_kana":"イタノグンカミイタチョウ","town":"佐藤塚","town_kana":"サトウヅカ","prefecture_code":36},"1343":{"zip_code":"7711343","prefecture":"徳島県","prefecture_kana":"トクシマケン","city":"板野郡上板町","city_kana":"イタノグンカミイタチョウ","town":"椎本","town_kana":"シイノモト","prefecture_code":36},"1302":{"zip_code":"7711302","prefecture":"徳島県","prefecture_kana":"トクシマケン","city":"板野郡上板町","city_kana":"イタノグンカミイタチョウ","town":"七條","town_kana":"シチジョウ","prefecture_code":36},"1344":{"zip_code":"7711344","prefecture":"徳島県","prefecture_kana":"トクシマケン","city":"板野郡上板町","city_kana":"イタノグンカミイタチョウ","town":"下六條","town_kana":"シモロクジョウ","prefecture_code":36},"1350":{"zip_code":"7711350","prefecture":"徳島県","prefecture_kana":"トクシマケン","city":"板野郡上板町","city_kana":"イタノグンカミイタチョウ","town":"瀬部","town_kana":"セベ","prefecture_code":36},"1341":{"zip_code":"7711341","prefecture":"徳島県","prefecture_kana":"トクシマケン","city":"板野郡上板町","city_kana":"イタノグンカミイタチョウ","town":"第十新田","town_kana":"ダイジュウシンデン","prefecture_code":36},"1346":{"zip_code":"7711346","prefecture":"徳島県","prefecture_kana":"トクシマケン","city":"板野郡上板町","city_kana":"イタノグンカミイタチョウ","town":"高磯","town_kana":"タカイソ","prefecture_code":36},"1347":{"zip_code":"7711347","prefecture":"徳島県","prefecture_kana":"トクシマケン","city":"板野郡上板町","city_kana":"イタノグンカミイタチョウ","town":"高瀬","town_kana":"タカセ","prefecture_code":36},"1330":{"zip_code":"7711330","prefecture":"徳島県","prefecture_kana":"トクシマケン","city":"板野郡上板町","city_kana":"イタノグンカミイタチョウ","town":"西分","town_kana":"ニシブン","prefecture_code":36},"1311":{"zip_code":"7711311","prefecture":"徳島県","prefecture_kana":"トクシマケン","city":"板野郡上板町","city_kana":"イタノグンカミイタチョウ","town":"引野","town_kana":"ヒキノ","prefecture_code":36},"2502":{"zip_code":"7712502","prefecture":"徳島県","prefecture_kana":"トクシマケン","city":"三好郡東みよし町","city_kana":"ミヨシグンヒガシミヨシチョウ","town":"足代","town_kana":"アシロ","prefecture_code":36},"2503":{"zip_code":"7712503","prefecture":"徳島県","prefecture_kana":"トクシマケン","city":"三好郡東みよし町","city_kana":"ミヨシグンヒガシミヨシチョウ","town":"東山","town_kana":"ヒガシヤマ","prefecture_code":36},"2501":{"zip_code":"7712501","prefecture":"徳島県","prefecture_kana":"トクシマケン","city":"三好郡東みよし町","city_kana":"ミヨシグンヒガシミヨシチョウ","town":"昼間","town_kana":"ヒルマ","prefecture_code":36}}