{"0005":{"zip_code":"7770005","prefecture":"徳島県","prefecture_kana":"トクシマケン","city":"美馬市","city_kana":"ミマシ","town":"穴吹町穴吹","town_kana":"アナブキチョウアナブキ","prefecture_code":36},"0006":{"zip_code":"7770006","prefecture":"徳島県","prefecture_kana":"トクシマケン","city":"美馬市","city_kana":"ミマシ","town":"穴吹町口山","town_kana":"アナブキチョウクチヤマ","prefecture_code":36},"0007":{"zip_code":"7770007","prefecture":"徳島県","prefecture_kana":"トクシマケン","city":"美馬市","city_kana":"ミマシ","town":"穴吹町古宮","town_kana":"アナブキチョウフルミヤ","prefecture_code":36},"0004":{"zip_code":"7770004","prefecture":"徳島県","prefecture_kana":"トクシマケン","city":"美馬市","city_kana":"ミマシ","town":"穴吹町三島","town_kana":"アナブキチョウミシマ","prefecture_code":36},"0001":{"zip_code":"7770001","prefecture":"徳島県","prefecture_kana":"トクシマケン","city":"美馬市","city_kana":"ミマシ","town":"穴吹町三島","town_kana":"アナブキチョウミシマ","prefecture_code":36},"0002":{"zip_code":"7770002","prefecture":"徳島県","prefecture_kana":"トクシマケン","city":"美馬市","city_kana":"ミマシ","town":"穴吹町三島","town_kana":"アナブキチョウミシマ","prefecture_code":36},"0003":{"zip_code":"7770003","prefecture":"徳島県","prefecture_kana":"トクシマケン","city":"美馬市","city_kana":"ミマシ","town":"穴吹町三島","town_kana":"アナブキチョウミシマ","prefecture_code":36},"0302":{"zip_code":"7770302","prefecture":"徳島県","prefecture_kana":"トクシマケン","city":"美馬市","city_kana":"ミマシ","town":"木屋平","town_kana":"コヤダイラ","prefecture_code":36},"0301":{"zip_code":"7770301","prefecture":"徳島県","prefecture_kana":"トクシマケン","city":"美馬市","city_kana":"ミマシ","town":"南張、向樫原）","town_kana":"ミナミバリ、ムコウカシワラ)","prefecture_code":36},"0303":{"zip_code":"7770303","prefecture":"徳島県","prefecture_kana":"トクシマケン","city":"美馬市","city_kana":"ミマシ","town":"木屋平","town_kana":"コヤダイラ","prefecture_code":36}}