{"0000":{"zip_code":"7780000","prefecture":"徳島県","prefecture_kana":"トクシマケン","city":"三好市","city_kana":"ミヨシシ","town":"","town_kana":"","prefecture_code":36},"0012":{"zip_code":"7780012","prefecture":"徳島県","prefecture_kana":"トクシマケン","city":"三好市","city_kana":"ミヨシシ","town":"池田町イケミナミ","town_kana":"イケダチョウイケミナミ","prefecture_code":36},"0014":{"zip_code":"7780014","prefecture":"徳島県","prefecture_kana":"トクシマケン","city":"三好市","city_kana":"ミヨシシ","town":"池田町イタノ","town_kana":"イケダチョウイタノ","prefecture_code":36},"0001":{"zip_code":"7780001","prefecture":"徳島県","prefecture_kana":"トクシマケン","city":"三好市","city_kana":"ミヨシシ","town":"池田町ウエノ","town_kana":"イケダチョウウエノ","prefecture_code":36},"0010":{"zip_code":"7780010","prefecture":"徳島県","prefecture_kana":"トクシマケン","city":"三好市","city_kana":"ミヨシシ","town":"池田町ウエマツ","town_kana":"イケダチョウウエマツ","prefecture_code":36},"5252":{"zip_code":"7785252","prefecture":"徳島県","prefecture_kana":"トクシマケン","city":"三好市","city_kana":"ミヨシシ","town":"池田町馬路","town_kana":"イケダチョウウマジ","prefecture_code":36},"0008":{"zip_code":"7780008","prefecture":"徳島県","prefecture_kana":"トクシマケン","city":"三好市","city_kana":"ミヨシシ","town":"池田町クヤウジ","town_kana":"イケダチョウクヤウジ","prefecture_code":36},"5253":{"zip_code":"7785253","prefecture":"徳島県","prefecture_kana":"トクシマケン","city":"三好市","city_kana":"ミヨシシ","town":"池田町佐野","town_kana":"イケダチョウサノ","prefecture_code":36},"0003":{"zip_code":"7780003","prefecture":"徳島県","prefecture_kana":"トクシマケン","city":"三好市","city_kana":"ミヨシシ","town":"池田町サラダ","town_kana":"イケダチョウサラダ","prefecture_code":36},"0005":{"zip_code":"7780005","prefecture":"徳島県","prefecture_kana":"トクシマケン","city":"三好市","city_kana":"ミヨシシ","town":"池田町シマ","town_kana":"イケダチョウシマ","prefecture_code":36},"0020":{"zip_code":"7780020","prefecture":"徳島県","prefecture_kana":"トクシマケン","city":"三好市","city_kana":"ミヨシシ","town":"池田町州津","town_kana":"イケダチョウシュウヅ","prefecture_code":36},"0004":{"zip_code":"7780004","prefecture":"徳島県","prefecture_kana":"トクシマケン","city":"三好市","city_kana":"ミヨシシ","town":"池田町シンマチ","town_kana":"イケダチョウシンマチ","prefecture_code":36},"0013":{"zip_code":"7780013","prefecture":"徳島県","prefecture_kana":"トクシマケン","city":"三好市","city_kana":"ミヨシシ","town":"池田町シンヤマ","town_kana":"イケダチョウシンヤマ","prefecture_code":36},"0006":{"zip_code":"7780006","prefecture":"徳島県","prefecture_kana":"トクシマケン","city":"三好市","city_kana":"ミヨシシ","town":"池田町トウゲ","town_kana":"イケダチョウトウゲ","prefecture_code":36},"0031":{"zip_code":"7780031","prefecture":"徳島県","prefecture_kana":"トクシマケン","city":"三好市","city_kana":"ミヨシシ","town":"池田町西山","town_kana":"イケダチョウニシヤマ","prefecture_code":36},"0032":{"zip_code":"7780032","prefecture":"徳島県","prefecture_kana":"トクシマケン","city":"三好市","city_kana":"ミヨシシ","town":"池田町西山","town_kana":"イケダチョウニシヤマ","prefecture_code":36},"0040":{"zip_code":"7780040","prefecture":"徳島県","prefecture_kana":"トクシマケン","city":"三好市","city_kana":"ミヨシシ","town":"池田町西山","town_kana":"イケダチョウニシヤマ","prefecture_code":36},"5251":{"zip_code":"7785251","prefecture":"徳島県","prefecture_kana":"トクシマケン","city":"三好市","city_kana":"ミヨシシ","town":"池田町白地","town_kana":"イケダチョウハクチ","prefecture_code":36},"0011":{"zip_code":"7780011","prefecture":"徳島県","prefecture_kana":"トクシマケン","city":"三好市","city_kana":"ミヨシシ","town":"池田町ハヤシ","town_kana":"イケダチョウハヤシ","prefecture_code":36},"0002":{"zip_code":"7780002","prefecture":"徳島県","prefecture_kana":"トクシマケン","city":"三好市","city_kana":"ミヨシシ","town":"池田町マチ","town_kana":"イケダチョウマチ","prefecture_code":36},"0165":{"zip_code":"7780165","prefecture":"徳島県","prefecture_kana":"トクシマケン","city":"三好市","city_kana":"ミヨシシ","town":"池田町松尾","town_kana":"イケダチョウマツオ","prefecture_code":36},"0009":{"zip_code":"7780009","prefecture":"徳島県","prefecture_kana":"トクシマケン","city":"三好市","city_kana":"ミヨシシ","town":"池田町ヤサン","town_kana":"イケダチョウヤサン","prefecture_code":36},"0007":{"zip_code":"7780007","prefecture":"徳島県","prefecture_kana":"トクシマケン","city":"三好市","city_kana":"ミヨシシ","town":"池田町ヤマダ","town_kana":"イケダチョウヤマダ","prefecture_code":36},"0104":{"zip_code":"7780104","prefecture":"徳島県","prefecture_kana":"トクシマケン","city":"三好市","city_kana":"ミヨシシ","town":"西祖谷山村南山","town_kana":"ニシイヤヤマムラミナミヤマ","prefecture_code":36},"0103":{"zip_code":"7780103","prefecture":"徳島県","prefecture_kana":"トクシマケン","city":"三好市","city_kana":"ミヨシシ","town":"西祖谷山村有瀬","town_kana":"ニシイヤヤマムラアルセ","prefecture_code":36},"0101":{"zip_code":"7780101","prefecture":"徳島県","prefecture_kana":"トクシマケン","city":"三好市","city_kana":"ミヨシシ","town":"西祖谷山村冥地","town_kana":"ニシイヤヤマムラミョウジ","prefecture_code":36},"0102":{"zip_code":"7780102","prefecture":"徳島県","prefecture_kana":"トクシマケン","city":"三好市","city_kana":"ミヨシシ","town":"西祖谷山村中尾","town_kana":"ニシイヤヤマムラナカオ","prefecture_code":36},"0105":{"zip_code":"7780105","prefecture":"徳島県","prefecture_kana":"トクシマケン","city":"三好市","city_kana":"ミヨシシ","town":"西祖谷山村東西岡","town_kana":"ニシイヤヤマムラヒガシニシオカ","prefecture_code":36},"0205":{"zip_code":"7780205","prefecture":"徳島県","prefecture_kana":"トクシマケン","city":"三好市","city_kana":"ミヨシシ","town":"東祖谷元井","town_kana":"ヒガシイヤモットイ","prefecture_code":36},"0206":{"zip_code":"7780206","prefecture":"徳島県","prefecture_kana":"トクシマケン","city":"三好市","city_kana":"ミヨシシ","town":"東祖谷和田","town_kana":"ヒガシイヤワダ","prefecture_code":36},"0204":{"zip_code":"7780204","prefecture":"徳島県","prefecture_kana":"トクシマケン","city":"三好市","city_kana":"ミヨシシ","town":"東祖谷若林","town_kana":"ヒガシイヤワカバヤシ","prefecture_code":36},"0203":{"zip_code":"7780203","prefecture":"徳島県","prefecture_kana":"トクシマケン","city":"三好市","city_kana":"ミヨシシ","town":"東祖谷林","town_kana":"ヒガシイヤハヤシ","prefecture_code":36},"0202":{"zip_code":"7780202","prefecture":"徳島県","prefecture_kana":"トクシマケン","city":"三好市","city_kana":"ミヨシシ","town":"東祖谷久保","town_kana":"ヒガシイヤクボ","prefecture_code":36},"0201":{"zip_code":"7780201","prefecture":"徳島県","prefecture_kana":"トクシマケン","city":"三好市","city_kana":"ミヨシシ","town":"東祖谷見ノ越","town_kana":"ヒガシイヤミノコシ","prefecture_code":36},"5254":{"zip_code":"7785254","prefecture":"徳島県","prefecture_kana":"トクシマケン","city":"三好市","city_kana":"ミヨシシ","town":"山城町佐連","town_kana":"ヤマシロチョウサレ","prefecture_code":36}}