{"3132":{"zip_code":"7793132","prefecture":"徳島県","prefecture_kana":"トクシマケン","city":"徳島市","city_kana":"トクシマシ","town":"一宮町","town_kana":"イチノミヤチョウ","prefecture_code":36},"3116":{"zip_code":"7793116","prefecture":"徳島県","prefecture_kana":"トクシマケン","city":"徳島市","city_kana":"トクシマシ","town":"国府町池尻","town_kana":"コクフチョウイケジリ","prefecture_code":36},"3118":{"zip_code":"7793118","prefecture":"徳島県","prefecture_kana":"トクシマケン","city":"徳島市","city_kana":"トクシマシ","town":"国府町井戸","town_kana":"コクフチョウイド","prefecture_code":36},"3128":{"zip_code":"7793128","prefecture":"徳島県","prefecture_kana":"トクシマケン","city":"徳島市","city_kana":"トクシマシ","town":"国府町延命","town_kana":"コクフチョウエンメイ","prefecture_code":36},"3113":{"zip_code":"7793113","prefecture":"徳島県","prefecture_kana":"トクシマケン","city":"徳島市","city_kana":"トクシマシ","town":"国府町川原田","town_kana":"コクフチョウカワラダ","prefecture_code":36},"3123":{"zip_code":"7793123","prefecture":"徳島県","prefecture_kana":"トクシマケン","city":"徳島市","city_kana":"トクシマシ","town":"国府町観音寺","town_kana":"コクフチョウカンノンジ","prefecture_code":36},"3122":{"zip_code":"7793122","prefecture":"徳島県","prefecture_kana":"トクシマケン","city":"徳島市","city_kana":"トクシマシ","town":"国府町府中","town_kana":"コクフチョウコウ","prefecture_code":36},"3114":{"zip_code":"7793114","prefecture":"徳島県","prefecture_kana":"トクシマケン","city":"徳島市","city_kana":"トクシマシ","town":"国府町桜間","town_kana":"コクフチョウサクラマ","prefecture_code":36},"3101":{"zip_code":"7793101","prefecture":"徳島県","prefecture_kana":"トクシマケン","city":"徳島市","city_kana":"トクシマシ","town":"国府町佐野塚","town_kana":"コクフチョウサノヅカ","prefecture_code":36},"3115":{"zip_code":"7793115","prefecture":"徳島県","prefecture_kana":"トクシマケン","city":"徳島市","city_kana":"トクシマシ","town":"国府町敷地","town_kana":"コクフチョウシキジ","prefecture_code":36},"3112":{"zip_code":"7793112","prefecture":"徳島県","prefecture_kana":"トクシマケン","city":"徳島市","city_kana":"トクシマシ","town":"国府町芝原","town_kana":"コクフチョウシバハラ","prefecture_code":36},"3124":{"zip_code":"7793124","prefecture":"徳島県","prefecture_kana":"トクシマケン","city":"徳島市","city_kana":"トクシマシ","town":"国府町中","town_kana":"コクフチョウナカ","prefecture_code":36},"3127":{"zip_code":"7793127","prefecture":"徳島県","prefecture_kana":"トクシマケン","city":"徳島市","city_kana":"トクシマシ","town":"国府町西矢野","town_kana":"コクフチョウニシヤノ","prefecture_code":36},"3106":{"zip_code":"7793106","prefecture":"徳島県","prefecture_kana":"トクシマケン","city":"徳島市","city_kana":"トクシマシ","town":"国府町花園","town_kana":"コクフチョウハナゾノ","prefecture_code":36},"3125":{"zip_code":"7793125","prefecture":"徳島県","prefecture_kana":"トクシマケン","city":"徳島市","city_kana":"トクシマシ","town":"国府町早淵","town_kana":"コクフチョウハヤブチ","prefecture_code":36},"3117":{"zip_code":"7793117","prefecture":"徳島県","prefecture_kana":"トクシマケン","city":"徳島市","city_kana":"トクシマシ","town":"国府町日開","town_kana":"コクフチョウヒガイ","prefecture_code":36},"3103":{"zip_code":"7793103","prefecture":"徳島県","prefecture_kana":"トクシマケン","city":"徳島市","city_kana":"トクシマシ","town":"国府町東黒田","town_kana":"コクフチョウヒガシクロダ","prefecture_code":36},"3102":{"zip_code":"7793102","prefecture":"徳島県","prefecture_kana":"トクシマケン","city":"徳島市","city_kana":"トクシマシ","town":"国府町西黒田","town_kana":"コクフチョウニシクロダ","prefecture_code":36},"3120":{"zip_code":"7793120","prefecture":"徳島県","prefecture_kana":"トクシマケン","city":"徳島市","city_kana":"トクシマシ","town":"国府町南岩延","town_kana":"コクフチョウミナミイワノブ","prefecture_code":36},"3119":{"zip_code":"7793119","prefecture":"徳島県","prefecture_kana":"トクシマケン","city":"徳島市","city_kana":"トクシマシ","town":"国府町北岩延","town_kana":"コクフチョウキタイワノブ","prefecture_code":36},"3105":{"zip_code":"7793105","prefecture":"徳島県","prefecture_kana":"トクシマケン","city":"徳島市","city_kana":"トクシマシ","town":"国府町東高輪","town_kana":"コクフチョウヒガシタカワ","prefecture_code":36},"3104":{"zip_code":"7793104","prefecture":"徳島県","prefecture_kana":"トクシマケン","city":"徳島市","city_kana":"トクシマシ","town":"国府町西高輪","town_kana":"コクフチョウニシタカワ","prefecture_code":36},"3126":{"zip_code":"7793126","prefecture":"徳島県","prefecture_kana":"トクシマケン","city":"徳島市","city_kana":"トクシマシ","town":"国府町矢野","town_kana":"コクフチョウヤノ","prefecture_code":36},"3111":{"zip_code":"7793111","prefecture":"徳島県","prefecture_kana":"トクシマケン","city":"徳島市","city_kana":"トクシマシ","town":"国府町竜王","town_kana":"コクフチョウリュウオウ","prefecture_code":36},"3121":{"zip_code":"7793121","prefecture":"徳島県","prefecture_kana":"トクシマケン","city":"徳島市","city_kana":"トクシマシ","town":"国府町和田","town_kana":"コクフチョウワダ","prefecture_code":36},"3131":{"zip_code":"7793131","prefecture":"徳島県","prefecture_kana":"トクシマケン","city":"徳島市","city_kana":"トクシマシ","town":"下町","town_kana":"シモマチ","prefecture_code":36},"3133":{"zip_code":"7793133","prefecture":"徳島県","prefecture_kana":"トクシマケン","city":"徳島市","city_kana":"トクシマシ","town":"入田町","town_kana":"ニュウタチョウ","prefecture_code":36},"0303":{"zip_code":"7790303","prefecture":"徳島県","prefecture_kana":"トクシマケン","city":"鳴門市","city_kana":"ナルトシ","town":"大麻町池谷","town_kana":"オオアサチョウイケノタニ","prefecture_code":36},"0315":{"zip_code":"7790315","prefecture":"徳島県","prefecture_kana":"トクシマケン","city":"鳴門市","city_kana":"ナルトシ","town":"大麻町市場","town_kana":"オオアサチョウイチバ","prefecture_code":36},"0311":{"zip_code":"7790311","prefecture":"徳島県","prefecture_kana":"トクシマケン","city":"鳴門市","city_kana":"ナルトシ","town":"大麻町牛屋島","town_kana":"オオアサチョウウシヤジマ","prefecture_code":36},"0302":{"zip_code":"7790302","prefecture":"徳島県","prefecture_kana":"トクシマケン","city":"鳴門市","city_kana":"ナルトシ","town":"大麻町大谷","town_kana":"オオアサチョウオオタニ","prefecture_code":36},"0223":{"zip_code":"7790223","prefecture":"徳島県","prefecture_kana":"トクシマケン","city":"鳴門市","city_kana":"ナルトシ","town":"大麻町川崎","town_kana":"オオアサチョウカワサキ","prefecture_code":36},"0305":{"zip_code":"7790305","prefecture":"徳島県","prefecture_kana":"トクシマケン","city":"鳴門市","city_kana":"ナルトシ","town":"大麻町高畑","town_kana":"オオアサチョウタカバタケ","prefecture_code":36},"0224":{"zip_code":"7790224","prefecture":"徳島県","prefecture_kana":"トクシマケン","city":"鳴門市","city_kana":"ナルトシ","town":"大麻町津慈","town_kana":"オオアサチョウツジ","prefecture_code":36},"0313":{"zip_code":"7790313","prefecture":"徳島県","prefecture_kana":"トクシマケン","city":"鳴門市","city_kana":"ナルトシ","town":"大麻町中馬詰","town_kana":"オオアサチョウナカウマヅメ","prefecture_code":36},"0314":{"zip_code":"7790314","prefecture":"徳島県","prefecture_kana":"トクシマケン","city":"鳴門市","city_kana":"ナルトシ","town":"大麻町西馬詰","town_kana":"オオアサチョウニシウマヅメ","prefecture_code":36},"0221":{"zip_code":"7790221","prefecture":"徳島県","prefecture_kana":"トクシマケン","city":"鳴門市","city_kana":"ナルトシ","town":"大麻町萩原","town_kana":"オオアサチョウハギワラ","prefecture_code":36},"0234":{"zip_code":"7790234","prefecture":"徳島県","prefecture_kana":"トクシマケン","city":"鳴門市","city_kana":"ナルトシ","town":"大麻町板東","town_kana":"オオアサチョウバンドウ","prefecture_code":36},"0231":{"zip_code":"7790231","prefecture":"徳島県","prefecture_kana":"トクシマケン","city":"鳴門市","city_kana":"ナルトシ","town":"大麻町板東","town_kana":"オオアサチョウバンドウ","prefecture_code":36},"0232":{"zip_code":"7790232","prefecture":"徳島県","prefecture_kana":"トクシマケン","city":"鳴門市","city_kana":"ナルトシ","town":"大麻町板東","town_kana":"オオアサチョウバンドウ","prefecture_code":36},"0235":{"zip_code":"7790235","prefecture":"徳島県","prefecture_kana":"トクシマケン","city":"鳴門市","city_kana":"ナルトシ","town":"大麻町板東","town_kana":"オオアサチョウバンドウ","prefecture_code":36},"0238":{"zip_code":"7790238","prefecture":"徳島県","prefecture_kana":"トクシマケン","city":"鳴門市","city_kana":"ナルトシ","town":"大麻町板東","town_kana":"オオアサチョウバンドウ","prefecture_code":36},"0236":{"zip_code":"7790236","prefecture":"徳島県","prefecture_kana":"トクシマケン","city":"鳴門市","city_kana":"ナルトシ","town":"大麻町板東","town_kana":"オオアサチョウバンドウ","prefecture_code":36},"0237":{"zip_code":"7790237","prefecture":"徳島県","prefecture_kana":"トクシマケン","city":"鳴門市","city_kana":"ナルトシ","town":"大麻町板東","town_kana":"オオアサチョウバンドウ","prefecture_code":36},"0233":{"zip_code":"7790233","prefecture":"徳島県","prefecture_kana":"トクシマケン","city":"鳴門市","city_kana":"ナルトシ","town":"大麻町板東","town_kana":"オオアサチョウバンドウ","prefecture_code":36},"0230":{"zip_code":"7790230","prefecture":"徳島県","prefecture_kana":"トクシマケン","city":"鳴門市","city_kana":"ナルトシ","town":"大麻町板東","town_kana":"オオアサチョウバンドウ","prefecture_code":36},"0312":{"zip_code":"7790312","prefecture":"徳島県","prefecture_kana":"トクシマケン","city":"鳴門市","city_kana":"ナルトシ","town":"大麻町東馬詰","town_kana":"オオアサチョウヒガシウマヅメ","prefecture_code":36},"0225":{"zip_code":"7790225","prefecture":"徳島県","prefecture_kana":"トクシマケン","city":"鳴門市","city_kana":"ナルトシ","town":"大麻町檜","town_kana":"オオアサチョウヒノキ","prefecture_code":36},"0301":{"zip_code":"7790301","prefecture":"徳島県","prefecture_kana":"トクシマケン","city":"鳴門市","city_kana":"ナルトシ","town":"大麻町姫田","town_kana":"オオアサチョウヒメダ","prefecture_code":36},"0304":{"zip_code":"7790304","prefecture":"徳島県","prefecture_kana":"トクシマケン","city":"鳴門市","city_kana":"ナルトシ","town":"大麻町松村","town_kana":"オオアサチョウマツムラ","prefecture_code":36},"0222":{"zip_code":"7790222","prefecture":"徳島県","prefecture_kana":"トクシマケン","city":"鳴門市","city_kana":"ナルトシ","town":"大麻町三俣","town_kana":"オオアサチョウミツマタ","prefecture_code":36},"1404":{"zip_code":"7791404","prefecture":"徳島県","prefecture_kana":"トクシマケン","city":"阿南市","city_kana":"アナンシ","town":"阿瀬比町","town_kana":"アセビチョウ","prefecture_code":36},"1510":{"zip_code":"7791510","prefecture":"徳島県","prefecture_kana":"トクシマケン","city":"阿南市","city_kana":"アナンシ","town":"新野町","town_kana":"アラタノチョウ","prefecture_code":36},"1401":{"zip_code":"7791401","prefecture":"徳島県","prefecture_kana":"トクシマケン","city":"阿南市","city_kana":"アナンシ","town":"内原町","town_kana":"ウチワラチョウ","prefecture_code":36},"1402":{"zip_code":"7791402","prefecture":"徳島県","prefecture_kana":"トクシマケン","city":"阿南市","city_kana":"アナンシ","town":"桑野町","town_kana":"クワノチョウ","prefecture_code":36},"1631":{"zip_code":"7791631","prefecture":"徳島県","prefecture_kana":"トクシマケン","city":"阿南市","city_kana":"アナンシ","town":"橘町","town_kana":"タチバナチョウ","prefecture_code":36},"1630":{"zip_code":"7791630","prefecture":"徳島県","prefecture_kana":"トクシマケン","city":"阿南市","city_kana":"アナンシ","town":"橘町","town_kana":"タチバナチョウ","prefecture_code":36},"1750":{"zip_code":"7791750","prefecture":"徳島県","prefecture_kana":"トクシマケン","city":"阿南市","city_kana":"アナンシ","town":"椿町","town_kana":"ツバキチョウ","prefecture_code":36},"1740":{"zip_code":"7791740","prefecture":"徳島県","prefecture_kana":"トクシマケン","city":"阿南市","city_kana":"アナンシ","town":"椿泊町","town_kana":"ツバキドマリチョウ","prefecture_code":36},"1242":{"zip_code":"7791242","prefecture":"徳島県","prefecture_kana":"トクシマケン","city":"阿南市","city_kana":"アナンシ","town":"那賀川町赤池","town_kana":"ナカガワチョウアカイケ","prefecture_code":36},"1114":{"zip_code":"7791114","prefecture":"徳島県","prefecture_kana":"トクシマケン","city":"阿南市","city_kana":"アナンシ","town":"那賀川町今津浦","town_kana":"ナカガワチョウイマヅウラ","prefecture_code":36},"1112":{"zip_code":"7791112","prefecture":"徳島県","prefecture_kana":"トクシマケン","city":"阿南市","city_kana":"アナンシ","town":"那賀川町色ケ島","town_kana":"ナカガワチョウイロガシマ","prefecture_code":36},"1111":{"zip_code":"7791111","prefecture":"徳島県","prefecture_kana":"トクシマケン","city":"阿南市","city_kana":"アナンシ","town":"那賀川町江野島","town_kana":"ナカガワチョウエノシマ","prefecture_code":36},"1243":{"zip_code":"7791243","prefecture":"徳島県","prefecture_kana":"トクシマケン","city":"阿南市","city_kana":"アナンシ","town":"那賀川町上福井","town_kana":"ナカガワチョウカミフクイ","prefecture_code":36},"1235":{"zip_code":"7791235","prefecture":"徳島県","prefecture_kana":"トクシマケン","city":"阿南市","city_kana":"アナンシ","town":"那賀川町苅屋","town_kana":"ナカガワチョウカリヤ","prefecture_code":36},"1246":{"zip_code":"7791246","prefecture":"徳島県","prefecture_kana":"トクシマケン","city":"阿南市","city_kana":"アナンシ","town":"那賀川町北中島","town_kana":"ナカガワチョウキタナカシマ","prefecture_code":36},"1121":{"zip_code":"7791121","prefecture":"徳島県","prefecture_kana":"トクシマケン","city":"阿南市","city_kana":"アナンシ","town":"那賀川町黒地","town_kana":"ナカガワチョウクロジ","prefecture_code":36},"1116":{"zip_code":"7791116","prefecture":"徳島県","prefecture_kana":"トクシマケン","city":"阿南市","city_kana":"アナンシ","town":"那賀川町小延","town_kana":"ナカガワチョウコノブ","prefecture_code":36},"1115":{"zip_code":"7791115","prefecture":"徳島県","prefecture_kana":"トクシマケン","city":"阿南市","city_kana":"アナンシ","town":"那賀川町敷地","town_kana":"ナカガワチョウシキジ","prefecture_code":36},"1117":{"zip_code":"7791117","prefecture":"徳島県","prefecture_kana":"トクシマケン","city":"阿南市","city_kana":"アナンシ","town":"那賀川町島尻","town_kana":"ナカガワチョウシマジリ","prefecture_code":36},"1233":{"zip_code":"7791233","prefecture":"徳島県","prefecture_kana":"トクシマケン","city":"阿南市","city_kana":"アナンシ","town":"那賀川町大京原","town_kana":"ナカガワチョウダイキョウバラ","prefecture_code":36},"1236":{"zip_code":"7791236","prefecture":"徳島県","prefecture_kana":"トクシマケン","city":"阿南市","city_kana":"アナンシ","town":"那賀川町工地","town_kana":"ナカガワチョウタクムジ","prefecture_code":36},"1123":{"zip_code":"7791123","prefecture":"徳島県","prefecture_kana":"トクシマケン","city":"阿南市","city_kana":"アナンシ","town":"那賀川町手島","town_kana":"ナカガワチョウテシマ","prefecture_code":36},"1245":{"zip_code":"7791245","prefecture":"徳島県","prefecture_kana":"トクシマケン","city":"阿南市","city_kana":"アナンシ","town":"那賀川町中島","town_kana":"ナカガワチョウナカシマ","prefecture_code":36},"1232":{"zip_code":"7791232","prefecture":"徳島県","prefecture_kana":"トクシマケン","city":"阿南市","city_kana":"アナンシ","town":"那賀川町西原","town_kana":"ナカガワチョウニシハラ","prefecture_code":36},"1231":{"zip_code":"7791231","prefecture":"徳島県","prefecture_kana":"トクシマケン","city":"阿南市","city_kana":"アナンシ","town":"那賀川町原","town_kana":"ナカガワチョウハラ","prefecture_code":36},"1119":{"zip_code":"7791119","prefecture":"徳島県","prefecture_kana":"トクシマケン","city":"阿南市","city_kana":"アナンシ","town":"那賀川町日向","town_kana":"ナカガワチョウヒナタ","prefecture_code":36},"1234":{"zip_code":"7791234","prefecture":"徳島県","prefecture_kana":"トクシマケン","city":"阿南市","city_kana":"アナンシ","town":"那賀川町古津","town_kana":"ナカガワチョウフルツ","prefecture_code":36},"1113":{"zip_code":"7791113","prefecture":"徳島県","prefecture_kana":"トクシマケン","city":"阿南市","city_kana":"アナンシ","town":"那賀川町芳崎","town_kana":"ナカガワチョウホウザキ","prefecture_code":36},"1241":{"zip_code":"7791241","prefecture":"徳島県","prefecture_kana":"トクシマケン","city":"阿南市","city_kana":"アナンシ","town":"那賀川町三栗","town_kana":"ナカガワチョウミグリュウ","prefecture_code":36},"1244":{"zip_code":"7791244","prefecture":"徳島県","prefecture_kana":"トクシマケン","city":"阿南市","city_kana":"アナンシ","town":"那賀川町みどり台","town_kana":"ナカガワチョウミドリダイ","prefecture_code":36},"1122":{"zip_code":"7791122","prefecture":"徳島県","prefecture_kana":"トクシマケン","city":"阿南市","city_kana":"アナンシ","town":"那賀川町八幡","town_kana":"ナカガワチョウヤワタ","prefecture_code":36},"1118":{"zip_code":"7791118","prefecture":"徳島県","prefecture_kana":"トクシマケン","city":"阿南市","city_kana":"アナンシ","town":"那賀川町豊香野","town_kana":"ナカガワチョウユタカノ","prefecture_code":36},"1107":{"zip_code":"7791107","prefecture":"徳島県","prefecture_kana":"トクシマケン","city":"阿南市","city_kana":"アナンシ","town":"羽ノ浦町岩脇","town_kana":"ハノウラチョウイワワキ","prefecture_code":36},"1106":{"zip_code":"7791106","prefecture":"徳島県","prefecture_kana":"トクシマケン","city":"阿南市","city_kana":"アナンシ","town":"羽ノ浦町岩脇","town_kana":"ハノウラチョウイワワキ","prefecture_code":36},"1103":{"zip_code":"7791103","prefecture":"徳島県","prefecture_kana":"トクシマケン","city":"阿南市","city_kana":"アナンシ","town":"羽ノ浦町春日野","town_kana":"ハノウラチョウカスガノ","prefecture_code":36},"1109":{"zip_code":"7791109","prefecture":"徳島県","prefecture_kana":"トクシマケン","city":"阿南市","city_kana":"アナンシ","town":"羽ノ浦町古毛","town_kana":"ハノウラチョウコモウ","prefecture_code":36},"1101":{"zip_code":"7791101","prefecture":"徳島県","prefecture_kana":"トクシマケン","city":"阿南市","city_kana":"アナンシ","town":"羽ノ浦町中庄","town_kana":"ハノウラチョウナカノショウ","prefecture_code":36},"1104":{"zip_code":"7791104","prefecture":"徳島県","prefecture_kana":"トクシマケン","city":"阿南市","city_kana":"アナンシ","town":"羽ノ浦町西春日野","town_kana":"ハノウラチョウニシカスガノ","prefecture_code":36},"1105":{"zip_code":"7791105","prefecture":"徳島県","prefecture_kana":"トクシマケン","city":"阿南市","city_kana":"アナンシ","town":"羽ノ浦町古庄","town_kana":"ハノウラチョウフルショウ","prefecture_code":36},"1102":{"zip_code":"7791102","prefecture":"徳島県","prefecture_kana":"トクシマケン","city":"阿南市","city_kana":"アナンシ","town":"羽ノ浦町宮倉","town_kana":"ハノウラチョウミヤグラ","prefecture_code":36},"1108":{"zip_code":"7791108","prefecture":"徳島県","prefecture_kana":"トクシマケン","city":"阿南市","city_kana":"アナンシ","town":"羽ノ浦町明見","town_kana":"ハノウラチョウミョウケン","prefecture_code":36},"1620":{"zip_code":"7791620","prefecture":"徳島県","prefecture_kana":"トクシマケン","city":"阿南市","city_kana":"アナンシ","town":"福井町","town_kana":"フクイチョウ","prefecture_code":36},"1403":{"zip_code":"7791403","prefecture":"徳島県","prefecture_kana":"トクシマケン","city":"阿南市","city_kana":"アナンシ","town":"山口町","town_kana":"ヤマグチチョウ","prefecture_code":36},"3306":{"zip_code":"7793306","prefecture":"徳島県","prefecture_kana":"トクシマケン","city":"吉野川市","city_kana":"ヨシノガワシ","town":"川島町学","town_kana":"カワシマチョウガク","prefecture_code":36},"3301":{"zip_code":"7793301","prefecture":"徳島県","prefecture_kana":"トクシマケン","city":"吉野川市","city_kana":"ヨシノガワシ","town":"川島町川島","town_kana":"カワシマチョウカワシマ","prefecture_code":36},"3303":{"zip_code":"7793303","prefecture":"徳島県","prefecture_kana":"トクシマケン","city":"吉野川市","city_kana":"ヨシノガワシ","town":"川島町桑村","town_kana":"カワシマチョウクワムラ","prefecture_code":36},"3305":{"zip_code":"7793305","prefecture":"徳島県","prefecture_kana":"トクシマケン","city":"吉野川市","city_kana":"ヨシノガワシ","town":"川島町児島","town_kana":"カワシマチョウコジマ","prefecture_code":36},"3307":{"zip_code":"7793307","prefecture":"徳島県","prefecture_kana":"トクシマケン","city":"吉野川市","city_kana":"ヨシノガワシ","town":"川島町三ツ島","town_kana":"カワシマチョウミツジマ","prefecture_code":36},"3304":{"zip_code":"7793304","prefecture":"徳島県","prefecture_kana":"トクシマケン","city":"吉野川市","city_kana":"ヨシノガワシ","town":"川島町宮島","town_kana":"カワシマチョウミヤノシマ","prefecture_code":36},"3302":{"zip_code":"7793302","prefecture":"徳島県","prefecture_kana":"トクシマケン","city":"吉野川市","city_kana":"ヨシノガワシ","town":"川島町山田","town_kana":"カワシマチョウヤマダ","prefecture_code":36},"3501":{"zip_code":"7793501","prefecture":"徳島県","prefecture_kana":"トクシマケン","city":"吉野川市","city_kana":"ヨシノガワシ","town":"美郷宗田","town_kana":"ミサトムネダ","prefecture_code":36},"3505":{"zip_code":"7793505","prefecture":"徳島県","prefecture_kana":"トクシマケン","city":"吉野川市","city_kana":"ヨシノガワシ","town":"美郷湯下","town_kana":"ミサトユゲ","prefecture_code":36},"3502":{"zip_code":"7793502","prefecture":"徳島県","prefecture_kana":"トクシマケン","city":"吉野川市","city_kana":"ヨシノガワシ","town":"美郷矢ノ丸","town_kana":"ミサトヤノマル","prefecture_code":36},"3503":{"zip_code":"7793503","prefecture":"徳島県","prefecture_kana":"トクシマケン","city":"吉野川市","city_kana":"ヨシノガワシ","town":"美郷湯殿","town_kana":"ミサトユドノ","prefecture_code":36},"3504":{"zip_code":"7793504","prefecture":"徳島県","prefecture_kana":"トクシマケン","city":"吉野川市","city_kana":"ヨシノガワシ","town":"美郷刷石","town_kana":"ミサトハケイシ","prefecture_code":36},"3407":{"zip_code":"7793407","prefecture":"徳島県","prefecture_kana":"トクシマケン","city":"吉野川市","city_kana":"ヨシノガワシ","town":"山川町横走","town_kana":"ヤマカワチョウヨコハシリ","prefecture_code":36},"3405":{"zip_code":"7793405","prefecture":"徳島県","prefecture_kana":"トクシマケン","city":"吉野川市","city_kana":"ヨシノガワシ","town":"山川町木綿麻山","town_kana":"ヤマカワチョウユウマヤマ","prefecture_code":36},"3401":{"zip_code":"7793401","prefecture":"徳島県","prefecture_kana":"トクシマケン","city":"吉野川市","city_kana":"ヨシノガワシ","town":"山川町町","town_kana":"ヤマカワチョウマチ","prefecture_code":36},"3404":{"zip_code":"7793404","prefecture":"徳島県","prefecture_kana":"トクシマケン","city":"吉野川市","city_kana":"ヨシノガワシ","town":"山川町湯立","town_kana":"ヤマカワチョウユダテ","prefecture_code":36},"3402":{"zip_code":"7793402","prefecture":"徳島県","prefecture_kana":"トクシマケン","city":"吉野川市","city_kana":"ヨシノガワシ","town":"山川町山路","town_kana":"ヤマカワチョウヤマジ","prefecture_code":36},"3406":{"zip_code":"7793406","prefecture":"徳島県","prefecture_kana":"トクシマケン","city":"吉野川市","city_kana":"ヨシノガワシ","town":"山川町馬見尾","town_kana":"ヤマカワチョウマミオ","prefecture_code":36},"3403":{"zip_code":"7793403","prefecture":"徳島県","prefecture_kana":"トクシマケン","city":"吉野川市","city_kana":"ヨシノガワシ","town":"山川町若宮","town_kana":"ヤマカワチョウワカミヤ","prefecture_code":36},"3600":{"zip_code":"7793600","prefecture":"徳島県","prefecture_kana":"トクシマケン","city":"美馬市","city_kana":"ミマシ","town":"","town_kana":"","prefecture_code":36},"3604":{"zip_code":"7793604","prefecture":"徳島県","prefecture_kana":"トクシマケン","city":"美馬市","city_kana":"ミマシ","town":"脇町","town_kana":"ワキマチ","prefecture_code":36},"3603":{"zip_code":"7793603","prefecture":"徳島県","prefecture_kana":"トクシマケン","city":"美馬市","city_kana":"ミマシ","town":"脇町猪尻","town_kana":"ワキマチイノシリ","prefecture_code":36},"3602":{"zip_code":"7793602","prefecture":"徳島県","prefecture_kana":"トクシマケン","city":"美馬市","city_kana":"ミマシ","town":"脇町猪尻","town_kana":"ワキマチイノシリ","prefecture_code":36},"3620":{"zip_code":"7793620","prefecture":"徳島県","prefecture_kana":"トクシマケン","city":"美馬市","city_kana":"ミマシ","town":"脇町別所","town_kana":"ワキマチベッショ","prefecture_code":36},"3610":{"zip_code":"7793610","prefecture":"徳島県","prefecture_kana":"トクシマケン","city":"美馬市","city_kana":"ミマシ","town":"脇町脇町","town_kana":"ワキマチワキマチ","prefecture_code":36},"3633":{"zip_code":"7793633","prefecture":"徳島県","prefecture_kana":"トクシマケン","city":"美馬市","city_kana":"ミマシ","town":"脇町","town_kana":"ワキマチ","prefecture_code":36},"3632":{"zip_code":"7793632","prefecture":"徳島県","prefecture_kana":"トクシマケン","city":"美馬市","city_kana":"ミマシ","town":"脇町","town_kana":"ワキマチ","prefecture_code":36},"3636":{"zip_code":"7793636","prefecture":"徳島県","prefecture_kana":"トクシマケン","city":"美馬市","city_kana":"ミマシ","town":"脇町","town_kana":"ワキマチ","prefecture_code":36},"3639":{"zip_code":"7793639","prefecture":"徳島県","prefecture_kana":"トクシマケン","city":"美馬市","city_kana":"ミマシ","town":"脇町","town_kana":"ワキマチ","prefecture_code":36},"3638":{"zip_code":"7793638","prefecture":"徳島県","prefecture_kana":"トクシマケン","city":"美馬市","city_kana":"ミマシ","town":"脇町","town_kana":"ワキマチ","prefecture_code":36},"3637":{"zip_code":"7793637","prefecture":"徳島県","prefecture_kana":"トクシマケン","city":"美馬市","city_kana":"ミマシ","town":"脇町","town_kana":"ワキマチ","prefecture_code":36},"3635":{"zip_code":"7793635","prefecture":"徳島県","prefecture_kana":"トクシマケン","city":"美馬市","city_kana":"ミマシ","town":"脇町","town_kana":"ワキマチ","prefecture_code":36},"3625":{"zip_code":"7793625","prefecture":"徳島県","prefecture_kana":"トクシマケン","city":"美馬市","city_kana":"ミマシ","town":"脇町","town_kana":"ワキマチ","prefecture_code":36},"3634":{"zip_code":"7793634","prefecture":"徳島県","prefecture_kana":"トクシマケン","city":"美馬市","city_kana":"ミマシ","town":"脇町","town_kana":"ワキマチ","prefecture_code":36},"3631":{"zip_code":"7793631","prefecture":"徳島県","prefecture_kana":"トクシマケン","city":"美馬市","city_kana":"ミマシ","town":"脇町","town_kana":"ワキマチ","prefecture_code":36},"3741":{"zip_code":"7793741","prefecture":"徳島県","prefecture_kana":"トクシマケン","city":"美馬市","city_kana":"ミマシ","town":"脇町","town_kana":"ワキマチ","prefecture_code":36},"3742":{"zip_code":"7793742","prefecture":"徳島県","prefecture_kana":"トクシマケン","city":"美馬市","city_kana":"ミマシ","town":"脇町","town_kana":"ワキマチ","prefecture_code":36},"3744":{"zip_code":"7793744","prefecture":"徳島県","prefecture_kana":"トクシマケン","city":"美馬市","city_kana":"ミマシ","town":"脇町","town_kana":"ワキマチ","prefecture_code":36},"3601":{"zip_code":"7793601","prefecture":"徳島県","prefecture_kana":"トクシマケン","city":"美馬市","city_kana":"ミマシ","town":"脇町","town_kana":"ワキマチ","prefecture_code":36},"3743":{"zip_code":"7793743","prefecture":"徳島県","prefecture_kana":"トクシマケン","city":"美馬市","city_kana":"ミマシ","town":"脇町","town_kana":"ワキマチ","prefecture_code":36},"3745":{"zip_code":"7793745","prefecture":"徳島県","prefecture_kana":"トクシマケン","city":"美馬市","city_kana":"ミマシ","town":"脇町","town_kana":"ワキマチ","prefecture_code":36},"4801":{"zip_code":"7794801","prefecture":"徳島県","prefecture_kana":"トクシマケン","city":"三好市","city_kana":"ミヨシシ","town":"井川町本町","town_kana":"イカワチョウホンマチ","prefecture_code":36},"4805":{"zip_code":"7794805","prefecture":"徳島県","prefecture_kana":"トクシマケン","city":"三好市","city_kana":"ミヨシシ","town":"井川町井内西","town_kana":"イカワチョウイウチニシ","prefecture_code":36},"4804":{"zip_code":"7794804","prefecture":"徳島県","prefecture_kana":"トクシマケン","city":"三好市","city_kana":"ミヨシシ","town":"井川町井内東","town_kana":"イカワチョウイウチヒガシ","prefecture_code":36},"4802":{"zip_code":"7794802","prefecture":"徳島県","prefecture_kana":"トクシマケン","city":"三好市","city_kana":"ミヨシシ","town":"井川町向坂","town_kana":"イカワチョウムコウザカ","prefecture_code":36},"4807":{"zip_code":"7794807","prefecture":"徳島県","prefecture_kana":"トクシマケン","city":"三好市","city_kana":"ミヨシシ","town":"井川町里川","town_kana":"イカワチョウサトガワ","prefecture_code":36},"4803":{"zip_code":"7794803","prefecture":"徳島県","prefecture_kana":"トクシマケン","city":"三好市","city_kana":"ミヨシシ","town":"井川町吉岡","town_kana":"イカワチョウヨシオカ","prefecture_code":36},"4806":{"zip_code":"7794806","prefecture":"徳島県","prefecture_kana":"トクシマケン","city":"三好市","city_kana":"ミヨシシ","town":"井川町西井川","town_kana":"イカワチョウニシイカワ","prefecture_code":36},"5164":{"zip_code":"7795164","prefecture":"徳島県","prefecture_kana":"トクシマケン","city":"三好市","city_kana":"ミヨシシ","town":"池田町大利","town_kana":"イケダチョウオオリ","prefecture_code":36},"5166":{"zip_code":"7795166","prefecture":"徳島県","prefecture_kana":"トクシマケン","city":"三好市","city_kana":"ミヨシシ","town":"池田町川崎","town_kana":"イケダチョウカワサキ","prefecture_code":36},"5162":{"zip_code":"7795162","prefecture":"徳島県","prefecture_kana":"トクシマケン","city":"三好市","city_kana":"ミヨシシ","town":"池田町漆川","town_kana":"イケダチョウシツカワ","prefecture_code":36},"5163":{"zip_code":"7795163","prefecture":"徳島県","prefecture_kana":"トクシマケン","city":"三好市","city_kana":"ミヨシシ","town":"池田町中津川","town_kana":"イケダチョウナカツガワ","prefecture_code":36},"5161":{"zip_code":"7795161","prefecture":"徳島県","prefecture_kana":"トクシマケン","city":"三好市","city_kana":"ミヨシシ","town":"池田町中西","town_kana":"イケダチョウナカニシ","prefecture_code":36},"5165":{"zip_code":"7795165","prefecture":"徳島県","prefecture_kana":"トクシマケン","city":"三好市","city_kana":"ミヨシシ","town":"池田町松尾","town_kana":"イケダチョウマツオ","prefecture_code":36},"5172":{"zip_code":"7795172","prefecture":"徳島県","prefecture_kana":"トクシマケン","city":"三好市","city_kana":"ミヨシシ","town":"西祖谷山村小祖谷","town_kana":"ニシイヤヤマムラオイヤ","prefecture_code":36},"5173":{"zip_code":"7795173","prefecture":"徳島県","prefecture_kana":"トクシマケン","city":"三好市","city_kana":"ミヨシシ","town":"西祖谷山村坂瀬","town_kana":"ニシイヤヤマムラサカセ","prefecture_code":36},"5171":{"zip_code":"7795171","prefecture":"徳島県","prefecture_kana":"トクシマケン","city":"三好市","city_kana":"ミヨシシ","town":"西祖谷山村下名","town_kana":"ニシイヤヤマムラシモミョウ","prefecture_code":36},"5307":{"zip_code":"7795307","prefecture":"徳島県","prefecture_kana":"トクシマケン","city":"三好市","city_kana":"ミヨシシ","town":"山城町相川","town_kana":"ヤマシロチョウアイカワ","prefecture_code":36},"5336":{"zip_code":"7795336","prefecture":"徳島県","prefecture_kana":"トクシマケン","city":"三好市","city_kana":"ミヨシシ","town":"山城町赤谷","town_kana":"ヤマシロチョウアカダニ","prefecture_code":36},"5328":{"zip_code":"7795328","prefecture":"徳島県","prefecture_kana":"トクシマケン","city":"三好市","city_kana":"ミヨシシ","town":"山城町粟山","town_kana":"ヤマシロチョウアワヤマ","prefecture_code":36},"5314":{"zip_code":"7795314","prefecture":"徳島県","prefecture_kana":"トクシマケン","city":"三好市","city_kana":"ミヨシシ","town":"山城町岩戸","town_kana":"ヤマシロチョウイワド","prefecture_code":36},"5304":{"zip_code":"7795304","prefecture":"徳島県","prefecture_kana":"トクシマケン","city":"三好市","city_kana":"ミヨシシ","town":"山城町大川持","town_kana":"ヤマシロチョウオオカワモチ","prefecture_code":36},"5342":{"zip_code":"7795342","prefecture":"徳島県","prefecture_kana":"トクシマケン","city":"三好市","city_kana":"ミヨシシ","town":"山城町大谷","town_kana":"ヤマシロチョウオオタニ","prefecture_code":36},"5347":{"zip_code":"7795347","prefecture":"徳島県","prefecture_kana":"トクシマケン","city":"三好市","city_kana":"ミヨシシ","town":"山城町大月","town_kana":"ヤマシロチョウオオツキ","prefecture_code":36},"5333":{"zip_code":"7795333","prefecture":"徳島県","prefecture_kana":"トクシマケン","city":"三好市","city_kana":"ミヨシシ","town":"山城町大野","town_kana":"ヤマシロチョウオオノ","prefecture_code":36},"5332":{"zip_code":"7795332","prefecture":"徳島県","prefecture_kana":"トクシマケン","city":"三好市","city_kana":"ミヨシシ","town":"山城町小川谷","town_kana":"ヤマシロチョウオガワダニ","prefecture_code":36},"5327":{"zip_code":"7795327","prefecture":"徳島県","prefecture_kana":"トクシマケン","city":"三好市","city_kana":"ミヨシシ","town":"山城町尾又","town_kana":"ヤマシロチョウオマタ","prefecture_code":36},"5452":{"zip_code":"7795452","prefecture":"徳島県","prefecture_kana":"トクシマケン","city":"三好市","city_kana":"ミヨシシ","town":"山城町上名","town_kana":"ヤマシロチョウカミミョウ","prefecture_code":36},"5305":{"zip_code":"7795305","prefecture":"徳島県","prefecture_kana":"トクシマケン","city":"三好市","city_kana":"ミヨシシ","town":"山城町川口","town_kana":"ヤマシロチョウカワグチ","prefecture_code":36},"5321":{"zip_code":"7795321","prefecture":"徳島県","prefecture_kana":"トクシマケン","city":"三好市","city_kana":"ミヨシシ","town":"山城町国政","town_kana":"ヤマシロチョウクニマサ","prefecture_code":36},"5313":{"zip_code":"7795313","prefecture":"徳島県","prefecture_kana":"トクシマケン","city":"三好市","city_kana":"ミヨシシ","town":"山城町黒川","town_kana":"ヤマシロチョウクロカワ","prefecture_code":36},"5341":{"zip_code":"7795341","prefecture":"徳島県","prefecture_kana":"トクシマケン","city":"三好市","city_kana":"ミヨシシ","town":"山城町佐連","town_kana":"ヤマシロチョウサレ","prefecture_code":36},"5422":{"zip_code":"7795422","prefecture":"徳島県","prefecture_kana":"トクシマケン","city":"三好市","city_kana":"ミヨシシ","town":"山城町重実","town_kana":"ヤマシロチョウシゲザネ","prefecture_code":36},"5322":{"zip_code":"7795322","prefecture":"徳島県","prefecture_kana":"トクシマケン","city":"三好市","city_kana":"ミヨシシ","town":"山城町重実","town_kana":"ヤマシロチョウシゲザネ","prefecture_code":36},"5343":{"zip_code":"7795343","prefecture":"徳島県","prefecture_kana":"トクシマケン","city":"三好市","city_kana":"ミヨシシ","town":"山城町柴川","town_kana":"ヤマシロチョウシバカワ","prefecture_code":36},"5303":{"zip_code":"7795303","prefecture":"徳島県","prefecture_kana":"トクシマケン","city":"三好市","city_kana":"ミヨシシ","town":"山城町下川","town_kana":"ヤマシロチョウシモカワ","prefecture_code":36},"5453":{"zip_code":"7795453","prefecture":"徳島県","prefecture_kana":"トクシマケン","city":"三好市","city_kana":"ミヨシシ","town":"山城町下名","town_kana":"ヤマシロチョウシモミョウ","prefecture_code":36},"5324":{"zip_code":"7795324","prefecture":"徳島県","prefecture_kana":"トクシマケン","city":"三好市","city_kana":"ミヨシシ","town":"山城町白川","town_kana":"ヤマシロチョウシロカワ","prefecture_code":36},"5316":{"zip_code":"7795316","prefecture":"徳島県","prefecture_kana":"トクシマケン","city":"三好市","city_kana":"ミヨシシ","town":"山城町末貞","town_kana":"ヤマシロチョウスエサダ","prefecture_code":36},"5345":{"zip_code":"7795345","prefecture":"徳島県","prefecture_kana":"トクシマケン","city":"三好市","city_kana":"ミヨシシ","town":"山城町瀬貝","town_kana":"ヤマシロチョウセガイ","prefecture_code":36},"5337":{"zip_code":"7795337","prefecture":"徳島県","prefecture_kana":"トクシマケン","city":"三好市","city_kana":"ミヨシシ","town":"山城町平野","town_kana":"ヤマシロチョウタイラノ","prefecture_code":36},"5306":{"zip_code":"7795306","prefecture":"徳島県","prefecture_kana":"トクシマケン","city":"三好市","city_kana":"ミヨシシ","town":"山城町寺野","town_kana":"ヤマシロチョウテラノ","prefecture_code":36},"5323":{"zip_code":"7795323","prefecture":"徳島県","prefecture_kana":"トクシマケン","city":"三好市","city_kana":"ミヨシシ","town":"山城町中野","town_kana":"ヤマシロチョウナカノ","prefecture_code":36},"5311":{"zip_code":"7795311","prefecture":"徳島県","prefecture_kana":"トクシマケン","city":"三好市","city_kana":"ミヨシシ","town":"山城町中ノ瀬","town_kana":"ヤマシロチョウナカノセ","prefecture_code":36},"5451":{"zip_code":"7795451","prefecture":"徳島県","prefecture_kana":"トクシマケン","city":"三好市","city_kana":"ミヨシシ","town":"山城町西宇","town_kana":"ヤマシロチョウニシウ","prefecture_code":36},"5334":{"zip_code":"7795334","prefecture":"徳島県","prefecture_kana":"トクシマケン","city":"三好市","city_kana":"ミヨシシ","town":"山城町信正","town_kana":"ヤマシロチョウノブマサ","prefecture_code":36},"5312":{"zip_code":"7795312","prefecture":"徳島県","prefecture_kana":"トクシマケン","city":"三好市","city_kana":"ミヨシシ","town":"山城町八千坊","town_kana":"ヤマシロチョウハッセンボウ","prefecture_code":36},"5315":{"zip_code":"7795315","prefecture":"徳島県","prefecture_kana":"トクシマケン","city":"三好市","city_kana":"ミヨシシ","town":"山城町引地","town_kana":"ヤマシロチョウヒキチ","prefecture_code":36},"5326":{"zip_code":"7795326","prefecture":"徳島県","prefecture_kana":"トクシマケン","city":"三好市","city_kana":"ミヨシシ","town":"山城町仏子","town_kana":"ヤマシロチョウブッシ","prefecture_code":36},"5344":{"zip_code":"7795344","prefecture":"徳島県","prefecture_kana":"トクシマケン","city":"三好市","city_kana":"ミヨシシ","town":"山城町政友","town_kana":"ヤマシロチョウマサトモ","prefecture_code":36},"5325":{"zip_code":"7795325","prefecture":"徳島県","prefecture_kana":"トクシマケン","city":"三好市","city_kana":"ミヨシシ","town":"山城町光兼","town_kana":"ヤマシロチョウミツカネ","prefecture_code":36},"5331":{"zip_code":"7795331","prefecture":"徳島県","prefecture_kana":"トクシマケン","city":"三好市","city_kana":"ミヨシシ","town":"山城町茂地","town_kana":"ヤマシロチョウモジ","prefecture_code":36},"5301":{"zip_code":"7795301","prefecture":"徳島県","prefecture_kana":"トクシマケン","city":"三好市","city_kana":"ミヨシシ","town":"山城町大和川","town_kana":"ヤマシロチョウヤマトガワ","prefecture_code":36},"5335":{"zip_code":"7795335","prefecture":"徳島県","prefecture_kana":"トクシマケン","city":"三好市","city_kana":"ミヨシシ","town":"山城町頼広","town_kana":"ヤマシロチョウヨリヒロ","prefecture_code":36},"5302":{"zip_code":"7795302","prefecture":"徳島県","prefecture_kana":"トクシマケン","city":"三好市","city_kana":"ミヨシシ","town":"山城町若山","town_kana":"ヤマシロチョウワカヤマ","prefecture_code":36},"5346":{"zip_code":"7795346","prefecture":"徳島県","prefecture_kana":"トクシマケン","city":"三好市","city_kana":"ミヨシシ","town":"山城町脇","town_kana":"ヤマシロチョウワキ","prefecture_code":36},"3200":{"zip_code":"7793200","prefecture":"徳島県","prefecture_kana":"トクシマケン","city":"名西郡石井町","city_kana":"ミョウザイグンイシイチョウ","town":"","town_kana":"","prefecture_code":36},"3213":{"zip_code":"7793213","prefecture":"徳島県","prefecture_kana":"トクシマケン","city":"名西郡石井町","city_kana":"ミョウザイグンイシイチョウ","town":"藍畑","town_kana":"アイハタ","prefecture_code":36},"3214":{"zip_code":"7793214","prefecture":"徳島県","prefecture_kana":"トクシマケン","city":"名西郡石井町","city_kana":"ミョウザイグンイシイチョウ","town":"藍畑","town_kana":"アイハタ","prefecture_code":36},"3212":{"zip_code":"7793212","prefecture":"徳島県","prefecture_kana":"トクシマケン","city":"名西郡石井町","city_kana":"ミョウザイグンイシイチョウ","town":"藍畑","town_kana":"アイハタ","prefecture_code":36},"3211":{"zip_code":"7793211","prefecture":"徳島県","prefecture_kana":"トクシマケン","city":"名西郡石井町","city_kana":"ミョウザイグンイシイチョウ","town":"藍畑","town_kana":"アイハタ","prefecture_code":36},"3215":{"zip_code":"7793215","prefecture":"徳島県","prefecture_kana":"トクシマケン","city":"名西郡石井町","city_kana":"ミョウザイグンイシイチョウ","town":"藍畑","town_kana":"アイハタ","prefecture_code":36},"3233":{"zip_code":"7793233","prefecture":"徳島県","prefecture_kana":"トクシマケン","city":"名西郡石井町","city_kana":"ミョウザイグンイシイチョウ","town":"石井","town_kana":"イシイ","prefecture_code":36},"3236":{"zip_code":"7793236","prefecture":"徳島県","prefecture_kana":"トクシマケン","city":"名西郡石井町","city_kana":"ミョウザイグンイシイチョウ","town":"石井","town_kana":"イシイ","prefecture_code":36},"3231":{"zip_code":"7793231","prefecture":"徳島県","prefecture_kana":"トクシマケン","city":"名西郡石井町","city_kana":"ミョウザイグンイシイチョウ","town":"石井","town_kana":"イシイ","prefecture_code":36},"3234":{"zip_code":"7793234","prefecture":"徳島県","prefecture_kana":"トクシマケン","city":"名西郡石井町","city_kana":"ミョウザイグンイシイチョウ","town":"石井","town_kana":"イシイ","prefecture_code":36},"3232":{"zip_code":"7793232","prefecture":"徳島県","prefecture_kana":"トクシマケン","city":"名西郡石井町","city_kana":"ミョウザイグンイシイチョウ","town":"石井","town_kana":"イシイ","prefecture_code":36},"3235":{"zip_code":"7793235","prefecture":"徳島県","prefecture_kana":"トクシマケン","city":"名西郡石井町","city_kana":"ミョウザイグンイシイチョウ","town":"石井","town_kana":"イシイ","prefecture_code":36},"3245":{"zip_code":"7793245","prefecture":"徳島県","prefecture_kana":"トクシマケン","city":"名西郡石井町","city_kana":"ミョウザイグンイシイチョウ","town":"浦庄","town_kana":"ウラショウ","prefecture_code":36},"3242":{"zip_code":"7793242","prefecture":"徳島県","prefecture_kana":"トクシマケン","city":"名西郡石井町","city_kana":"ミョウザイグンイシイチョウ","town":"浦庄","town_kana":"ウラショウ","prefecture_code":36},"3244":{"zip_code":"7793244","prefecture":"徳島県","prefecture_kana":"トクシマケン","city":"名西郡石井町","city_kana":"ミョウザイグンイシイチョウ","town":"浦庄","town_kana":"ウラショウ","prefecture_code":36},"3241":{"zip_code":"7793241","prefecture":"徳島県","prefecture_kana":"トクシマケン","city":"名西郡石井町","city_kana":"ミョウザイグンイシイチョウ","town":"浦庄","town_kana":"ウラショウ","prefecture_code":36},"3243":{"zip_code":"7793243","prefecture":"徳島県","prefecture_kana":"トクシマケン","city":"名西郡石井町","city_kana":"ミョウザイグンイシイチョウ","town":"浦庄","town_kana":"ウラショウ","prefecture_code":36},"3226":{"zip_code":"7793226","prefecture":"徳島県","prefecture_kana":"トクシマケン","city":"名西郡石井町","city_kana":"ミョウザイグンイシイチョウ","town":"高川原","town_kana":"タカガワラ","prefecture_code":36},"3224":{"zip_code":"7793224","prefecture":"徳島県","prefecture_kana":"トクシマケン","city":"名西郡石井町","city_kana":"ミョウザイグンイシイチョウ","town":"高川原","town_kana":"タカガワラ","prefecture_code":36},"3225":{"zip_code":"7793225","prefecture":"徳島県","prefecture_kana":"トクシマケン","city":"名西郡石井町","city_kana":"ミョウザイグンイシイチョウ","town":"高川原","town_kana":"タカガワラ","prefecture_code":36},"3223":{"zip_code":"7793223","prefecture":"徳島県","prefecture_kana":"トクシマケン","city":"名西郡石井町","city_kana":"ミョウザイグンイシイチョウ","town":"高川原","town_kana":"タカガワラ","prefecture_code":36},"3222":{"zip_code":"7793222","prefecture":"徳島県","prefecture_kana":"トクシマケン","city":"名西郡石井町","city_kana":"ミョウザイグンイシイチョウ","town":"高川原","town_kana":"タカガワラ","prefecture_code":36},"3221":{"zip_code":"7793221","prefecture":"徳島県","prefecture_kana":"トクシマケン","city":"名西郡石井町","city_kana":"ミョウザイグンイシイチョウ","town":"高川原","town_kana":"タカガワラ","prefecture_code":36},"3206":{"zip_code":"7793206","prefecture":"徳島県","prefecture_kana":"トクシマケン","city":"名西郡石井町","city_kana":"ミョウザイグンイシイチョウ","town":"高原","town_kana":"タカハラ","prefecture_code":36},"3207":{"zip_code":"7793207","prefecture":"徳島県","prefecture_kana":"トクシマケン","city":"名西郡石井町","city_kana":"ミョウザイグンイシイチョウ","town":"高原","town_kana":"タカハラ","prefecture_code":36},"3202":{"zip_code":"7793202","prefecture":"徳島県","prefecture_kana":"トクシマケン","city":"名西郡石井町","city_kana":"ミョウザイグンイシイチョウ","town":"高原","town_kana":"タカハラ","prefecture_code":36},"3208":{"zip_code":"7793208","prefecture":"徳島県","prefecture_kana":"トクシマケン","city":"名西郡石井町","city_kana":"ミョウザイグンイシイチョウ","town":"高原","town_kana":"タカハラ","prefecture_code":36},"3201":{"zip_code":"7793201","prefecture":"徳島県","prefecture_kana":"トクシマケン","city":"名西郡石井町","city_kana":"ミョウザイグンイシイチョウ","town":"高原","town_kana":"タカハラ","prefecture_code":36},"3205":{"zip_code":"7793205","prefecture":"徳島県","prefecture_kana":"トクシマケン","city":"名西郡石井町","city_kana":"ミョウザイグンイシイチョウ","town":"高原","town_kana":"タカハラ","prefecture_code":36},"3204":{"zip_code":"7793204","prefecture":"徳島県","prefecture_kana":"トクシマケン","city":"名西郡石井町","city_kana":"ミョウザイグンイシイチョウ","town":"高原","town_kana":"タカハラ","prefecture_code":36},"3203":{"zip_code":"7793203","prefecture":"徳島県","prefecture_kana":"トクシマケン","city":"名西郡石井町","city_kana":"ミョウザイグンイシイチョウ","town":"高原","town_kana":"タカハラ","prefecture_code":36},"2300":{"zip_code":"7792300","prefecture":"徳島県","prefecture_kana":"トクシマケン","city":"海部郡美波町","city_kana":"カイフグンミナミチョウ","town":"","town_kana":"","prefecture_code":36},"2301":{"zip_code":"7792301","prefecture":"徳島県","prefecture_kana":"トクシマケン","city":"海部郡美波町","city_kana":"カイフグンミナミチョウ","town":"赤松","town_kana":"アカマツ","prefecture_code":36},"2106":{"zip_code":"7792106","prefecture":"徳島県","prefecture_kana":"トクシマケン","city":"海部郡美波町","city_kana":"カイフグンミナミチョウ","town":"阿部","town_kana":"アブ","prefecture_code":36},"2107":{"zip_code":"7792107","prefecture":"徳島県","prefecture_kana":"トクシマケン","city":"海部郡美波町","city_kana":"カイフグンミナミチョウ","town":"伊座利","town_kana":"イザリ","prefecture_code":36},"2303":{"zip_code":"7792303","prefecture":"徳島県","prefecture_kana":"トクシマケン","city":"海部郡美波町","city_kana":"カイフグンミナミチョウ","town":"恵比須浜","town_kana":"エビスハマ","prefecture_code":36},"2305":{"zip_code":"7792305","prefecture":"徳島県","prefecture_kana":"トクシマケン","city":"海部郡美波町","city_kana":"カイフグンミナミチョウ","town":"奥河内","town_kana":"オクガワウチ","prefecture_code":36},"2108":{"zip_code":"7792108","prefecture":"徳島県","prefecture_kana":"トクシマケン","city":"海部郡美波町","city_kana":"カイフグンミナミチョウ","town":"木岐","town_kana":"キキ","prefecture_code":36},"2302":{"zip_code":"7792302","prefecture":"徳島県","prefecture_kana":"トクシマケン","city":"海部郡美波町","city_kana":"カイフグンミナミチョウ","town":"北河内","town_kana":"キタガワウチ","prefecture_code":36},"2105":{"zip_code":"7792105","prefecture":"徳島県","prefecture_kana":"トクシマケン","city":"海部郡美波町","city_kana":"カイフグンミナミチョウ","town":"志和岐","town_kana":"シワギ","prefecture_code":36},"2109":{"zip_code":"7792109","prefecture":"徳島県","prefecture_kana":"トクシマケン","city":"海部郡美波町","city_kana":"カイフグンミナミチョウ","town":"田井","town_kana":"タイ","prefecture_code":36},"2306":{"zip_code":"7792306","prefecture":"徳島県","prefecture_kana":"トクシマケン","city":"海部郡美波町","city_kana":"カイフグンミナミチョウ","town":"西河内","town_kana":"ニシガワウチ","prefecture_code":36},"2103":{"zip_code":"7792103","prefecture":"徳島県","prefecture_kana":"トクシマケン","city":"海部郡美波町","city_kana":"カイフグンミナミチョウ","town":"西の地","town_kana":"ニシノジ","prefecture_code":36},"2101":{"zip_code":"7792101","prefecture":"徳島県","prefecture_kana":"トクシマケン","city":"海部郡美波町","city_kana":"カイフグンミナミチョウ","town":"西由岐","town_kana":"ニシユキ","prefecture_code":36},"2104":{"zip_code":"7792104","prefecture":"徳島県","prefecture_kana":"トクシマケン","city":"海部郡美波町","city_kana":"カイフグンミナミチョウ","town":"東由岐","town_kana":"ヒガシユキ","prefecture_code":36},"2304":{"zip_code":"7792304","prefecture":"徳島県","prefecture_kana":"トクシマケン","city":"海部郡美波町","city_kana":"カイフグンミナミチョウ","town":"日和佐浦","town_kana":"ヒワサウラ","prefecture_code":36},"2102":{"zip_code":"7792102","prefecture":"徳島県","prefecture_kana":"トクシマケン","city":"海部郡美波町","city_kana":"カイフグンミナミチョウ","town":"港町","town_kana":"ミナトマチ","prefecture_code":36},"2307":{"zip_code":"7792307","prefecture":"徳島県","prefecture_kana":"トクシマケン","city":"海部郡美波町","city_kana":"カイフグンミナミチョウ","town":"山河内","town_kana":"ヤマガワウチ","prefecture_code":36},"0100":{"zip_code":"7790100","prefecture":"徳島県","prefecture_kana":"トクシマケン","city":"板野郡板野町","city_kana":"イタノグンイタノチョウ","town":"","town_kana":"","prefecture_code":36},"0108":{"zip_code":"7790108","prefecture":"徳島県","prefecture_kana":"トクシマケン","city":"板野郡板野町","city_kana":"イタノグンイタノチョウ","town":"犬伏","town_kana":"イヌブシ","prefecture_code":36},"0101":{"zip_code":"7790101","prefecture":"徳島県","prefecture_kana":"トクシマケン","city":"板野郡板野町","city_kana":"イタノグンイタノチョウ","town":"大坂","town_kana":"オオサカ","prefecture_code":36},"0106":{"zip_code":"7790106","prefecture":"徳島県","prefecture_kana":"トクシマケン","city":"板野郡板野町","city_kana":"イタノグンイタノチョウ","town":"大寺","town_kana":"オオテラ","prefecture_code":36},"0105":{"zip_code":"7790105","prefecture":"徳島県","prefecture_kana":"トクシマケン","city":"板野郡板野町","city_kana":"イタノグンイタノチョウ","town":"大寺","town_kana":"オオテラ","prefecture_code":36},"0103":{"zip_code":"7790103","prefecture":"徳島県","prefecture_kana":"トクシマケン","city":"板野郡板野町","city_kana":"イタノグンイタノチョウ","town":"川端","town_kana":"カワバタ","prefecture_code":36},"0102":{"zip_code":"7790102","prefecture":"徳島県","prefecture_kana":"トクシマケン","city":"板野郡板野町","city_kana":"イタノグンイタノチョウ","town":"川端","town_kana":"カワバタ","prefecture_code":36},"0113":{"zip_code":"7790113","prefecture":"徳島県","prefecture_kana":"トクシマケン","city":"板野郡板野町","city_kana":"イタノグンイタノチョウ","town":"黒谷","town_kana":"クロダニ","prefecture_code":36},"0118":{"zip_code":"7790118","prefecture":"徳島県","prefecture_kana":"トクシマケン","city":"板野郡板野町","city_kana":"イタノグンイタノチョウ","town":"下庄","town_kana":"シモノショウ","prefecture_code":36},"0116":{"zip_code":"7790116","prefecture":"徳島県","prefecture_kana":"トクシマケン","city":"板野郡板野町","city_kana":"イタノグンイタノチョウ","town":"唐園","town_kana":"トウノソ","prefecture_code":36},"0117":{"zip_code":"7790117","prefecture":"徳島県","prefecture_kana":"トクシマケン","city":"板野郡板野町","city_kana":"イタノグンイタノチョウ","town":"中久保","town_kana":"ナカクボ","prefecture_code":36},"0111":{"zip_code":"7790111","prefecture":"徳島県","prefecture_kana":"トクシマケン","city":"板野郡板野町","city_kana":"イタノグンイタノチョウ","town":"那東","town_kana":"ナトウ","prefecture_code":36},"0119":{"zip_code":"7790119","prefecture":"徳島県","prefecture_kana":"トクシマケン","city":"板野郡板野町","city_kana":"イタノグンイタノチョウ","town":"西中富","town_kana":"ニシナカトミ","prefecture_code":36},"0104":{"zip_code":"7790104","prefecture":"徳島県","prefecture_kana":"トクシマケン","city":"板野郡板野町","city_kana":"イタノグンイタノチョウ","town":"吹田","town_kana":"フキタ","prefecture_code":36},"0107":{"zip_code":"7790107","prefecture":"徳島県","prefecture_kana":"トクシマケン","city":"板野郡板野町","city_kana":"イタノグンイタノチョウ","town":"古城","town_kana":"フルシロ","prefecture_code":36},"0112":{"zip_code":"7790112","prefecture":"徳島県","prefecture_kana":"トクシマケン","city":"板野郡板野町","city_kana":"イタノグンイタノチョウ","town":"松谷","town_kana":"マツダニ","prefecture_code":36},"0115":{"zip_code":"7790115","prefecture":"徳島県","prefecture_kana":"トクシマケン","city":"板野郡板野町","city_kana":"イタノグンイタノチョウ","town":"矢武","town_kana":"ヤタケ","prefecture_code":36},"0114":{"zip_code":"7790114","prefecture":"徳島県","prefecture_kana":"トクシマケン","city":"板野郡板野町","city_kana":"イタノグンイタノチョウ","town":"羅漢","town_kana":"ラカン","prefecture_code":36},"4100":{"zip_code":"7794100","prefecture":"徳島県","prefecture_kana":"トクシマケン","city":"美馬郡つるぎ町","city_kana":"ミマグンツルギチョウ","town":"","town_kana":"","prefecture_code":36},"4302":{"zip_code":"7794302","prefecture":"徳島県","prefecture_kana":"トクシマケン","city":"美馬郡つるぎ町","city_kana":"ミマグンツルギチョウ","town":"一宇","town_kana":"イチウ","prefecture_code":36},"4305":{"zip_code":"7794305","prefecture":"徳島県","prefecture_kana":"トクシマケン","city":"美馬郡つるぎ町","city_kana":"ミマグンツルギチョウ","town":"一宇","town_kana":"イチウ","prefecture_code":36},"4301":{"zip_code":"7794301","prefecture":"徳島県","prefecture_kana":"トクシマケン","city":"美馬郡つるぎ町","city_kana":"ミマグンツルギチョウ","town":"一宇","town_kana":"イチウ","prefecture_code":36},"4304":{"zip_code":"7794304","prefecture":"徳島県","prefecture_kana":"トクシマケン","city":"美馬郡つるぎ町","city_kana":"ミマグンツルギチョウ","town":"一宇","town_kana":"イチウ","prefecture_code":36},"4306":{"zip_code":"7794306","prefecture":"徳島県","prefecture_kana":"トクシマケン","city":"美馬郡つるぎ町","city_kana":"ミマグンツルギチョウ","town":"一宇","town_kana":"イチウ","prefecture_code":36},"4307":{"zip_code":"7794307","prefecture":"徳島県","prefecture_kana":"トクシマケン","city":"美馬郡つるぎ町","city_kana":"ミマグンツルギチョウ","town":"一宇","town_kana":"イチウ","prefecture_code":36},"4303":{"zip_code":"7794303","prefecture":"徳島県","prefecture_kana":"トクシマケン","city":"美馬郡つるぎ町","city_kana":"ミマグンツルギチョウ","town":"一宇","town_kana":"イチウ","prefecture_code":36},"4101":{"zip_code":"7794101","prefecture":"徳島県","prefecture_kana":"トクシマケン","city":"美馬郡つるぎ町","city_kana":"ミマグンツルギチョウ","town":"貞光","town_kana":"サダミツ","prefecture_code":36},"4105":{"zip_code":"7794105","prefecture":"徳島県","prefecture_kana":"トクシマケン","city":"美馬郡つるぎ町","city_kana":"ミマグンツルギチョウ","town":"貞光","town_kana":"サダミツ","prefecture_code":36},"4103":{"zip_code":"7794103","prefecture":"徳島県","prefecture_kana":"トクシマケン","city":"美馬郡つるぎ町","city_kana":"ミマグンツルギチョウ","town":"貞光","town_kana":"サダミツ","prefecture_code":36},"4106":{"zip_code":"7794106","prefecture":"徳島県","prefecture_kana":"トクシマケン","city":"美馬郡つるぎ町","city_kana":"ミマグンツルギチョウ","town":"貞光","town_kana":"サダミツ","prefecture_code":36},"4104":{"zip_code":"7794104","prefecture":"徳島県","prefecture_kana":"トクシマケン","city":"美馬郡つるぎ町","city_kana":"ミマグンツルギチョウ","town":"貞光","town_kana":"サダミツ","prefecture_code":36},"4108":{"zip_code":"7794108","prefecture":"徳島県","prefecture_kana":"トクシマケン","city":"美馬郡つるぎ町","city_kana":"ミマグンツルギチョウ","town":"貞光","town_kana":"サダミツ","prefecture_code":36},"4109":{"zip_code":"7794109","prefecture":"徳島県","prefecture_kana":"トクシマケン","city":"美馬郡つるぎ町","city_kana":"ミマグンツルギチョウ","town":"貞光","town_kana":"サダミツ","prefecture_code":36},"4107":{"zip_code":"7794107","prefecture":"徳島県","prefecture_kana":"トクシマケン","city":"美馬郡つるぎ町","city_kana":"ミマグンツルギチョウ","town":"貞光","town_kana":"サダミツ","prefecture_code":36},"4102":{"zip_code":"7794102","prefecture":"徳島県","prefecture_kana":"トクシマケン","city":"美馬郡つるぎ町","city_kana":"ミマグンツルギチョウ","town":"貞光","town_kana":"サダミツ","prefecture_code":36},"4404":{"zip_code":"7794404","prefecture":"徳島県","prefecture_kana":"トクシマケン","city":"美馬郡つるぎ町","city_kana":"ミマグンツルギチョウ","town":"半田","town_kana":"ハンダ","prefecture_code":36},"4402":{"zip_code":"7794402","prefecture":"徳島県","prefecture_kana":"トクシマケン","city":"美馬郡つるぎ町","city_kana":"ミマグンツルギチョウ","town":"半田","town_kana":"ハンダ","prefecture_code":36},"4401":{"zip_code":"7794401","prefecture":"徳島県","prefecture_kana":"トクシマケン","city":"美馬郡つるぎ町","city_kana":"ミマグンツルギチョウ","town":"半田","town_kana":"ハンダ","prefecture_code":36},"4406":{"zip_code":"7794406","prefecture":"徳島県","prefecture_kana":"トクシマケン","city":"美馬郡つるぎ町","city_kana":"ミマグンツルギチョウ","town":"半田","town_kana":"ハンダ","prefecture_code":36},"4405":{"zip_code":"7794405","prefecture":"徳島県","prefecture_kana":"トクシマケン","city":"美馬郡つるぎ町","city_kana":"ミマグンツルギチョウ","town":"半田","town_kana":"ハンダ","prefecture_code":36},"4403":{"zip_code":"7794403","prefecture":"徳島県","prefecture_kana":"トクシマケン","city":"美馬郡つるぎ町","city_kana":"ミマグンツルギチョウ","town":"半田","town_kana":"ハンダ","prefecture_code":36},"4407":{"zip_code":"7794407","prefecture":"徳島県","prefecture_kana":"トクシマケン","city":"美馬郡つるぎ町","city_kana":"ミマグンツルギチョウ","town":"半田","town_kana":"ハンダ","prefecture_code":36},"4700":{"zip_code":"7794700","prefecture":"徳島県","prefecture_kana":"トクシマケン","city":"三好郡東みよし町","city_kana":"ミヨシグンヒガシミヨシチョウ","town":"","town_kana":"","prefecture_code":36},"4701":{"zip_code":"7794701","prefecture":"徳島県","prefecture_kana":"トクシマケン","city":"三好郡東みよし町","city_kana":"ミヨシグンヒガシミヨシチョウ","town":"加茂","town_kana":"カモ","prefecture_code":36},"4707":{"zip_code":"7794707","prefecture":"徳島県","prefecture_kana":"トクシマケン","city":"三好郡東みよし町","city_kana":"ミヨシグンヒガシミヨシチョウ","town":"毛田","town_kana":"ケタ","prefecture_code":36},"4706":{"zip_code":"7794706","prefecture":"徳島県","prefecture_kana":"トクシマケン","city":"三好郡東みよし町","city_kana":"ミヨシグンヒガシミヨシチョウ","town":"毛田","town_kana":"ケタ","prefecture_code":36},"4705":{"zip_code":"7794705","prefecture":"徳島県","prefecture_kana":"トクシマケン","city":"三好郡東みよし町","city_kana":"ミヨシグンヒガシミヨシチョウ","town":"毛田","town_kana":"ケタ","prefecture_code":36},"4704":{"zip_code":"7794704","prefecture":"徳島県","prefecture_kana":"トクシマケン","city":"三好郡東みよし町","city_kana":"ミヨシグンヒガシミヨシチョウ","town":"中庄","town_kana":"ナカショウ","prefecture_code":36},"4703":{"zip_code":"7794703","prefecture":"徳島県","prefecture_kana":"トクシマケン","city":"三好郡東みよし町","city_kana":"ミヨシグンヒガシミヨシチョウ","town":"中庄","town_kana":"ナカショウ","prefecture_code":36},"4702":{"zip_code":"7794702","prefecture":"徳島県","prefecture_kana":"トクシマケン","city":"三好郡東みよし町","city_kana":"ミヨシグンヒガシミヨシチョウ","town":"西庄","town_kana":"ニシショウ","prefecture_code":36}}